companyName,storeNumber,storeName,address,lat,lon,state_code
統一超商,16836358,台北市第４０２分公司,內湖區大湖山莊街219巷6、8號1樓,25.088348,121.59941,554827046
統一超商,16841079,台北市第４１２分公司,大安區仁愛路四段二十七巷一號一樓,25.038663800000002,121.5452794,553726941
統一超商,16846594,台北市第四二三分公司,信義區松山路608、610號1樓,25.035809399999998,121.57850079999999,553626941
統一超商,23530852,臺北巿第１７０分公司,士林區大北路14、16號1樓,25.0898549,121.52664740000002,554827031
統一超商,53009986,台北市第七十分公司,松山區復興北路313巷25號1樓,25.059017899999997,121.5462756,554126987
統一超商,54371942,台北市第七四０分公司,士林區大東路123、125號1樓,25.0915938,121.5254493,554827033
統一超商,70746116,台北市第四三二分公司,中正區林森南路51、53、55號1樓,25.0402245,121.5221926,553726939
統一超商,70803100,台北市第一五九分公司,中正區寧波西街86之1號,25.0298397,121.5158945,553526911
統一超商,80333944,台北市第二一八分公司,內湖區金瑞里內湖路三段一四一巷七號一樓,25.0863297,121.5892423,554727041
統一超商,84708900,臺北巿第２７１分公司,士林區社中街320、322號1樓,25.092339300000003,121.5051869,554927029
全家便利商店,27933928,德芬分公司,北投區吉利里石牌里１段３９巷１２４號１樓,25.117168799999998,121.50980420000002,555427049
全家便利商店,53662416,新貿分公司,信義區信義路4段407號1樓,25.0333083,121.5588881,553626930
萊爾富國際,53673856,第四一二四分公司,北投區永和里行義路142-1號地下1樓、142-3號地下1樓,25.129919100000002,121.5282383,555727056
萊爾富國際,80653755,北市信德分公司,信義區虎林街一六四巷六０弄二號一樓,25.037987899999997,121.57448470000001,553726945
統一超商,22656086,台北市第八十一分公司,民生東路二段１１３號１樓,25.058055399999997,121.5315574,554126982
統一超商,27259656,台北市第三八七分公司,萬華區富民里廣州街148號,25.036580800000003,121.50059569999999,553626925
統一超商,51529737,台北市第八九四分公司,內湖區堤頂大道2段411號1樓,25.080536499999997,121.56295459999998,554627027
統一超商,54389133,台北市第七七三分公司,萬華區興義街6、8號1樓,25.026678699999998,121.49166389999999,553426896
統一超商,80336436,台北市第四０八分公司,中正區南海路五十號一樓,25.032057100000003,121.51533090000001,553526917
來來超商,80347308,第七五六分公司,士林區天母北路８９號１樓,25.1228327,121.5267962,555527055
全家便利商店,24809279,台北市第五六O分公司,信義區永春里中坡北路23號1樓,25.0449439,121.58078400000001,553826964
全家便利商店,27948529,瑞湖分公司,內湖區港墘里瑞光路513巷39號1樓,25.0800807,121.57024209999999,554627028
全家便利商店,43230306,台北市第五七一分公司,內湖區湖元里瑞光路66巷40號,25.0696006,121.58091329999999,554427014
全家便利商店,53651776,金漾分公司,中山區林森北路308號、台北市中山區林森北路308-1號,25.056186899999997,121.5253541,554126977
全家便利商店,70779827,寶慶分公司,中正區建國里延平南路111號1樓,25.038080800000003,121.50997290000001,553726931
萊爾富國際,53650755,第三九六九分公司,北投區清江里清江路53號、55號1樓,25.127528299999998,121.5020154,555627050
萊爾富國際,80351668,北市安復分公司,大安區光武里復興南路一段一三五巷二十一號一樓,25.042657000000002,121.54522150000001,553826951
統一超商,23116518,台北巿第１３４分公司,士林區至誠路二段31、31-1號1樓,25.1017758,121.5292749,555127044
統一超商,27236486,台北市第五六七分公司,內湖區康寧路一段一六０號,25.0804384,121.5914236,554627034
統一超商,53650191,台北市第八一九分公司,萬華區昆明街197、199號1樓,25.0391417,121.5041869,553726933
統一超商,54372843,台北市第七四二分公司,北投區致遠一路2段49、51號1樓,25.111991,121.513601,555327047
統一超商,54373316,台北市第七四三分公司,士林區華岡路45-1號1樓,25.137841,121.54211799999999,555927059
來來超商,70761734,第五０四分公司,信義區莊敬路３９３號１樓,25.0275359,121.56569499999999,553426915
全家便利商店,24795839,台北市第五四八分公司,大安區大學里羅斯福路3段269巷2號,25.0189895,121.5307517,553226882
全家便利商店,28985775,長復分公司,松山區長安東路2段219號,25.048331899999997,121.5448361,553926964
全家便利商店,28995176,興亞分公司,中山區南京東路2段26號1樓,25.051864899999998,121.5290636,554026968
全家便利商店,53652923,大昌分公司,中正區南昌路1段67、69號,25.03104,121.517508,553526914
全家便利商店,53657912,美林分公司,中山區新生北路2段62巷38-3號,25.056147,121.52590500000001,554126977
萊爾富國際,51601202,北市日出分公司,文山區木柵路2段4號,24.988601,121.55791699999999,552626782
萊爾富國際,54386760,第四二一一分公司,內湖區西康里文湖街21巷26、28號1樓,25.0910758,121.5599497,554827040
萊爾富國際,70825110,北市湖森分公司,內湖區湖元里瑞光路六十六巷三十三號一樓,25.0697778,121.5813294,554427015
統一超商,28976706,台北市第六八○分公司,大同區民生西路214、216號1樓,25.0568694,121.51499579999998,554126976
統一超商,43062201,台北市第八六二分公司,大同區南京西路296、298號1樓,25.050801899999996,121.51831010000001,553926964
統一超商,53650122,台北市第八一七分公司,士林區德華里文林路669號1樓,25.1008507,121.5221153,555127041
統一超商,53656694,台北市第八三九分公司,中正區寧波東街17號1樓,25.033101000000002,121.52027679999999,553626921
統一超商,80353130,台北市第一三九分公司,中正區廈門街四十六號一樓,25.025584100000003,121.51739579999999,553426899
統一超商,84894469,台北巿第二八八分公司,中山區長春路9、11號1樓,25.0550754,121.52361029999999,554026974
統一超商,84900309,台北巿第２９９分公司,文山區順興里二十六鄰保儀路一六六號１樓,24.982909,121.5652248,552426762
來來超商,23225950,第二十三分公司,八德路４段３８號１樓,25.0482371,121.5591882,553926967
全家便利商店,28427168,天成分公司,士林區天母東路36號之5、之6,25.1179057,121.5326821,555427055
全家便利商店,51530875,台北市第六O四分公司,萬華區菜園里康定路60號1樓,25.042130800000002,121.5022737,553826940
全家便利商店,54382146,台北市第五一七分公司,內湖區行善路289、289-1號1樓,25.061675100000002,121.58416809999999,554227001
萊爾富國際,53004321,第三八三六分公司,內湖區港墘里陽光街298號1樓,25.072667199999998,121.5747775,554427018
萊爾富國際,53654056,第四０五三分公司,內湖區港墘里江南街111號1樓,25.076484100000002,121.57637700000001,554527024
統一超商,16088760,台北巿第３５０分公司,大安區和平東路二段１１８巷三十三號１樓,25.023535,121.54292659999999,553326899
統一超商,16841654,台北市第四一四分公司,大安區忠孝東路四段二一六巷六十八號一樓,25.038126199999997,121.55288519999999,553726941
統一超商,28430494,台北市第六五八分公司,中山區長安東路1段53巷1之3號1樓,25.049146899999997,121.526524,553926962
統一超商,53654302,台北市第八三一分公司,大安區臥龍街252、252-1號1樓,25.0184064,121.5570125,553226886
統一超商,54388789,台北市第七七二分公司,大同區民族西路246、248號1樓,25.0685042,121.5125196,554326997
統一超商,70820282,台北市第五０七分公司,大安區和平東路一段一六九號一樓,25.0265332,121.5317508,553426905
統一超商,89395364,台北市第三一六分公司,內湖區康樂街125巷2、2-1號1樓,25.0734651,121.6196646,554427029
來來超商,23929825,第八十八分公司,信義區虎林街７２號１樓,25.044140399999996,121.57703590000001,553826961
來來超商,28994351,第六九一分公司,中山區中原街8號,25.0561846,121.528792,554126977
全家便利商店,51329674,台北市第五九一分公司,大同區建泰里太原路81號,25.051893399999997,121.5157389,554026965
全家便利商店,86386101,東園分公司,萬華區東園街69號、71號、71之1號1樓,25.023201399999998,121.4976402,553326888
萊爾富國際,27311837,北市安建分公司,大安區建國南路一段三三七號一樓,25.0345389,121.538247,553626928
萊爾富國際,70807318,北市衣蝶分公司,大同區南京西路六十三號一樓,25.053160600000002,121.5189895,554026969
統一超商,16087241,台北巿第三四九分公司,士林區福順里重慶北路4段149、151號1樓,25.080023,121.51324,554627016
統一超商,22822058,台北巿第１１３分公司,寧波西街３號１樓,25.0315267,121.51875890000001,553526916
統一超商,53028724,台北市第八一五分公司,中山區江山里建國北路2段127號1樓,25.060012,121.53746000000001,554126987
統一超商,54372415,台北市第七四一分公司,文山區羅斯福路5段21號1樓,25.007923,121.538523,553026848
統一超商,54383877,台北市第七五七分公司,中山區龍江路104號1樓,25.066017300000002,121.53738020000002,554326998
統一超商,97163795,台北市第１１２分公司,中山區民權東路2段26號1樓,25.062364499999997,121.5288989,554226990
來來超商,28998413,第八二一分公司,中山區撫順街21號,25.0636411,121.52059960000001,554226990
來來超商,80509865,第六一五分公司,大安區金華街２４１－１號１樓,25.0298399,121.530477,553526914
全家便利商店,24809398,台北市第五六一分公司,松山區東光里南京東路5段123巷1號及1-1號1樓,25.053342,121.56121200000001,554026979
全家便利商店,28971998,豐華分公司,松山區民有里民生東路3段113巷6弄1號,25.058659,121.546031,554126986
全家便利商店,51236676,台北市第五八七分公司,萬華區華中里萬大路486巷59弄1號1樓及57號1樓,25.019886,121.49550320000002,553326877
全家便利商店,84307285,興忠分公司,大安區復興南路1段200號1樓,25.0395962,121.54354620000001,553726943
萊爾富國際,80346764,北市文武分公司,文山區萬祥里羅斯福路五段二０三號一樓,25.0013099,121.539515,552826826
統一超商,22555524,台北市第二十五分公司,敦化北路149號1樓,25.053870899999996,121.5495491,554026977
統一超商,28423825,台北市第二五０分公司,士林區基河路1號1樓,25.0863232,121.52504209999998,554727027
統一超商,28989174,台北市第六九一分公司,大同區民權西路157-1號1樓,25.0631603,121.5162926,554226988
統一超商,53004547,台北市第一四五分公司,北投區立德路125號1樓,25.1284955,121.4720103,555727044
統一超商,54375882,台北市第七四九分公司,北投區立功街76號1樓,25.125008899999997,121.4696585,555627043
統一超商,84703068,台北巿第２６２分公司,中山區北安路606號1樓,25.081976,121.54893200000001,554627026
全家便利商店,16741682,大業分公司,北投區大興街22號1樓,25.1298943,121.49842849999999,555727050
全家便利商店,23167430,木柵路分公司,文山區木柵路3段148號1樓,24.988804000000002,121.56861200000002,552626786
全家便利商店,28422179,明水分公司,中山區永安里明水路581巷11號1樓,25.0801384,121.55119579999999,554627024
全家便利商店,51463600,台北市第六O二分公司,文山區景仁里羅斯福路6段146-1號,24.9954818,121.5409423,552726805
全家便利商店,86385362,麗山分公司,內湖區內湖路1段737巷49號1樓,25.080389800000003,121.5790717,554627031
萊爾富國際,53006432,第三八七○分公司,內湖區西康里內湖路1段120巷16號1樓,25.0826268,121.5626348,554627030
萊爾富國際,53026628,第三九九五分公司,南港區合成里玉成街52巷2弄3號、5號1樓,25.047749,121.58145900000001,553926971
統一超商,22555931,台北市第六十六分公司,中華商場義棟六十七號１樓,25.0451499,121.5319628,553826954
統一超商,27948464,台北市第六一八分公司,內湖區瑞光路580號1樓,25.0801026,121.56640049999999,554627028
統一超商,51630706,台北市第九一七分公司,大安區復興南路1段107巷5弄1號1樓,25.043732199999997,121.54444850000002,553826953
統一超商,97162310,台北巿第１０１分公司,中山區一江街23號1樓,25.052989399999998,121.531631,554026971
全家便利商店,16434609,龍山分公司,萬華區康定路１８９號１樓,25.0364157,121.50159070000001,553626925
全家便利商店,24793184,台北市第五四五分公司,中正區汀州路2段38號1樓及台北市中正區廈門街61號、63號1樓,25.0252716,121.5175485,553426898
全家便利商店,53013412,酒泉分公司,大同區庫倫街48之4號、48之5號1樓,25.0718414,121.51840770000001,554427004
全家便利商店,53018866,安賢分公司,大安區四維路170巷4號,25.028099899999997,121.54779620000001,553426913
全家便利商店,53666807,敦中分公司,松山區敦化北路4巷1號,25.0500593,121.54736489999999,553926968
全家便利商店,70758421,萬全分公司,大同區雙連里民生西路63號1樓,25.0577402,121.5201311,554126979
全家便利商店,80032285,萬和分公司,文山區萬隆里羅斯福路5段218巷38弄2號1樓,25.0021667,121.53691429999999,552926828
萊爾富國際,28976868,第三七○七分公司,北投區八仙里中央南路2段5號、7號1樓,25.1259449,121.5005487,555627050
統一超商,16633641,台北市第３８５分公司,中山區北安路六四九號一樓,25.084047,121.54919,554727029
統一超商,16833900,台北市第３９６分公司,信義區信義路六段十一號一樓,25.034160999999997,121.575201,553626936
統一超商,53027513,台北市第八一二分公司,中正區辛市里忠孝東路2段100號1樓,25.04419,121.52811270000001,553826951
統一超商,70777623,台北市第四八一分公司,中山區龍江路239號1樓,25.0582971,121.5408346,554126984
統一超商,86519073,臺北巿第２１３分公司,大安路一段二十二號１樓,25.0440708,121.54608300000001,553826954
統一超商,97167461,台北市第１５３分公司,南港區南港路一段303、305、307號1樓,25.0543654,121.60773870000001,554026991
全家便利商店,28988029,崇德分公司,信義區崇德街29號,25.024372,121.55376480000001,553426903
全家便利商店,43174108,台北市第五六七分公司,萬華區萬壽里漢口街2段22號、漢口街2段20巷2號,25.044913,121.508068,553826948
全家便利商店,51323587,台北市第五八九分公司,萬華區忠德里東園街28巷34號1樓,25.0268479,121.49506140000001,553426898
全家便利商店,51595503,台北市第六O七分公司,大安區敦安里安和路1段104號,25.034157999999998,121.552268,553626930
全家便利商店,53007946,萬興分公司,文山區興隆路1段55巷27弄1-4號、1-6號、1-7號,24.9998009,121.5445163,552826821
全家便利商店,53014215,芝蘭分公司,士林區德行東路330號,25.110221799999998,121.5375027,555327052
統一超商,23472467,台北巿第１６０分公司,建國南路二段１５１巷６、８號１樓,25.028706,121.5384152,553526913
統一超商,24793419,台北市第七九０分公司,士林區延平北路5段228號1樓、230號1、2樓,25.0856168,121.5093202,554727022
統一超商,27950186,台北市第六二五分公司,中正區臨沂街74、76號,25.0345844,121.5278,553626926
統一超商,28991137,台北市第六九二分公司,內湖區瑞光路76巷59號1樓,25.0701956,121.58030259999998,554427015
統一超商,54370232,台北市第七三七分公司,中山區明水路397巷7弄25號1樓,25.0781193,121.5494913,554527021
統一超商,97164099,台北巿第１３１分公司,北投區中央北路4段513號1樓,25.128122199999996,121.46853859999999,555727043
統一超商,97179662,台北巿第３１９分公司,萬華區西寧南路八十五號１樓,25.0455789,121.506847,553826949
全家便利商店,24792657,台北市第五四三分公司,內湖區石潭路67號1樓,25.0628299,121.58719070000001,554227004
全家便利商店,54375617,台北市第五一0分公司,中正區中華路2段307巷46、48、50、52號,25.029412699999998,121.5064301,553526907
全家便利商店,89397546,名門分公司,文山區和平東路4段95、97號1樓,25.005017300000002,121.5683746,552926845
全家便利商店,97178636,羅中分公司,大安區羅斯福路2段17號1樓,25.028110899999998,121.52194399999999,553426907
萊爾富國際,54374906,第四一七七分公司,大安區黎孝里安居街15號1樓,25.0209341,121.55505490000002,553326894
統一超商,24803654,台北市第八００分公司,內湖區民權東路6段82號1樓,25.0687097,121.585673,554327014
統一超商,28971744,台北市第六七三分公司,中山區松江路101號1樓,25.051150699999997,121.53326070000001,554026968
統一超商,53655822,台北市第八三四分公司,南港區玉成街150號1樓,25.0450006,121.583643,553826965
統一超商,53658996,台北市第八四六分公司,大同區南京西路233巷15、17號1樓,25.054271,121.51053799999998,554026969
統一超商,70780388,台北市第六十二分公司,中正區衡陽路6號1樓,25.042208,121.513777,553826943
統一超商,70790908,台北市第一０五分公司,大安區辛亥路二段五十七號一樓,25.0230569,121.537167,553326896
統一超商,84445702,台北巿第２５５分公司,吳興街１５６巷2弄2、4號1樓,25.0291062,121.56145929999998,553526919
全家便利商店,28423655,文湖分公司,內湖區西安里文湖街59號1樓,25.086807699999998,121.5626706,554727036
全家便利商店,70763260,齊東分公司,中正區幸福里濟南路2段3號之7，1樓,25.04146,121.52661270000002,553726944
全家便利商店,70799838,景和分公司,文山區景美里羅斯福路六段274號1樓,24.991463,121.53990800000001,552626790
全家便利商店,80027425,陽大分公司,北投區東華里立農街2段155號1樓,25.119244600000002,121.5138621,555527051
萊爾富國際,70809961,北市羅斯福分公司,大安區古莊里羅斯福路二段七十五之一號一樓,25.025802300000002,121.5234687,553426901
統一超商,22958224,臺北巿第一一九分公司,大同區承德路三段60、60-1號1樓,25.0653753,121.51811370000001,554326993
統一超商,23111345,台北市第１２６分公司,東湖路九十號１樓,25.068468499999998,121.61486670000001,554327020
統一超商,51015569,台北市第八七四分公司,大安區基隆路4段43號1樓,25.0132497,121.5411187,553126866
統一超商,70772747,台北市第四七四分公司,松山區民生東路四段一三０號一樓,25.0578234,121.54982679999999,554126985
統一超商,80351604,台北市第五四五分公司,中正區衡陽路二十七號一樓,25.0424069,121.512841,553826943
統一超商,84896109,台北市第２９２分公司,文山區興隆路3段108號1樓,24.999278699999998,121.55732379999999,552826822
統一超商,97163373,台北巿第１３２分公司,大安區光復南路262號1樓,25.0401402,121.5574726,553726947
全家便利商店,24812112,台北市第五七三分公司,萬華區富福里西園路1段159號、161號1樓,25.034999300000003,121.4994685,553626921
全家便利商店,28422635,長通分公司,中山區中央里伊通街108號1樓,25.0541429,121.5347048,554026974
全家便利商店,28422918,欣欣分公司,中山區中原里長春路100號1樓,25.0547762,121.5279422,554026974
萊爾富國際,28431445,第三五五七分公司,南港區經貿二路1號,25.0560908,121.61758999999999,554126997
萊爾富國際,70751932,北市萬興分公司,文山區興隆路三段五十八號一樓,24.999950600000002,121.55605179999999,552826824
統一超商,27922226,台北市第一二一分公司,松山區塔悠路31、33號1樓,25.0507342,121.57157099999999,553926975
統一超商,27948416,台北市第六一六分公司,中山區南京東路1段132巷8號1樓,25.0513075,121.5270438,554026967
統一超商,51713712,台北市第九二一分公司,中山區松江路237號1樓,25.0590059,121.53353940000001,554126984
統一超商,51722509,台北市第九二三分公司,中山區敬業一路130號1樓,25.083627399999997,121.55248200000001,554727029
統一超商,86119724,臺北巿第２０４分公司,大同區民生西路176號1樓,25.057185999999998,121.51751599999999,554126977
來來超商,1582573,第二分公司,士林區中山北路５段７０２號１樓,25.097799399999996,121.527635,555027040
來來超商,28426793,第一０六七分公司,士林區中山北路7段81巷8號1樓,25.121861600000003,121.53066159999999,555527055
來來超商,54395640,第一一一O分公司,士林區中正路422號1樓,25.093394,121.519544,554927034
來來超商,70754924,第四七四分公司,北投區致遠二路１２３號１樓,25.1170316,121.512289,555427050
全家便利商店,51212105,台北市第五八五分公司,萬華區福音里康定路97號、99號1樓,25.039548800000002,121.5017868,553726933
全家便利商店,53656625,景富分公司,文山區景福街25號、25-1號、25-2號,24.999072299999998,121.53822609999999,552826817
萊爾富國際,28419821,第三四四九分公司,中山區天祥路70號1樓,25.062396300000003,121.52083909999999,554226988
統一超商,51328078,台北市第九四七分公司,大安區信義路2段198巷6號1樓、B1樓,25.033004000000002,121.530336,553526923
統一超商,53014355,台北市第二九一分公司,內湖區行善路64號1樓,25.057055899999998,121.57628159999999,554126990
統一超商,54374645,台北市第七四七分公司,士林區德行東路106、108號1樓,25.111009699999997,121.52887720000001,555327050
統一超商,97160072,台北市第九十三分公司,萬華區漢口街二段73號1樓,25.0461357,121.5053001,553826950
來來超商,27242614,第八五六分公司,中山區龍江路４７號１樓,25.0492823,121.54055929999998,553926965
全家便利商店,16639526,興仁分公司,大安區復興南路1段217號1樓,25.0391581,121.54401100000001,553726942
全家便利商店,23932687,安居分公司,大安區安居街76號1樓,25.0196611,121.55332990000001,553326889
全家便利商店,27939562,敦新分公司,大安區敦安里仁愛路4段112巷5號1樓,25.0369716,121.54974229999999,553626937
全家便利商店,28422419,日新分公司,大同區光能里承德路2段39號、41號1樓,25.0549924,121.51841329999999,554026973
全家便利商店,28999270,京江分公司,中山區一江街22號、22之1號1樓,25.0527301,121.531402,554026971
萊爾富國際,53010702,第三八九九分公司,中山區朱園里松江路27號1樓,25.0473433,121.53318329999999,553926959
萊爾富國際,80682837,北市安皓分公司,大安區忠孝東路四段181巷8號,25.042067499999998,121.55070009999999,553826950
統一超商,28986057,台北市第六八九分公司,中山區長安東路2段178、178號之1一樓,25.048241,121.54069150000001,553926963
統一超商,28991896,台北市第六九五分公司,南港區南港里南港路1段167號1樓,25.0550967,121.6133095,554026994
統一超商,51707872,台北市第九二０分公司,中山區林森北路101號1樓,25.0501796,121.52502279999999,553926964
統一超商,53012201,台北市第二０六分公司,松山區南京東路5段315號1樓,25.0515812,121.56682509999999,554026976
統一超商,97164859,台北巿第１３８分公司,文山區羅斯福路6段308、310號1樓,24.9906018,121.53962050000001,552626786
來來超商,27246055,第八七三分公司,北投區復興四路２３號１樓,25.142146,121.499944,556027049
來來超商,70824317,第七一八分公司,文山區興隆路４段５５號１樓,24.989673,121.55986999999999,552626787
全家便利商店,16848609,光新分公司,大安區光復南路418號1樓,25.0365381,121.5573165,553626938
全家便利商店,53673526,忠孝分公司,大安區敦化南路1段190巷7樓,25.042711899999997,121.54779840000002,553826951
全家便利商店,54370649,台北市第五0二分公司,中山區伊通街58號、60號,25.051522199999997,121.53463329999998,554026969
全家便利商店,70788229,延安分公司,大安區延吉街158號1樓,25.0395322,121.55485060000001,553726945
萊爾富國際,70786926,北市南海分公司,中正區南海路一二一四號一樓,25.031342600000002,121.5120567,553526914
統一超商,23983030,臺北巿第１９６分公司,文山區指南路一段34、36號1樓,24.9876009,121.56966399999999,552526781
統一超商,27942454,台北市第一七七分公司,萬華區萬大路292、294號1樓,25.0250457,121.50044550000001,553426894
統一超商,51010121,台北市第八七一分公司,北投區石牌路2段179號1樓,25.1186029,121.5182004,555427052
統一超商,80032503,台北市第一０二分公司,南港區研究院路二段一五二號一樓,25.038389499999997,121.61691609999998,553726956
統一超商,86122045,台北巿第２０５分公司,大安區通化街26-8號1樓,25.0315093,121.55414840000002,553526924
全家便利商店,16639504,松花分公司,中山區松江路九十五之一號一樓,25.0508766,121.5332982,553926967
全家便利商店,27231671,美華分公司,中山區北安里北安路819之1號1樓,25.084977,121.556229,554727032
全家便利商店,27258609,光輝分公司,中山區晴光里德惠街34之2號1樓,25.06655,121.52646440000001,554326997
全家便利商店,54383790,台北市第五二三分公司,內湖區星雲街161巷1號,25.0809124,121.5962673,554627035
全家便利商店,70783929,三興分公司,信義區景聯里吳興街7號1樓,25.0317752,121.55948479999999,553526926
全家便利商店,89282544,北投分公司,北投區光明路218之1號1樓,25.1362228,121.5042146,555827051
萊爾富國際,54374820,第四一五八分公司,內湖區石潭里新明路241號、241-1號1樓,25.057888600000002,121.58734469999999,554126994
統一超商,23357826,台北市第一四四分公司,中山區北安路六二一巷四八號一樓,25.082836999999998,121.54643200000001,554727027
統一超商,27943117,台北市第二四三分公司,信義區莊敬路178巷2號,25.0312165,121.56110859999998,553526925
統一超商,28993959,台北市第六九七分公司,文山區羅斯福路5段249號1樓,25.001530300000002,121.539676,552926826
統一超商,54384952,台北市第七六０分公司,中山區興安街112號1樓,25.0559021,121.543122,554126980
統一超商,70750835,台北市第四三八分公司,內湖區行善里行善路三十五號一樓,25.056831,121.5764051,554126989
統一超商,80355215,台北市第三七四分公司,信義區永吉路30巷103、105號1樓,25.043539499999998,121.56883729999998,553826958
統一超商,96970216,台北巿第３４０分公司,內湖區內湖路2段366號1樓,25.0823812,121.59087350000001,554627036
全家便利商店,27930942,松壽分公司,松山區自強里延壽街330巷7弄22號1樓,25.055349800000002,121.56211119999999,554026983
全家便利商店,51166448,台北市第五八一分公司,北投區桃源里中央北路3段4號、6號1樓,25.1377718,121.4829156,555927046
萊爾富國際,27927030,第３０８８分公司,大同區建泰里南京西路３０號１樓,25.050591,121.520036,553926963
萊爾富國際,28980841,第三七三五分公司,內湖區湖興里民權東路6段117號1樓,25.0691104,121.59220069999999,554327016
統一超商,22555741,台北市第４７分公司,大安區信義路四段265巷12弄1號1樓,25.0343188,121.554317,553626931
統一超商,22656136,台北市第八十六分公司,林森北路５００號１樓,25.061847699999998,121.5254793,554226988
統一超商,22660912,台北巿第九十五分公司,萬大路245、247號1樓,25.0261328,121.50065120000001,553426897
統一超商,28996739,台北市第七○○分公司,松山區吉祥村光復北路11巷44號1樓,25.049613,121.5595939,553926970
統一超商,70804831,台北市第四八八分公司,士林區德行西路九十六號一樓,25.104145000000003,121.52126899999999,555127044
統一超商,96974705,台北巿第４４分公司,北投區中央南路1段114號1樓,25.130574199999998,121.5010645,555727050
來來超商,53664104,第六分公司,中正區廈門街113巷17號1樓,25.0234685,121.519178,553326893
全家便利商店,16634579,新東分公司,松山區新東街14號1樓,25.0578366,121.5661588,554126989
全家便利商店,70771590,興盛分公司,內湖區週美里新明路182號1樓,25.057434100000002,121.5853506,554126993
全家便利商店,97174569,北醫分公司,信義區吳興街263號1樓,25.0270919,121.5638048,553426914
萊爾富國際,54388367,第四二二七分公司,中正區梅花里八德路1段82巷10號1樓,25.043704,121.5320165,553826950
萊爾富國際,86324268,承德分公司,士林區劍潭路62號1樓,25.083386899999997,121.52134640000001,554727022
統一超商,16085258,台北市第３４６分公司,萬華區環河南路二段２００號１樓,25.034084600000003,121.49307820000001,553626917
統一超商,22555340,台北市第７分公司,北投區中和街222號1樓,25.1391741,121.5018741,555927050
統一超商,24808503,台北市第八五八分公司,南港區玉成街69號1樓,25.048857199999997,121.58196059999999,553926973
統一超商,29182129,台北市第七○四分公司,南港區三重路23號1樓,25.0591835,121.61409640000001,554127002
統一超商,54388063,台北市第七六九分公司,大同區長安西路45-2、47號1樓,25.050794600000003,121.5179706,553926963
統一超商,84445695,台北巿第２５４分公司,北投區裕民一路40巷1號、3號1樓,25.116469100000003,121.51792240000002,555427051
統一超商,84708660,台北市第二七０分公司,大同區寧夏路131-1號1樓、涼州街4-2號1樓,25.060890899999997,121.51486940000001,554226984
全家便利商店,28997499,南機場分公司,中正區中華路2段311巷1號(1樓)、3號(1樓),25.0341259,121.50623390000001,553626920
全家便利商店,53023468,新青年分公司,萬華區青年路6號,25.0261796,121.5061989,553426898
全家便利商店,70815675,興崙分公司,文山區興隆路4段50之1號、50之2號1樓,24.986523000000002,121.560776,552526775
全家便利商店,80035614,重陽分公司,南港區東新里重陽路183號、185號1樓,25.056778899999998,121.59875929999998,554126994
統一超商,16443157,台北巿第３７２分公司,南港區忠孝東路六段２７６號,25.049101500000003,121.58906979999999,553926975
統一超商,22555355,台北市第８分公司,士林區忠誠路二段7號1樓,25.108968700000002,121.53063200000001,555227049
統一超商,23827236,台北巿第１９１分公司,忠孝東路四段２１６巷27弄1號1樓,25.0400238,121.55330990000002,553726946
統一超商,53004379,台北市第四十分公司,北投區公館路165號1樓、165-1號B1,25.12944,121.506818,555727052
統一超商,53011147,台北市第一一五分公司,大安區四維路170巷8號1樓,25.028109,121.5476361,553426913
統一超商,53658383,台北市第八四三分公司,大同區重慶北路3段47、49號1樓,25.0673365,121.51529309999998,554326996
統一超商,97169691,台北市第１９８分公司,松山區復興北路35號1樓,25.0500648,121.5442053,553926968
來來超商,28434463,第四四○分公司,信義區吳興街110號1樓,25.024101100000003,121.5677295,553426906
全家便利商店,16087853,景興分公司,文山區興隆路1段249號1樓,24.999589,121.54413100000001,552826821
全家便利商店,24795866,台北市第五四九分公司,萬華區保德里東園街172號、174號及長泰街132號1樓,25.0248715,121.49694479999998,553426892
全家便利商店,27238626,榮總分公司,北投區永欣里石牌路二段二０一號一樓,25.1192105,121.52038219999999,555527052
統一超商,16082787,台北巿第３４３分公司,中山區民生東路二段１５７號,25.0581224,121.53585530000001,554126983
統一超商,22555881,臺北市第６１分公司,民權西路３８號１樓,25.0626038,121.52120910000001,554226988
統一超商,23983968,臺北巿第２００分公司,中山區龍江路４０３號１樓,25.0658311,121.54108259999998,554326999
統一超商,27930794,台北市第六０四分公司,中山區錦西街16號,25.060269899999998,121.5213021,554226984
統一超商,53005659,台北市第三二二分公司,南港區向陽路166號1樓,25.055774300000003,121.59426409999999,554126991
統一超商,70766610,台北市第四六三分公司,中正區仁愛路二段三十九、三十九之一號一樓,25.038317000000003,121.529055,553726936
統一超商,89404700,台北市第３３４分公司,中山區松江路65號1樓,25.0490676,121.5331626,553926963
全家便利商店,23224919,民生西路分公司,民生西路２１４號１樓,25.0568694,121.51499579999998,554126976
全家便利商店,51237909,台北市第五八八分公司,萬華區興德里富民路91巷8號、10號1樓,25.018992100000002,121.4992351,553226875
全家便利商店,54377024,台北市第五一一分公司,萬華區峨眉街82號,25.044116,121.504065,553826945
萊爾富國際,70748472,北市興隆分公司,文山區興隆路二段二０三巷一六號一樓,25.0021272,121.54870349999999,552926831
統一超商,28973089,台北市第六七四分公司,內湖區康寧路3段63、65、67號1樓,25.0723656,121.6082852,554427025
統一超商,80023883,台北市第五二三分公司,北投區中央北路二段十五、十七號,25.138216699999997,121.4920912,555927048
來來超商,53006799,第七十一分公司,大同區重慶北路3段278之2號1樓,25.072604600000002,121.513539,554427004
來來超商,84703481,第一五一分公司,北投區致遠一路１段４４號１樓,25.108539,121.51647709999999,555227046
全家便利商店,23225608,東湖分公司,內湖區東湖路４５號１樓,25.068914000000003,121.61412379999999,554327021
全家便利商店,24794661,台北市第五四六分公司,中山區力行里龍江路95號、97號1樓,25.0518546,121.5404469,554026971
全家便利商店,28998716,塔悠分公司,松山區延壽街2號1樓、6號1樓&塔悠路202號1樓,25.0572014,121.5690567,554126988
全家便利商店,51442330,台北市第五九五分公司,士林區三玉里忠誠路2段5號1樓,25.1087698,121.53060049999999,555227049
全家便利商店,70763254,湖山分公司,內湖區港都里麗山街348巷10弄2號1樓,25.0821914,121.57346969999999,554627032
全家便利商店,97161826,龍泉分公司,大安區師大路三十九巷８號１樓,25.02457,121.528853,553426899
萊爾富國際,16176102,北巿港成分公司,南港區玉成街２７號一樓,25.05051,121.581897,553926977
統一超商,16450620,台北市第三八三分公司,北投區光明路121號1樓,25.1338665,121.50209939999999,555827051
統一超商,16833444,台北市第３９４分公司,士林區中山北路七段十四巷十九號Ｂ一樓,25.118896,121.532398,555427055
統一超商,22555518,台北市第二十四分公司,松山區延壽街422號1樓,25.0562242,121.5564331,554126984
統一超商,23640963,台北巿第１７８分公司,大安區和平東路3段97號、97-1號1樓,25.0246603,121.5508287,553426904
統一超商,53012217,台北市第一五五分公司,中山區林森北路380號之1  1樓,25.0584415,121.5253511,554126981
統一超商,70812353,台北市第五００分公司,信義區松山路136號、138號、138之1號1樓,25.0490105,121.5788896,553926973
統一超商,89388336,台北市第三０四分公司,南港區研究院路二段十四號一樓,25.047537100000003,121.6154884,553926978
全家便利商店,23224404,石牌分公司,北投區石牌路二段１６５號１樓,25.118463300000002,121.5179441,555427051
全家便利商店,28427152,金林分公司,士林區正義里林森北路109號,25.0504072,121.5251449,553926964
全家便利商店,54372288,台北市第五0四分公司,中山區林森北路428號,25.0599931,121.5253817,554126984
萊爾富國際,53012390,第三九○八分公司,萬華區和平里西園路2段134號、136號、138號1樓,25.0315294,121.4949249,553526911
統一超商,28975333,台北市第六七六分公司,中山區德惠街15號1樓,25.066759,121.52600290000001,554326997
統一超商,70747380,台北市第四三六分公司,大安區樂利路二九號二九之一號一樓,25.027395199999997,121.55155790000002,553426912
統一超商,70808288,台北市第四九一分公司,中山區樂群二路154號1樓,25.079899899999997,121.5570619,554627025
來來超商,28439376,第一○七四分公司,文山區和平東路四段383號1樓,24.9999029,121.57389350000001,552826828
全家便利商店,16742367,通河分公司,士林區通河街145號1樓,25.0810404,121.52068419999999,554627019
全家便利商店,54383068,台北市第五一九分公司,士林區中山北路6段726號北側,25.115105399999997,121.5279213,555427052
全家便利商店,80024068,慶權分公司,大同區民權里重慶北路2段263號1樓,25.062744199999997,121.5138172,554226987
全家便利商店,80033735,富陽分公司,中正區黎明里襄陽路7號1樓,25.043469,121.5159368,553826946
全家便利商店,89389784,永吉二分公司,信義區永吉路223號1樓,25.0457139,121.57413799999999,553826964
萊爾富國際,27951827,第三三九五分公司,松山區新聚里南京東路5段250巷3-1號1樓,25.050678899999998,121.56600320000001,553926974
萊爾富國際,70758626,北市杭州分公司,大安區杭州南路二段五號一樓,25.034505399999997,121.5241305,553626925
統一超商,16836012,台北市第４０１分公司,大安區大安路一段二一八號一樓,25.0343323,121.54589399999999,553626930
統一超商,23357240,台北巿第一四二分公司,大安區敦化南路1段187巷29號1樓,25.042687100000002,121.5506817,553826952
統一超商,28973314,台北市第六七五分公司,內湖區港富里文德路99號1樓,25.078787,121.5833524,554627029
統一超商,53006340,台北市第三九七分公司,中正區開封街1段40、42號1樓,25.0459057,121.51226399999999,553826951
統一超商,53671082,台北市第七二四分公司,大安區基隆路4段43號,25.0132497,121.5411187,553126866
統一超商,70757078,台北市第四四五分公司,松山區市民大道四段一０五號一樓,25.0447249,121.5517027,553826957
統一超商,80029486,台北市第二九六分公司,大同區鄭州路三之二號一樓,25.049015,121.51574029999999,553926959
來來超商,28997701,第三八九分公司,士林區士東路200巷21號1樓,25.1118557,121.5338377,555327052
全家便利商店,24810803,台北市第五六八分公司,信義區惠安里吳興街334號,25.0261754,121.56604229999999,553426911
全家便利商店,29000107,鴻啟分公司,中正區忠孝西路1段100號1樓,25.0462706,121.51886429999999,553826953
萊爾富國際,24810584,第四三五一分公司,士林區天母里中山北路7段191巷21號1樓,25.1255229,121.53111799999999,555627056
統一超商,27933455,台北市第六０九分公司,信義區光復南路４１９巷４１號,25.036607,121.55848999999999,553626938
統一超商,28970864,台北市第六七０分公司,士林區永平里延平北路6段202、204號1樓,25.089942899999997,121.50615800000001,554827027
統一超商,28972032,台北市第六七二分公司,大安區仁愛路4段151巷27號1樓,25.0395969,121.5518828,553726945
統一超商,53666010,台北市第七一三分公司,信義區永吉路30巷168弄1號1樓,25.043098,121.5682983,553826957
統一超商,84250810,台北巿第２３５分公司,新生南路一段１００號１樓,25.034451899999997,121.5368977,553626928
來來超商,23224988,第十五分公司,紹興北街８號之１．１樓,25.045305600000002,121.5252352,553826953
來來超商,53650066,第一四八分公司,松山區新東街11巷28號1樓,25.0580581,121.5649048,554126989
來來超商,80335957,第四三九分公司,內湖區成功路３段６９號１樓,25.077790300000004,121.590121,554527029
全家便利商店,16440665,環南分公司,萬華區環河南路2段298號1樓,25.031562,121.49071,553526910
全家便利商店,51462200,台北市第六OO分公司,松山區三民里民生東路5段159號,25.0591144,121.56249609999999,554126991
全家便利商店,54390687,台北市第五三O分公司,內湖區環山路1段110號,25.086536199999998,121.5679908,554727037
統一超商,22555587,臺北市第３１分公司,忠孝東路三段２１７巷１弄２號１樓,25.042463,121.539593,553826949
統一超商,28978303,台北市第六八二分公司,大安區金山南路2段18號1樓,25.0332237,121.52690590000002,553626922
統一超商,53019823,台北市第四五三分公司,士林區光華路26巷10號1樓,25.1373124,121.5416346,555927059
全家便利商店,24789127,台北市第五四O分公司,中山區龍江路356巷72號,25.065893,121.538028,554326998
全家便利商店,27935524,新農分公司,中山區恆安里農安街26之3號1樓,25.0648092,121.5262094,554326994
全家便利商店,51463405,台北市第六O一分公司,北投區石牌里自強街116號1樓,25.110782500000003,121.51554820000001,555327047
全家便利商店,53675242,欣富台分公司,信義區虎林街120巷163號、165號,25.042269,121.57421200000002,553826956
全家便利商店,84306238,興安分公司,中山區興安街57號1樓,25.0562341,121.5423877,554126981
萊爾富國際,23437096,延平分公司,延平區延平北路二段２５５之１號１樓,25.0625271,121.5115051,554226986
萊爾富國際,28983615,第三七四八分公司,南港區中研里研究院路2段110號1樓,25.042659699999998,121.6165656,553826966
萊爾富國際,89633106,敦化分公司,松山區八德路三段１２巷５１弄２號１樓,25.046129500000003,121.5507689,553826960
統一超商,27257518,台北市第五八五分公司,文山區萬年里羅斯福路5段170巷33、35號1樓,25.004655,121.5365649,552926837
統一超商,28429258,台北市第四０七分公司,大安區復興南路2段203號1樓、2樓,25.0262962,121.543668,553426907
統一超商,70827172,台北市第一八八分公司,松山區寶清街34號1樓,25.052698499999998,121.56773190000001,554026979
來來超商,23167109,台北港墘路分公司,內湖區港墘路８４號１樓,25.0807169,121.577583,554627031
來來超商,84250327,第一三六分公司,南港區成福路４４號１樓,25.0449625,121.58639280000001,553826965
全家便利商店,16440644,民復分公司,松山區民生東路四段80巷3號1樓,25.057351399999998,121.5531358,554126985
全家便利商店,51617648,台北市第六一O分公司,文山區興得里興隆路3段36巷9弄10號,24.9997587,121.5556047,552826824
全家便利商店,53673271,新橋分公司,大同區延平北路3段25之3號,25.064384,121.511375,554226990
全家便利商店,54383686,台北市第五二O分公司,中山區農安街86、84號1樓,25.0647448,121.5292794,554326994
全家便利商店,97161706,美仁分公司,松山區美仁里八德路三段１１９號１樓,25.0482864,121.5541045,553926966
全家便利商店,97175080,福港分公司,士林區百齡里前港街126號1樓,25.085197100000002,121.5178372,554727024
統一超商,27234656,台北市第五六三分公司,萬華區寶興街184、186號1樓,25.023757999999997,121.49528000000001,553326889
統一超商,27256905,台北市第五四一分公司,士林區天玉街8號,25.119823699999998,121.5269152,555527054
統一超商,43056708,台北市第八六三分公司,內湖區東湖路120號1樓,25.0681157,121.6161773,554327020
統一超商,53655409,台北市第八三二分公司,內湖區金龍路215號1樓,25.088142899999998,121.587246,554827043
統一超商,53660326,台北市第八五０分公司,大安區濟南路3段12號1樓,25.040114000000003,121.5338551,553726942
統一超商,53672195,台北市第七二八分公司,大安區敦南街38號1樓,25.0233488,121.54647179999999,553326899
統一超商,70803571,台北市第四八五分公司,大安區安和路二段七十四巷一號一樓,25.0300214,121.5515962,553526919
統一超商,84254668,台北市第二四五分公司,中山區吉林路一０一號一樓,25.058145,121.530098,554126982
全家便利商店,23931955,忠孝東路分公司,忠孝東路四段３１５號１樓,25.041611899999996,121.5559331,553726950
全家便利商店,54380941,台北市第五一六分公司,信義區忠孝東路5段71巷8號1樓,25.0419139,121.56721,553726954
全家便利商店,80331170,松醫分公司,松山區東光里健康路158號1樓,25.0534555,121.55753419999999,554026978
統一超商,22958239,台北巿第１２０分公司,復興北路３５２號１樓,25.060114499999997,121.543951,554126989
統一超商,24807223,台北市第八五七分公司,士林區天母東路8巷39號1樓、天母東路8巷41弄1號1樓,25.114801,121.530348,555427053
統一超商,51469604,台北市第九０一分公司,文山區木柵路4段117、119號1樓,24.9976657,121.5737567,552826820
統一超商,70815437,台北市第五０三分公司,內湖區洲子街四十六號一樓,25.0790027,121.57332690000001,554627028
來來超商,84895170,第一六六分公司,松山區八德路３段１２巷５弄４８號１樓,25.0475732,121.5519356,553926964
全家便利商店,53015925,士商分公司,士林區中正路503號505號,25.0917436,121.51787639999999,554827032
全家便利商店,53651023,松站分公司,信義區松隆路329巷8號1樓、台北市信義區松隆路329巷6號1樓,25.0485583,121.5792994,553926972
萊爾富國際,16845194,北市獅子林分公司,萬華區西寧南路三十六號之七十一、七十二、七十三、七十四,25.031259,121.53009899999999,553526918
萊爾富國際,28980146,第三五九七分公司,萬華區和平里雙園街69號1樓,25.0302454,121.4939555,553526907
萊爾富國際,80492935,北市松康分公司,松山區健康路三二五巷一二弄二號一樓,25.0554501,121.5673544,554026984
統一超商,23984093,臺北巿第２０２分公司,永吉路三十巷１７８弄１號１樓,25.0416242,121.5686604,553726953
統一超商,54384947,台北市第七六二分公司,南港區研究院路三段72、74號1樓,25.0347176,121.6141909,553626946
統一超商,80024166,台北市第五五二分公司,內湖區江南街71巷16弄76號1樓、江南街65巷51號1樓,25.076649,121.57880060000001,554527025
統一超商,89389428,台北市第３０８分公司,信義路六段六十三號１樓,25.035392,121.576668,553626939
來來超商,70748114,第四三六分公司,中正區同安街６９巷２號１樓,25.0235947,121.52141090000002,553326894
全家便利商店,16743176,和東分公司,大安區和平東路2段102之3號1樓,25.0249715,121.5418097,553426903
全家便利商店,24795021,台北市第五四七分公司,中山區中原里中原街16號、18號1樓,25.0565165,121.52879479999999,554126978
全家便利商店,43273472,台北市第五七六分公司,內湖區清自里成功路4段143號,25.068995899999997,121.59141740000001,554327016
全家便利商店,96976106,仙岩分公司,文山區仙岩路2號1樓,24.9982389,121.54788500000001,552826817
萊爾富國際,27947824,第三０六二分公司,士林區天山里中山北路7段186號1樓,25.1247132,121.5330577,555627057
統一超商,22555860,台北市第五十九分公司,大同區鄰江里重慶北路3段260、262號1樓,25.071414,121.5135544,554427002
統一超商,23641490,臺北巿第１８０分公司,文山區木柵路二段九十號１樓/興隆路四段二十六號一樓,24.987807500000002,121.5607105,552626780
統一超商,28413349,台北市第六四三分公司,萬華區中華路二段602-1、602-2號1樓,25.024629,121.50995900000001,553426895
統一超商,28981623,台北市第六八五分公司,內湖區東湖路119巷49弄2號1樓,25.069894199999997,121.61713780000001,554427023
統一超商,51365805,台北市第八八四分公司,大同區華陰街91號1樓,25.0498408,121.5175818,553926961
統一超商,53026541,台北市第八０六分公司,信義區福德街159、161號1樓,25.0376944,121.58331640000002,553726947
統一超商,70814438,台北市第七十二分公司,南港區重陽路164號1樓,25.0571513,121.600925,554126995
統一超商,84708654,台北市第２６９分公司,文山區木柵路1段139、141號1樓,24.9876435,121.5502889,552526777
來來超商,27927094,第九五四分公司,士林區和豐街３９巷２號１樓,25.082488,121.5178146,554627020
來來超商,80500490,第五八九分公司,南港區研究院路２段２３０號１樓,25.0361892,121.6170517,553626950
統一超商,23111921,台北巿第１２９分公司,延吉街２３７號１樓,25.0366238,121.555732,553626938
統一超商,27239104,台北市第五七０分公司,大安區延吉街七十二號一樓,25.042512300000002,121.5541231,553826952
統一超商,53667051,台北市第七一六分公司,中山區民生東路1段46、46-1號1樓,25.057901100000002,121.5243957,554126980
統一超商,54379613,台北市第七五四分公司,南港區研究院路2段94、96號1樓、98巷1號1樓,25.0441638,121.6158172,553826970
統一超商,86683502,台北巿第２１６分公司,大安區敦化南路1段5號1樓,25.043601300000002,121.5495726,553826954
來來超商,80649970,第七九六分公司,士林區延平北路５段１７７號１樓,25.084410600000002,121.5070885,554727020
全家便利商店,23529481,寶興分公司,萬華區寶興街78號1樓,25.026083899999996,121.494211,553426895
全家便利商店,51665205,台北市第六一五分公司,北投區永和里行義路152號地下1層,25.129633600000002,121.52804240000002,555727056
全家便利商店,70799865,樂群分公司,中山區成功里樂群二路186號1樓,25.0798868,121.5584382,554627025
萊爾富國際,16841009,北市慶泰分公司,中山區松江路一八六之一號一樓,25.0567301,121.53268899999999,554126979
統一超商,16080140,台北巿第三四二分公司,松山區健康路224號１樓,25.053838199999998,121.5610997,554026980
統一超商,28982587,台北市第六八七分公司,信義區松仁路91-1號1樓,25.036844600000002,121.56865459999999,553626941
統一超商,53014539,台北市第二七三分公司,內湖區民權東路6段296巷3號1樓,25.0724217,121.60560090000001,554427025
統一超商,70754353,台北市第四四三分公司,中正區汀州路三段129號1樓,25.016345899999997,121.5306449,553226874
全家便利商店,23224410,六張黎分公司,信義區和平東路三段387號1樓,25.019848899999996,121.55757870000001,553326891
全家便利商店,23225620,農安分公司,中山區農安街249號1樓,25.0648133,121.53486219999999,554326996
全家便利商店,28977135,復中分公司,北投區開明里中和街328號,25.141182999999998,121.499701,555927049
全家便利商店,43003344,台北市第五六三分公司,士林區蘭雅里中山北路6段238號1樓,25.1090188,121.52547690000002,555227048
全家便利商店,51712880,台北市第六一九分公司,文山區政大里指南路2段145號1樓,24.987513600000003,121.57712620000001,552526782
萊爾富國際,16135308,昆陽分公司,南港區昆陽街９９號１樓,25.051488199999998,121.5937896,554026982
統一超商,22555405,台北市第十三分公司,松山區八德路三段27號1樓,25.048393,121.55272759999998,553926966
統一超商,27233925,台北市第七十四分公司,中正區忠孝西路一段五十號之一（站前地下街）,25.0466133,121.51552849999999,553926953
統一超商,53027339,台北市第八一０分公司,信義區基隆路2段155號1樓,25.025906600000003,121.55450479999999,553426908
統一超商,70758323,台北市第四四七分公司,松山區新東街41之7號1樓,25.0603492,121.56555549999999,554226994
統一超商,70781008,台北市第八０分公司,士林區社中街211號1樓,25.091006,121.50867290000001,554827029
全家便利商店,28422781,國興分公司,南港區中研里舊莊街1段3巷3弄2號1樓,25.0442155,121.61766570000002,553826970
全家便利商店,70766415,摩天分公司,中正區黎明里許昌街26號1樓,25.0454432,121.5163986,553826951
全家便利商店,80033215,聯合分公司,信義區新仁里忠孝東路四段553巷6弄17號1樓,25.042370000000002,121.56348999999999,553826954
全家便利商店,84306455,美崙分公司,士林區華榮街97號1樓,25.0971113,121.5231683,555027038
萊爾富國際,28437877,第三五七○分公司,大同區建泰里南京西路64巷9弄2號1樓,25.052382,121.5188426,554026967
統一超商,53666047,台北市第七一四分公司,松山區南京東路5段15號1樓,25.0518053,121.55791370000001,554026975
統一超商,70767842,台北市第四六七分公司,大同區寧夏路71、73號1樓,25.0584875,121.51523130000001,554126979
來來超商,80200971,第三九四分公司,信義區和平東路３段３４１巷６號１樓,25.0211545,121.55695520000002,553326895
全家便利商店,16080660,康定分公司,萬華區康定路73號1樓,25.0406509,121.50221189999999,553726936
全家便利商店,24803107,台北市第五五五分公司,松山區東榮里民生東路5段37號,25.058551100000003,121.55691409999999,554126988
全家便利商店,54384931,台北市第五二四分公司,信義區虎林街61-4、61-5號,25.046285,121.57711599999999,553826966
萊爾富國際,16450179,北市開利分公司,士林區社子街一四四號一樓,25.0884763,121.50499579999999,554827025
萊爾富國際,24796485,第四三O七分公司,中正區梅花里八德路1段46號1樓,25.043739600000002,121.53082240000002,553826950
萊爾富國際,89448432,福國分公司,士林區福國路１００號１樓之３,25.1024589,121.52191,555127043
萊爾富國際,97455982,北巿康樂第二分公司,內湖區康樂街９２號１樓,25.0706289,121.61896589999999,554427025
統一超商,27927854,台北市第十六分公司,士林區福林路191號1樓,25.0969674,121.53265379999999,555027040
統一超商,27939470,台北市第一二四分公司,中山區北安路839-1號,25.084665,121.557303,554727032
統一超商,53651852,台北市第八二一分公司,大安區敦化南路2段331巷14號1樓,25.0226046,121.5496078,553326897
統一超商,53660297,台北市第八五一分公司,內湖區五分街33、35號1樓,25.067643,121.61338529999999,554327018
統一超商,89403420,台北巿第３３３分公司,北投區石牌路2段301號1樓,25.121407,121.52278999999999,555527054
來來超商,54390835,第一一五八分公司,萬華區開封街2段80號、80之1號1樓,25.04703,121.504718,553926952
全家便利商店,27946347,和西分公司,萬華區愛鄉里和平西路3段290之5號、290之6號1樓,25.0352602,121.4973745,553626921
全家便利商店,28422754,古亭分公司,大安區古莊里羅斯福路2段103號1樓,25.0246795,121.52454309999999,553426898
全家便利商店,51754207,台北市第六二一分公司,中山區中山里林森北路376號1樓及民生東路72號1樓,25.0566487,121.5254942,554126978
全家便利商店,70773247,松平分公司,中山區中吉里四平街47號1樓,25.0538187,121.5323058,554026973
統一超商,22555989,台北市第七十一分公司,中山北路一段１０５巷８號１樓,25.050635699999997,121.52338519999999,553926964
統一超商,53656287,台北市第八三八分公司,中正區廈門街99巷19-2號1樓,25.0239768,121.51881399999999,553426895
統一超商,54387971,台北市第七六七分公司,中正區汀州路3段269號1樓,25.0125702,121.5354337,553126863
統一超商,80329364,台北市第三○二分公司,大安區泰順街一三號一樓,25.025102,121.531544,553426901
統一超商,80343555,台北市第五三五分公司,內湖區江南街一二八號一樓,25.0762405,121.5755241,554527024
統一超商,84893222,台北市第二八三分公司,忠孝東路四段五五九巷六號一樓,25.041892,121.563704,553726953
來來超商,28980589,第七六六分公司,文山區木柵路1段281號,24.988186300000002,121.55366200000002,552626780
全家便利商店,24801157,台北市第五五二分公司,士林區天母西路40-2號1樓,25.118404199999997,121.52582849999999,555427053
全家便利商店,27943257,中賓分公司,中山區中山里中北路2段59之3號1樓,25.055778,121.523821,554126975
全家便利商店,54372338,台北市第五0五分公司,萬華區桂林路23、25號,25.0379576,121.5050848,553726930
統一超商,27949560,台北市第六二一分公司,中正區三愛里連雲街81號1樓,25.034315399999997,121.53016140000001,553626926
統一超商,53027345,台北市第八一一分公司,內湖區內湖路1段285巷65弄3、5號1樓,25.085303500000002,121.5584061,554727033
統一超商,70779191,台北市第四八二分公司,大安區基隆路二段142-1、142-2號1樓,25.0282447,121.55661540000001,553426915
統一超商,70820699,台北市第五０九分公司,內湖區陽光街一五九號一樓,25.0750063,121.58530159999998,554527024
來來超商,54373619,第一一二九分公司,中山區林森北路360、362號1樓,25.057290899999998,121.5253788,554126979
來來超商,54395178,第一一二一分公司,信義區富陽街65、67號1樓,25.021922,121.5565272,553326897
全家便利商店,16742373,景文分公司,文山區景文街83號1樓,24.991137300000002,121.54136940000001,552626789
全家便利商店,54392236,台北市第五三三分公司,北投區公館路230號,25.126236,121.50799199999999,555627051
全家便利商店,80334388,瑞陽分公司,內湖區瑞陽里文德路90巷49號1樓,25.077196,121.5834715,554527027
萊爾富國際,51440868,第四三八三分公司,南港區重陽路472號1樓,25.059627,121.611349,554127003
統一超商,16447864,台北巿第３７６分公司,文山區景行里景文街九十六．九十八號１樓,24.990756,121.54119509999998,552626787
統一超商,16633656,台北市第３８６分公司,大同區民生西路九十五．九十七號一樓,25.0569879,121.5155683,554126976
統一超商,22555812,臺北市第五十四分公司,松山區南京東路三段303巷5號1樓、3弄2號1樓,25.0524769,121.546691,554026974
統一超商,27250120,台北市第四四０分公司,中山區遼寧街110號1樓 / 遼寧街108巷1號1樓,25.052651,121.541711,554026973
統一超商,27947177,台北市第六一三分公司,大安區通化里光復南路616號1樓,25.032272600000002,121.55726340000001,553526927
統一超商,27950968,台北市第九十二分公司,北投區中和街10號,25.137574700000002,121.5034432,555927051
統一超商,51740909,台北市第九二四分公司,中正區和平西路2段152、152-1、154、154-1號 1樓,25.032971300000003,121.50556709999998,553526917
統一超商,53016797,台北市第二四四分公司,信義區和平東路3段461、461-1號1樓,25.018652499999998,121.5590639,553226887
統一超商,54390722,台北市第七七七分公司,萬華區西藏路107、107-1號1樓,25.0297015,121.5035108,553526908
統一超商,22555904,台北市第六十三分公司,中正區青島東路4號1樓,25.043848999999998,121.5215871,553826948
統一超商,70799035,台北市第三一五分公司,中山區樂群二路206號1樓,25.0796417,121.55908149999999,554627025
統一超商,70800384,台北市第三五七分公司,內湖區成功路四段三十巷二十七、二十九、三十一號一樓,25.084028600000003,121.5951732,554727039
統一超商,80344490,台北市第五四０分公司,萬華區西園路二段一四０巷五十二、五十二之一號一樓,25.028029999999998,121.49498419999999,553426901
統一超商,89395370,台北巿第三一七分公司,中正區廣州街10-2、10-3、10-4號1樓,25.035566600000003,121.50801829999999,553626924
統一超商,89399951,台北市第三二七號分公司,大安區樂利路76、78號1樓,25.0256973,121.55185349999999,553426907
全家便利商店,23060991,雙連分公司,民生西路１３８號１樓,25.057331299999998,121.5189534,554126978
全家便利商店,27926074,和豐分公司,士林區福華里和豐街2號1樓,25.0828003,121.51933999999999,554727021
全家便利商店,51642800,台北市第六一二分公司,中山區朱園里長安東路2段99號1樓及2樓,25.0483719,121.5377656,553926962
統一超商,24792707,台北市第七八七分公司,大安區羅斯福路3段283巷14弄16號1樓,25.018307399999998,121.5325804,553226881
統一超商,28410384,台北市第六三一分公司,南港區成福里成福路145、147號,25.0415238,121.587861,553726957
統一超商,53670555,台北市第七二二分公司,內湖區瑞光路188巷51號1樓,25.0739879,121.57605900000001,554527020
統一超商,96978884,台北市第８４分公司,大安區和平東路3段230號1樓,25.0222133,121.5546217,553326897
統一超商,97168757,台北巿第１８２分公司,萬華區萬大路495、497號1樓,25.0199745,121.49784709999999,553326878
來來超商,28989759,第一００三分公司,信義區吳興街284巷21弄2號,25.0233869,121.563379,553326903
全家便利商店,28422430,瑞和分公司,大安區龍生里瑞安街135巷28號1樓,25.0264997,121.5416741,553426907
全家便利商店,28423254,五常分公司,中山區行仁里五常街53巷23號1樓,25.0654831,121.5397263,554326998
全家便利商店,53669847,直學分公司,中山區大直街11號,25.080776899999996,121.546522,554627024
萊爾富國際,70789959,北市明湖分公司,內湖區民權東路六段二九六巷六十八號一樓,25.0702168,121.60891979999998,554427022
統一超商,51701737,台北市第九一九分公司,中正區忠孝西路1段49號地下1樓,25.046546799999998,121.51755520000002,553826954
來來超商,23932618,第一一０分公司,中山區民權東路２段７１巷７號１樓,25.0631515,121.53183590000002,554226992
全家便利商店,24804041,台北市第五五六分公司,中山區江寧里錦州街427號,25.0603117,121.54249009999998,554226989
全家便利商店,28421642,正義分公司,中山區正義里長安東路1段55號1樓,25.0487812,121.52655449999999,553926961
全家便利商店,28422157,馬偕分公司,中山區集英里民生西路29號1樓,25.0578589,121.52119409999999,554126979
全家便利商店,28422608,華視分公司,大安區華聲里光復南路116巷26號1樓,25.0429404,121.55639009999999,553826954
全家便利商店,54391314,台北市第五三一分公司,大安區信義路4段265巷8號1、B1樓、台北市大安區信義路265巷8-1號,25.0339579,121.5565517,553626931
萊爾富國際,27941791,第3301分公司,信義區松山路537號、541巷1號1樓,25.029585,121.5838024,553526925
萊爾富國際,53669804,第四一0八分公司,士林區天壽里中山北路6段431之4號1樓,25.114295199999997,121.52712460000001,555327052
統一超商,24809720,台北市第八五九分公司,中正區館前路59號1樓,25.044830100000002,121.5151514,553826949
統一超商,54394706,台北市第七八０分公司,士林區福華路126號1樓,25.1027074,121.5228906,555127043
統一超商,70744617,台北市第四二八分公司,松山區八德路四段七六七七六九號一樓,25.048354500000002,121.5623004,553926968
統一超商,70802165,台北市第二００分公司,內湖區成功路五段四二０巷三十號一樓,25.0754117,121.6086647,554527030
統一超商,89402962,台北巿第３３２分公司,文山區興隆路3段42號1樓,25.000325,121.5556049,552826826
統一超商,89404716,台北市第三三五分公司,中正區許昌街17號1樓,25.0457708,121.5171,553826952
來來超商,80523254,第七八三分公司,大同區南京西路２５８號１樓,25.0536413,121.5152652,554026969
全家便利商店,28430945,朱崙分公司,中山區力行里朱崙街67號,25.050064000000003,121.54235030000001,553926967
全家便利商店,28985141,長城分公司,松山區敦化北路120巷80號,25.054374,121.54625300000001,554026978
全家便利商店,53022664,百齡分公司,士林區福港街158-1號,25.087155,121.51776299999999,554727026
統一超商,16436711,台北巿第３６７分公司,北投區公館路三十一號１樓,25.133571,121.50519399999999,555827051
統一超商,51002608,台北市第八六九分公司,大安區敦化南路1段247巷12號1樓,25.038778,121.5500384,553726942
統一超商,53660732,台北市第八五二分公司,文山區羅斯福路五段216號1樓,25.002326999999998,121.53856040000001,552926829
統一超商,53660780,台北市第八五五分公司,內湖區內湖路二段407、409號1樓,25.084558899999998,121.5933049,554727040
統一超商,96977962,台北巿第７８分公司,大安區大安路1段43號1樓,25.0434484,121.54626270000001,553826953
全家便利商店,51358706,台北市第五九二分公司,北投區關渡里知行路298號1樓及知行路316巷6弄12號1樓,25.1202655,121.46709309999999,555527041
全家便利商店,53650360,榮光分公司,北投區石牌路1段166巷91-1號、93號,25.1124117,121.51511529999999,555327048
全家便利商店,54397871,台北市第五三八分公司,松山區光復南路32巷46-4號,25.04627,121.55433300000001,553826961
萊爾富國際,23441606,南港第二分公司,南港區忠孝東路七段６３９號１樓,25.053389000000003,121.616143,554026991
統一超商,22766160,台北市第１０４分公司,木新路二段２５５號１樓,24.983048999999998,121.56662450000002,552426762
統一超商,53652466,台北市第八二六分公司,內湖區內湖路3段61、63號1樓、59巷1號1樓,25.0846551,121.59239380000001,554727040
統一超商,70827187,台北市第四三五分公司,松山區東興路13-1號1樓；15巷3號1樓,25.0501794,121.5654753,553926973
統一超商,80355377,台北市第五四九分公司,中山區松江路三六三號一樓,25.0639526,121.53345970000001,554226994
統一超商,84893530,台北市第二八五分公司,忠孝東路二段一三０號之二、一三０號之三、一樓,25.042371,121.531806,553826947
統一超商,89393979,台北市第三一三分公司,內湖區內湖路1段321號1樓,25.0823847,121.5679053,554627031
統一超商,97160495,台北市第９０分公司,士林區忠誠路一段126、128號1樓,25.1057885,121.52879420000001,555227047
全家便利商店,24792967,台北市第五四四分公司,信義區莊敬路307號、309號,25.028451,121.563382,553426917
萊爾富國際,70814113,北市陽光分公司,內湖區湖元里陽光街三四七號一樓,25.0730972,121.57769740000002,554427019
統一超商,22555475,台北市第二十分公司,中坡南路三十八號１樓,25.042819100000003,121.58336670000001,553826959
統一超商,23472895,臺北巿第１６１分公司,忠孝東路六段４４８號１樓,25.0502606,121.59402209999999,553926979
統一超商,51567703,台北市第八九五分公司,中山區中山北路2段39巷8號1樓,25.0539157,121.52350919999999,554026971
統一超商,80334628,台北市第五二一分公司,北投區石牌路二段八號一樓,25.115382699999998,121.5155389,555427050
統一超商,80352596,台北市第五四七分公司,文山區興旺里福興路二十號一樓,25.002804,121.55139199999999,552926834
統一超商,86692919,台北巿第２２８分公司,內湖區內湖路2段249、251號1樓,25.0820228,121.58965230000001,554627035
統一超商,86924827,台北巿第３分公司,中山區臺北市中山北路七段十四巷２–１號１樓,25.1187059,121.53122590000001,555427055
來來超商,27934840,第二八七分公司,萬華區萬大路424巷112-4、112-5號1樓,25.021361399999996,121.49549009999998,553326882
全家便利商店,80355952,崇合分公司,北投區清江里三合街2段487號1樓,25.1262723,121.5012104,555627050
統一超商,22660928,台北巿第九十六分公司,明德路１１４、１１６號１樓,25.109921300000003,121.52023490000002,555327048
統一超商,22661243,台北巿第九十八分公司,東園街六九、七一、七一–１號１樓七三巷１號１樓,25.025998,121.49652900000001,553426896
統一超商,23825434,臺北巿第１８５分公司,北投區自強街82號1樓,25.1105639,121.5146134,555327047
統一超商,24793311,台北市第七八九分公司,士林區中山北路7段141巷6-1號1樓,25.110228399999997,121.52623100000001,555327049
統一超商,28438030,台北市第六六六分公司,中正區一江街11、13號1樓,25.0511675,121.531581,554026967
統一超商,51749107,台北市第九二五分公司,萬華區武昌街2段122-1號1、2樓,25.0452448,121.50393940000001,553826948
統一超商,96974711,台北市第三十七分公司,萬華區萬大路184號1樓,25.027936999999998,121.50034299999999,553426902
來來超商,80201015,第三七一分公司,士林區承德路４段１３０號１樓,25.083796399999997,121.5232404,554727023
全家便利商店,28977536,興昌分公司,文山區興昌里辛亥路4段101巷1號,25.006621,121.55901999999999,553026848
統一超商,16436352,台北巿第３６５分公司,信義區大仁里８鄰林口街四十八號,25.038253,121.5794416,553726947
統一超商,27239110,台北市第五七一分公司,大安區東豐街43、45號1樓,25.0361697,121.5466779,553626935
統一超商,28995345,台北市第六九八分公司,文山區辛亥路4段132號1樓,25.0043174,121.55647900000001,552926840
統一超商,53026319,台北市第八０七分公司,北投區立德路15號1樓,25.124798199999997,121.471475,555627043
統一超商,70745475,台北市第四三一分公司,信義區基隆路2段131-3、131-4號1樓,25.027971,121.556901,553426915
統一超商,89402127,台北巿第３３１分公司,松山區民權東路三段１０６巷十五弄二十五號１樓,25.0600478,121.5461148,554126989
全家便利商店,54393636,台北市第五三五分公司,中山區合江街87、89號1樓,25.059242,121.539272,554126986
全家便利商店,70810279,台新分公司,大安區大學里新生南路3段84之8號1樓,25.0188262,121.53344009999998,553226882
萊爾富國際,27249428,第２９８２分公司,信義區永春里中坡北路１７、１９號１樓,25.044776199999998,121.58096640000001,553826964
統一超商,16847593,台北市第四二六分公司,士林區福國路九十四號一樓,25.102046100000003,121.52230890000001,555127042
統一超商,51605707,台北市第八九八分公司,大同區延平北路3段19-5及21號1樓,25.0633642,121.51117959999999,554226988
統一超商,70764795,台北市第四五五分公司,中山區龍江路384巷1、3號1樓,25.0478601,121.54065849999999,553926962
統一超商,80032102,台北市第四一五分公司,大安區仁愛路四段二六六巷十五弄二十二號一樓,25.036542800000003,121.5542291,553626937
全家便利商店,23932223,南陽分公司,中正區信陽街15號1樓,25.044736800000003,121.5162139,553826949
全家便利商店,24808460,台北市第五五七分公司,南港區舊莊街1段169號及145巷2弄22號,25.0401035,121.6205098,553726961
全家便利商店,28990806,順輝分公司,文山區光輝路7號1樓,24.986433399999996,121.55510079999999,552526773
萊爾富國際,53933500,第三四九七分公司,萬華區長沙街2段50號1樓,25.040592999999998,121.50596999999999,553726937
萊爾富國際,89971942,中原第二分公司,中山區中原街７７號１樓,25.0590182,121.52898259999999,554126983
統一超商,16846145,台北市第四二二分公司,內湖區成功路三段二０一號一樓,25.0776603,121.5896825,554527029
統一超商,23530369,臺北巿第１６７分公司,大同區長安西路271號1樓、長安西路273巷2號1樓,25.052158600000002,121.5106688,554026965
統一超商,51075209,台北市第八七三分公司,信義區松山路11號1樓,25.0491901,121.57829939999999,553926973
統一超商,70765226,台北市第四五八分公司,內湖區新明路四二七號一樓,25.0547324,121.5810369,554026986
統一超商,80026170,台北市第五五五分公司,中正區羅斯福路二段六十八號一樓,25.0273496,121.52194009999998,553426905
統一超商,86379164,臺北市第１９０分公司,中山區長安東路二段43、45-1號1樓,25.048603699999997,121.531824,553926962
全家便利商店,80327871,興和分公司,大安區群賢里復興南路2段153號1樓,25.0282862,121.54374909999999,553426913
全家便利商店,97168911,尊賢分公司,北投區尊賢街260號1樓,25.117323100000004,121.50712299999999,555427049
萊爾富國際,24794374,第四二一七分公司,大安區羅斯福路3段297號1樓,25.017657999999997,121.5316831,553226878
統一超商,28975093,台北市第六七七分公司,內湖區文德路6號1樓,25.0784757,121.57889890000001,554627028
統一超商,28977579,台北市第六八一分公司,中正區博愛路97號1樓,25.043067,121.51164399999999,553826944
統一超商,53008699,台北市第四分公司,信義區基隆路一段178、180號1樓,25.042480100000002,121.56494540000001,553826955
統一超商,54378488,台北市第七五一分公司,北投區中和街314、316號1樓,25.140963,121.49991899999999,555927049
統一超商,80339784,台北市第五三０分公司,北投區福興里承德路七段七十六號一樓,25.111447000000002,121.51081299999998,555327047
全家便利商店,16635774,莊敬分公司,信義區莊敬路374號1樓,25.0275659,121.5648922,553426915
全家便利商店,28420361,綠堤分公司,萬華區綠堤里環河南路2段173號1樓,25.0328719,121.492369,553526914
全家便利商店,28430086,木新分公司,文山區樟新里木新路3段333號、335號,24.980417499999998,121.55625729999998,552426749
萊爾富國際,53021454,第三六九五分公司,北投區永明里義理街96號、立農街2段292號1樓,25.118598600000002,121.51634640000002,555427051
統一超商,27923739,台北市第四一六分公司,文山區萬芳里萬和街6號2樓之1,25.001945499999998,121.56738770000001,552926834
統一超商,28414895,台北市第二三五分公司,內湖區內湖路1段411巷17號及19弄1號1樓,25.081179000000002,121.57108400000001,554627030
統一超商,28432606,台北市第八十五分公司,文山區景福街252號1樓,24.9933819,121.54015290000001,552726797
統一超商,89406019,台北巿第３３７分公司,信義區忠孝東路五段236巷6-3、8號1樓,25.040157999999998,121.57173799999998,553726950
全家便利商店,24802590,台北市第五五四分公司,大安區通安里大昌街142號1樓,25.030721399999997,121.55729209999998,553526922
全家便利商店,53006806,金昌分公司,中正區南昌路1段135號1樓,25.0296601,121.5185077,553526911
全家便利商店,53649300,新陽明分公司,士林區中正路329號,25.0945343,121.52316029999999,554927036
萊爾富國際,28990257,第三七六一分公司,萬華區青山里梧州街55號1樓,25.036017,121.49766399999999,553626923
萊爾富國際,70751861,北市松永分公司,信義區永吉路二八０號一樓,25.0457832,121.5685152,553826963
統一超商,16836998,台北市第４０４分公司,內湖區金龍里金龍路五號一樓,25.0844527,121.59504070000001,554727040
統一超商,27258158,台北市第五八七分公司,中正區羅斯福路3段80、82號1樓,25.0219837,121.52635790000001,553326890
統一超商,28428440,台北市第二十一分公司,文山區木新路三段179、181號1樓、183巷1號1樓,24.9815215,121.56047590000001,552426755
統一超商,51442535,台北市第八八五分公司,大安區安東街50之2、50之3、50之4號1樓,25.042891100000002,121.5424508,553826951
統一超商,53022215,台北市第四七０分公司,大安區敦化南路2段238號1樓,25.020961,121.54835520000002,553326892
統一超商,54378712,台北市第七五０分公司,萬華區昆明街285-3、285-4號1樓,25.0367448,121.50370559999999,553626927
全家便利商店,28421636,大通分公司,中山區朱園里伊通街39號1樓,25.0507074,121.5349375,553926967
全家便利商店,28422662,振華分公司,北投區振華里振華街2號1樓,25.115648699999998,121.5200142,555427051
萊爾富國際,70762733,北市金湖分公司,內湖區金湖路四０三號一樓,25.0797878,121.5987768,554627034
統一超商,22659632,台北巿第九十四分公司,永吉路３２５號１樓,25.045662,121.57573899999998,553826965
統一超商,27232664,台北市第六十分公司,大安區辛亥路三段157巷32號1樓、臥龍街188巷1號1樓,25.016561,121.550789,553226879
統一超商,28418689,台北市第三八０分公司,北投區湖山路1段12號1樓,25.152493,121.547476,556227056
統一超商,51008363,台北市第八六八分公司,南港區忠孝東路7段359號1樓,25.052374899999997,121.6050348,554026986
統一超商,53654372,台北市第八三０分公司,中山區民權東路2段96、98號1樓,25.0623477,121.5318334,554226990
統一超商,80341819,台北市第五三三分公司,萬華區西寧南路八十號一樓,25.042502300000002,121.50586709999999,553826941
統一超商,86928372,台北巿第２３４分公司,大安區忠孝東路三段２４８巷９號１樓,25.0410441,121.5414263,553726946
統一超商,96977858,台北巿第６６分公司,大安區錦華里杭州南路2段91號1樓,25.028601199999997,121.5219403,553526909
全家便利商店,23226091,士林文林分公司,士林區文林路１９５號１樓,25.0898331,121.5269221,554827031
統一超商,22555313,臺北市第４分公司,中山北路七段１７４號１樓,25.1243838,121.5327438,555627057
統一超商,22955866,台北巿第１１７分公司,士林區仰德大道三段68、70號1樓,25.118830199999998,121.5529057,555427059
統一超商,23112787,台北市第１３０分公司,興隆路二段219號1樓,25.001203,121.55028999999999,552826828
統一超商,51590900,台北市第八九七分公司,中山區松江路418及420號1樓,25.064366,121.533576,554226995
統一超商,70759293,台北市第四四九分公司,信義區景新里莊敬路三二五巷四十三號一樓,25.0291055,121.5648436,553526919
統一超商,80333965,台北市第五二０分公司,中正區中華路二段一五七號一樓,25.0311561,121.50426170000001,553526912
全家便利商店,53024327,東方分公司,大安區安和路2段10巷10號1樓及地下室,25.0324829,121.5516899,553526926
萊爾富國際,70762240,北市康寧分公司,內湖區康寧路三段一五五號一樓,25.070460100000002,121.6115889,554427023
萊爾富國際,97436162,北巿南京第二分公司,中山區南京東路三段２１６巷１７號１樓,25.0512926,121.5435098,554026970
統一超商,16097986,台北巿第３５９分公司,士林區德行東路262號1樓,25.1097496,121.53470420000001,555227051
統一超商,22555616,台北市第三十四分公司,中正區新生南路一段126-7號1樓,25.0371229,121.5325096,553626934
統一超商,24795367,台北市第七九一分公司,中正區羅斯福路3段316巷16號1樓,25.0154448,121.53234509999999,553226872
統一超商,27250374,台北市第五三四分公司,文山區景華里景興路14號,24.997875,121.544545,552826814
統一超商,84448068,台北巿第２５７分公司,大安區臺北市敦化南路一段２３３巷二十五號１樓,25.0404296,121.550739,553726946
全家便利商店,28995226,雙林分公司,中山區雙城街2之2號、2之3號1樓,25.0644639,121.52421799999999,554226993
萊爾富國際,27312385,北市松育分公司,松山區八德路三段一一九號一樓,25.0482864,121.5541045,553926966
萊爾富國際,27934807,第３２０７分公司,中正區館前路４５號１樓,25.0451013,121.5151364,553826950
萊爾富國際,86174079,南港第三分公司,南港區忠孝東路六段２５２號１樓,25.048843899999998,121.58831299999999,553926975
統一超商,27940028,台北市第三六三分公司,大安區光復南路180巷12號,25.0424914,121.5570156,553826953
統一超商,28422190,台北市第六五一分公司,士林區三玉里天母東路50巷25號,25.1168141,121.5333138,555427054
統一超商,51528195,台北市第八九三分公司,松山區南京東路4段133巷6弄1號1樓,25.052635600000002,121.55503870000001,554026976
統一超商,53656152,台北市第八三七分公司,大安區仁愛路3段74號1樓,25.037543,121.5385,553726936
統一超商,86927227,台北巿第２３２分公司,中山北路七段１７４號１樓,25.1243838,121.5327438,555627057
統一超商,89398714,台北市第三二五分公司,文山區永安街22巷23、25號1樓,24.9867512,121.5689327,552526778
全家便利商店,53676740,昇東分公司,松山區民生東路5段197號1樓,25.0593693,121.56619599999999,554126992
全家便利商店,54386369,台北市第五二六分公司,南港區南港路3段2號、臺北市南港區成功路1段2號,25.053043399999996,121.5864318,554026984
萊爾富國際,89935616,迪化分公司,大同區迪化街一段４８、５０號１樓,25.054109,121.509054,554026969
統一超商,16086926,台北巿第３４７分公司,中山區民權西路六十六號１樓,25.062603600000003,121.5200647,554226988
統一超商,28980096,台北市第六八三分公司,士林區中山北路7段156號1樓,25.123971100000002,121.5326611,555627056
統一超商,53017938,台北市第四五九分公司,內湖區成功路4段359號1樓,25.084448300000002,121.6000629,554727041
統一超商,70775771,台北市第四七六分公司,士林區大南路三二二號一樓,25.088962300000002,121.5182636,554827028
統一超商,97163351,台北巿第１１４分公司,中山區林森北路411號1樓,25.0597579,121.52566259999999,554126984
來來超商,27930767,第九七０分公司,松山區三民路１３７號１樓,25.060345899999998,121.56310459999999,554226993
全家便利商店,23224755,吳興分公司,吳興街２５７，２５９號１樓,25.027248999999998,121.5637452,553426914
全家便利商店,23930554,新生南路分公司,大安區新生南路一段163號1樓,25.034321,121.5329936,553626927
全家便利商店,27259255,長泰分公司,萬華區壽德里長泰街2號、2之1號1樓,25.022825,121.4970747,553326886
統一超商,23416389,台北市第一五七分公司,大同區蘭州街135號1樓、昌吉街72、74、76號,25.065910000000002,121.5157192,554326993
統一超商,28429406,台北市第六五六分公司,中正區延平南路177號1樓,25.0344879,121.5076071,553626921
統一超商,70761381,台北市第四五二分公司,萬華區西園路一段一五三號地下一樓,25.0354487,121.49957909999999,553626922
來來超商,70799339,第六四六分公司,大同區民族西路120、122號1樓,25.068436,121.5167476,554326998
全家便利商店,16082409,興業分公司,文山區興隆路2段279號1樓,25.001691100000002,121.552673,552926830
全家便利商店,16830925,濱江分公司,中山區建國北路三段111號1樓,25.0664378,121.5360557,554326999
全家便利商店,24808139,台北市第五五九分公司,萬華區青山里廣州街235-1號、235-2號,25.0368249,121.4986155,553626926
全家便利商店,54385170,台北市第五二五分公司,中山區德惠街16-7號,25.0665771,121.5247074,554326997
全家便利商店,89406587,興隆二分公司,文山區興隆路二段３０３號１樓,25.0014094,121.55335090000001,552926829
統一超商,28993331,台北市第六九六分公司,南港區三重路19、19-1號1樓,25.0586414,121.61362720000001,554127001
來來超商,97161261,第２４９分公司,南港區成福路２１２號１樓,25.039852300000003,121.5890905,553726953
全家便利商店,23167023,中崙分公司,松山區八德路三段74巷43號1樓,25.0462703,121.5525678,553826961
全家便利商店,51706986,台北市第六一六分公司,中山區松江里民生東路2段155號及155-1號1樓,25.0578589,121.5279419,554126981
全家便利商店,53005671,天山分公司,士林區天母東路69巷11之9號1樓,25.119754999999998,121.5334301,555527055
全家便利商店,53010843,遼寧分公司,中山區長安東路2段216號、218號1樓,25.0481678,121.5424494,553926963
全家便利商店,84307460,中央分公司,松山區民生東路四段95號、97巷1號1樓,25.058214000000003,121.551988,554126987
萊爾富國際,80669736,北市安華分公司,大安區延吉街一三一巷四三號一樓,25.0429465,121.5558172,553826954
萊爾富國際,97435115,北巿台泥分公司,中山區錦州街三二號一樓,25.0602645,121.5248916,554226985
統一超商,16098520,台北巿第３６０分公司,大安區東豐街９號１樓,25.036113399999998,121.5442913,553626934
統一超商,22958553,台北巿第１２２分公司,和平東路二段十八號１樓,25.0255815,121.53601640000001,553426903
統一超商,23413735,台北市第一五一分公司,文山區忠順街2段10號1樓,24.984513699999997,121.56237970000001,552526767
統一超商,28437573,台北市第六六三分公司,萬華區青年路144號1樓,25.021584899999997,121.502404,553326884
統一超商,53023994,台北市第八0一分公司,中山區松江路295、295-1號1樓,25.061016600000002,121.53337490000001,554226988
統一超商,70746713,台北市第四三四分公司,文山區指南路二段一四九號一樓,24.987469,121.57724440000001,552526782
統一超商,84893715,台北巿第二八六分公司,青年路18號1樓,25.026006,121.50572,553426898
全家便利商店,28423178,錦原分公司,中山區新生里中原街101號1樓,25.0609288,121.5290416,554226987
萊爾富國際,70773675,北市新喜分公司,中山區德惠街一六七巷二號一樓,25.066626199999998,121.53174229999999,554326998
統一超商,16749592,台北市第４５分公司,大同區酒泉街五十八．六十號一樓,25.0718576,121.5151094,554427003
統一超商,22555664,台北市第３９分公司,大安區師大路87號1樓,25.0232307,121.5285488,553326895
統一超商,51104801,台北市第八七九分公司,中山區樂群三路218號1樓,25.0823185,121.55806969999999,554627029
統一超商,53671251,台北市第七二六分公司,北投區知行路185號1樓,25.1191056,121.4661666,555527040
統一超商,54395043,台北市第七八一分公司,信義區松高路12號B1樓,25.0388485,121.56680159999998,553726946
統一超商,80027797,台北市第二七九分公司,萬華區福星里西寧南路16、18、18-1號1樓,25.046419,121.506853,553826951
統一超商,86379896,臺北巿第２１１分公司,中山區中原街121號1樓、新生北路三段3巷41號2樓,25.0631627,121.52899850000001,554226991
全家便利商店,70762488,德行分公司,士林區蘭雅里德行東路109巷3號1樓,25.1078967,121.5282269,555227048
萊爾富國際,53925522,第四0五五分公司,中山區松江路50號1樓,25.0481797,121.53266380000001,553926961
統一超商,43003908,台北市第八六一分公司,內湖區陽光街349號1樓,25.073075,121.57759309999999,554427019
統一超商,84252492,第２３９分公司,內湖區新明路３１７號１樓,25.0568882,121.5846595,554126991
統一超商,97179179,台北巿第２６０分公司,內湖區成功路二段２５２號１樓,25.066214600000002,121.5903534,554327010
全家便利商店,27239441,寶清分公司,松山區慈祐里八德路四段598號1樓,25.049907,121.57227240000002,553926974
全家便利商店,51398806,台北市第五九三分公司,中山區中山里中山北路二段75-1號1樓,25.0574405,121.52303570000001,554126979
全家便利商店,53672913,新和分公司,北投區中和街489號、491號,25.1451168,121.49520420000002,556027047
萊爾富國際,27237605,北市同京分公司,大同區西寧北路三十五號一樓,25.0514065,121.5084285,554026963
萊爾富國際,28415058,第三０八０分公司,大同區重慶北路1段63號1樓,25.051475500000002,121.5124878,554026964
萊爾富國際,54376329,第四一五九分公司,萬華區青山里廣州街247號1樓,25.0368717,121.4974311,553626925
統一超商,53657357,台北市第八四０分公司,萬華區長沙街2段87號1樓,25.0406072,121.5048372,553726937
統一超商,53664131,台北市第七一一分公司,內湖區瑞光路406號1樓,25.0780514,121.57058059999999,554527026
統一超商,70807507,台北市第三二六分公司,中山區南京東路3段208號1樓,25.0516723,121.543218,554026971
統一超商,70815422,台北市第五０二分公司,松山區復興南路一段四十三號一樓,25.0456551,121.5440605,553826958
全家便利商店,16437063,大興分公司,北投區大興街二十一號１樓,25.129998999999998,121.4983976,555727050
全家便利商店,28980130,新遠企店分公司,大安區敦化南路2段261號,25.025617999999998,121.549163,553426906
全家便利商店,51464875,台北市第六O三分公司,內湖區港富里內湖路1段733號1樓,25.0791388,121.57818710000001,554627029
全家便利商店,70796065,興華分公司,南港區東明里興華路86號1樓,25.055931899999997,121.6056456,554126994
全家便利商店,80029129,和鄰分公司,中正區螢圃里和平西路1段82號1樓,25.0263509,121.5186511,553426901
統一超商,22555307,臺北市第３分公司,石牌路二段７６號１樓,25.1165908,121.51627350000001,555427050
統一超商,27950812,台北市第六二七分公司,大安區樂業街71、73號1樓,25.0219229,121.55096029999999,553326896
統一超商,27951381,台北市第四九六分公司,信義區嘉興街181巷21號,25.026175,121.557473,553426910
統一超商,28983777,台北市第六八八分公司,松山區吉祥里南京東路5段66巷3弄1號1樓,25.0509046,121.5610269,553926973
統一超商,84703969,台北巿第２６３分公司,松山區新東街60巷16、18號1樓,25.0581289,121.56726200000001,554126990
全家便利商店,16080985,文化分公司,北投區中央北路2段97號1樓,25.136842,121.495158,555827049
全家便利商店,16839756,光華分公司,中山區松江路24之1號1樓,25.0469812,121.5327699,553926958
全家便利商店,51447813,台北市第五九八分公司,大同區建功里南京西路308號、310號1樓,25.051918,121.519935,554026966
全家便利商店,80033221,新湖分公司,內湖區湖元里新湖二路250巷8號1樓,25.0648819,121.58256770000001,554327006
統一超商,28412480,台北市第六三八分公司,信義區永吉路278巷58弄2號,25.0434723,121.57403490000002,553826959
統一超商,80020915,台北市第二三二分公司,中山區錦州街二六三號一樓,25.0603801,121.5349465,554226987
統一超商,80350507,台北市第一六五分公司,北投區中庸里大業路七一五、七一七號,25.1370622,121.4997471,555927050
全家便利商店,16745343,文祥分公司,中正區杭州南路1段147號1樓,25.0359633,121.5246081,553626929
全家便利商店,27240475,工業二分公司,南港區三重里園區街3號2樓之7,25.0584861,121.6118825,554127001
全家便利商店,28998434,德林分公司,中山區德惠街173號,25.066646,121.5319108,554326998
全家便利商店,51620313,台北市第六一一分公司,北投區振華里石牌路2段88之1號1樓及地下層,25.1168583,121.5160983,555427050
全家便利商店,54392480,台北市第五三四分公司,大安區延吉街130號,25.0401258,121.55471809999999,553726946
全家便利商店,96978603,長春分公司,中山區長春路48號1樓,25.0548182,121.52577099999999,554026974
統一超商,28991875,台北市第六九三分公司,中山區建國北路2段151巷8號1樓,25.061697100000004,121.5380976,554226990
統一超商,53001458,台北市第七○六分公司,北投區中央北路3段55、57號1樓,25.1379676,121.4850814,555927047
統一超商,53659171,台北市第八四五分公司,北投區大興街44、46號1樓,25.130106899999998,121.4993545,555727050
統一超商,70821819,台北市第二二二分公司,信義區忠孝東路五段一之六號一樓,25.0409991,121.56753559999999,553726951
統一超商,70824230,台北市第九十四分公司,士林區中正路三二四號一樓,25.0947384,121.522517,554927036
全家便利商店,23167706,和平東路分公司,和平東路三段４９號１樓,25.0248235,121.5479688,553426904
全家便利商店,29000113,德陽分公司,內湖區文德路22巷25號,25.0768023,121.5799409,554527026
萊爾富國際,80655016,北市信東分公司,信義區忠孝東路五段六三號一樓,25.041237399999996,121.566674,553726952
萊爾富國際,89478316,梧州分公司,梧州街２９號１樓,25.0374727,121.49771840000001,553626927
統一超商,16092336,台北巿第３５４分公司,文山區景中街四十五號１樓,24.9927198,121.54404140000001,552726795
統一超商,51619147,台北市第八九九分公司,松山區慶城街1號1樓,25.0528006,121.544604,554026974
統一超商,84895185,台北市第二八九分公司,文山區木柵里九鄰木柵路三段八十八號一樓,24.9885359,121.566929,552626784
全家便利商店,16435353,湖安分公司,內湖區內湖路1段285巷19號1樓,25.082970899999996,121.56698290000001,554727032
全家便利商店,28423162,永安分公司,中山區成功里北安路630巷7號1樓,25.08286,121.549484,554727028
全家便利商店,53005118,和醫分公司,中正區延平南路159號1樓,25.0352997,121.5077091,553626924
全家便利商店,53666270,鑫德分公司,松山區八德路2段400號,25.0480199,121.54658570000001,553926964
萊爾富國際,16436986,北巿內湖第二分公司,內湖區成功路二段３１８之１號１樓,25.0674986,121.59046740000001,554327013
萊爾富國際,51617675,北市西湖分公司,內湖區內湖路1段217巷37號,25.083855,121.565243,554727032
統一超商,22555926,台北市第六十五分公司,士林區中正路220、222號1樓,25.095518600000002,121.52607859999999,554927037
統一超商,27928657,台北市第五五八分公司,中正區濟南路２段50、52號1樓,25.040272199999997,121.53121409999999,553726942
統一超商,28413609,台北市第六四四分公司,士林區美崙街112號,25.0971383,121.51973100000001,555027038
統一超商,70787328,台北市第一四九分公司,萬華區環河南路二段252號1樓、環河南路二段250巷1號1樓,25.036913199999997,121.49537859999998,553626925
統一超商,70816560,台北市第五０四分公司,士林區福港街246、248號1樓,25.0843468,121.51749070000001,554727022
統一超商,86684761,台北巿第２１９分公司,萬華區環河南路二段205、207號1樓,25.033918600000003,121.4930126,553626917
全家便利商店,24789858,台北市第五四一分公司,信義區松德路200巷13號、15號1樓,25.0345682,121.5735956,553626936
全家便利商店,70816175,明曜分公司,大安區建倫里仁愛路4段151巷34號、36號1樓,25.0402796,121.5517632,553726946
統一超商,23413714,台北巿第１４９分公司,西園路二段１２８號１樓,25.0305956,121.496353,553526908
統一超商,27250114,台北市第四八０分公司,八德路2段314號1樓,25.047182,121.54280700000001,553926961
統一超商,54382954,台北市第七五五分公司,內湖區金湖路405號1樓,25.0733588,121.60439050000001,554427026
統一超商,54388015,台北市第七六八分公司,萬華區成都路27巷1號1樓,25.042739899999997,121.50691100000002,553826942
統一超商,80349988,台北市第二六五分公司,內湖區內湖路一段九十一巷二號一樓,25.0847347,121.5614702,554727033
統一超商,84710589,台北巿第２７５分公司,中山區吉林路28號1樓,25.0515967,121.5299176,554026968
全家便利商店,16442805,大南分公司,士林區大南路52號1樓,25.089451,121.52491709999998,554827030
萊爾富國際,16837743,北市麥帥分公司,內湖區行善路三十三號一樓,25.0566054,121.5760479,554126989
萊爾富國際,28433176,第三一一八分公司,北投區立德路60號、立功街135號1樓,25.123421,121.4716472,555527043
統一超商,22656142,台北市第八七分公司,忠孝東路四段五六０號一一樓,25.0410357,121.56380449999999,553726951
統一超商,27922979,台北市第五七七分公司,松山區撫遠街197、199號1樓,25.0598707,121.5680337,554126994
統一超商,28412849,台北市第六四二分公司,松山區三民路115號1樓,25.058072,121.56322779999999,554126989
統一超商,28415135,台北市第六四七分公司,南港區南港路3段9號1樓,25.05395,121.5920067,554026987
統一超商,53649857,台北市第八一六分公司,大安區敦化南路2段182號1樓,25.023575899999997,121.5483433,553326900
全家便利商店,16835436,大直分公司,中山區大直街33巷1號1樓,25.0821625,121.54656920000001,554627026
全家便利商店,28422184,松仁分公司,信義區三犁里信義路5段150巷221號1樓,25.028411,121.568751,553426918
全家便利商店,53005172,新松分公司,中山區松江路330巷33號1樓,25.0612771,121.53165959999998,554226988
全家便利商店,53651059,北鑫分公司,南港區中坡南路15號,25.0434861,121.58288940000001,553826961
統一超商,22555329,台北市第５分公司,北投區榮華三路３–１號１樓,25.113696700000002,121.52395530000001,555327051
統一超商,27232427,台北市第五六二分公司,信義區松光里忠孝東路五段五二四巷一弄一，一之一號,25.04126,121.5795739,553726955
統一超商,70764970,台北市第四五六分公司,中山區建國北路一段一三六號一樓,25.051002800000003,121.5363886,553926968
全家便利商店,28425582,港福分公司,南港區仁福里福德街373巷63號,25.039477899999998,121.592215,553726953
全家便利商店,51412602,台北市第五九四分公司,大安區全安里安和路2段169號及171巷3號,25.0281759,121.55009059999999,553426914
全家便利商店,80346808,大道分公司,信義區大道里大道路79號1樓,25.040767000000002,121.582571,553726954
萊爾富國際,53665624,第四0九六分公司,中正區梅花里忠孝東路1段35號1樓,25.0444909,121.5255533,553826951
萊爾富國際,53667897,第四0九七分公司,內湖區內湖里金龍路64號、66號1樓,25.0848285,121.59287759999998,554727040
統一超商,16432911,台北巿第３６１分公司,大安區建國南路一段２７４號１樓,25.0364085,121.53730449999999,553626933
統一超商,16846601,台北市第四二四分公司,內湖區康寧路3段99巷14號1樓、康寧路3段99巷12弄2號1樓,25.0726997,121.6106675,554427026
統一超商,28435189,台北市第五九一分公司,北投區溫泉路70號1樓,25.135148,121.5049037,555827051
全家便利商店,24790497,台北市第五四二分公司,松山區南京東路5段291巷14號、16號,25.0523087,121.5661044,554026977
全家便利商店,27252485,新瑞分公司,內湖區西康里堤頂大道2段407巷26號1樓,25.081055,121.563427,554627028
全家便利商店,70750286,錦西分公司,中山區錦西街8號1樓,25.0602478,121.52175049999998,554226984
全家便利商店,84307476,雙城分公司,中山區雙城街12之1號1樓,25.0678245,121.5252342,554326999
萊爾富國際,80680036,北市同達分公司,大同區延平北路二段一一四、一一六、一一八號及民生西路三三五號一樓,25.0569879,121.5155683,554126976
統一超商,22656115,台北市第八十四分公司,龍江路２４４號１樓,25.058971399999997,121.5405155,554126986
統一超商,23218058,台北巿第１３６分公司,古亭區汀州路一段１２７、１２９號１樓,25.027059,121.5111514,553426902
統一超商,28982405,台北市第六八六分公司,中正區思源街16號1樓,25.0142587,121.53128170000001,553126868
統一超商,70811039,台北市第四０三分公司,中山區長春路一三五、一三五之一號一樓,25.054312699999997,121.54236370000001,554026977
來來超商,97164979,第２５５分公司,內湖區內湖路３段９１號１樓,25.086289,121.59110600000001,554727041
全家便利商店,28423156,館中分公司,中正區文盛里羅斯福路3段316巷8弄1號1樓,25.015791500000002,121.5326324,553226873
全家便利商店,53675046,新成鑫分公司,南港區玉成街176巷1號,25.0443493,121.58431340000001,553826963
萊爾富國際,70761262,北市中山第三分公司,中山區中山北路二段六十五巷十三號一樓,25.0571417,121.5240264,554126978
統一超商,22656163,台北市第八十九分公司,中山區合江街58巷1號1樓：60、60-1號1樓,25.056979100000003,121.53895990000002,554126981
統一超商,27258410,台北市第五八八分公司,內湖區內湖路1段737巷35號1樓,25.079744899999998,121.5787341,554627030
統一超商,28998125,台北市第七○二分公司,萬華區漢中街185、187號1樓,25.041138,121.50684199999999,553726938
統一超商,43141803,台北市第八六四分公司,大安區金華街140號1樓,25.029821,121.528376,553526913
全家便利商店,24796464,台北市第五五０分公司,士林區天福里忠誠路2段168號1樓,25.1156536,121.5331645,555427054
全家便利商店,28981258,重慶分公司,中正區重慶南路1段58號1樓,25.0368563,121.51177849999999,553626929
全家便利商店,51081188,台北市第五七八分公司,松山區吉祥里南京東路5段180號、182號,25.051270499999998,121.56351059999999,554026975
全家便利商店,53019197,新東湖分公司,內湖區東湖路43巷4號,25.069167800000002,121.61420700000001,554327021
統一超商,16082175,台北巿第２３３分公司,東新街八十巷１號１樓、１０８巷２弄三十號１樓,25.0329694,121.56541770000001,553526930
統一超商,53653253,台北市第八二七分公司,內湖區民權東路6段180巷17、19號1樓,25.068261899999996,121.59289170000001,554327015
統一超商,70804847,台北市第四八九分公司,內湖區瑞光路一九六號一樓,25.0747204,121.57700179999999,554527022
全家便利商店,16439908,永孝分公司,信義區松信路145號1樓,25.043543,121.572162,553826959
全家便利商店,28413235,明興分公司,文山區明興里木柵路2段109巷25弄2號、2之1號1樓,24.990145000000002,121.562851,552626790
全家便利商店,28417801,常興分公司,松山區民福里五常街364號1樓,25.0642879,121.5448999,554226997
全家便利商店,70770924,水源分公司,中正區水源里汀州路3段261號1樓,25.012841899999998,121.53523030000001,553126864
萊爾富國際,84126073,社正分公司,士林區社正路２７號１樓,25.088735800000002,121.5091529,554827026
統一超商,16432927,台北巿第三六二分公司,中正區永昌里21鄰中華路2段405、407號1樓,25.026016199999997,121.50827269999999,553426898
統一超商,22555469,台北市第十九分公司,信義區臺北市永吉路32、34號1樓,25.0454044,121.5689813,553826962
統一超商,53677733,台北市第七三五分公司,中山區林森北路107巷15號1樓,25.0503204,121.5256788,553926964
來來超商,96974613,第二二五分公司,中山區北安路４７６號１樓,25.079609,121.545121,554627022
全家便利商店,54398962,台北市第五三九分公司,中山區民生東路1段39號,25.0582094,121.52592720000001,554126981
萊爾富國際,53014622,第三九三四分公司,中正區建國里寶慶路35號1樓,25.041550199999996,121.5103426,553726940
萊爾富國際,70807295,北市指南分公司,文山區萬興里指南路二段三十二號一樓,24.9877685,121.57473440000001,552526783
萊爾富國際,86516408,木新第二分公司,文山區木新路三段２３２巷６弄１８號１樓,24.9819405,121.5597153,552426756
統一超商,16749586,台北市第３６分公司,中正區杭州南路一段八十三號一樓,25.039056100000003,121.52552050000001,553726937
統一超商,22656023,臺北市第７５分公司,長安東路二段８１號１樓,25.048570899999998,121.5345357,553926962
統一超商,28432599,台北市第六十一分公司,大安區安和路1段47號1樓,25.038625,121.55099399999999,553726942
統一超商,53651868,台北市第八二三分公司,大安區敦化南路2段265巷6號1樓,25.0253682,121.54955670000001,553426905
來來超商,23932053,第一０六分公司,信義區中坡南路１５８號１樓,25.0398138,121.58432420000001,553726952
全家便利商店,51324734,台北市第五九O分公司,信義區六合里松仁路240巷2號及238號1樓,25.024319600000002,121.5688375,553426907
萊爾富國際,28996702,第三七九五分公司,信義區景新里莊敬路290號1樓,25.028519,121.56302099999999,553526917
萊爾富國際,96934520,社子分公司,士林區社子街６３巷２號１樓,25.087589,121.50689550000001,554827024
統一超商,22555849,台北市第五十七分公司,中山區農安街28-2號1樓,25.0658166,121.52968510000001,554326996
統一超商,23827539,台北巿第１９３分公司,文山區復興南路二段82-1、82-2號1樓,25.0309643,121.5433064,553526920
統一超商,27950828,台北市第六二八分公司,信義區松德路200巷10號,25.0348367,121.57365800000001,553626937
統一超商,53660753,台北市第八五三分公司,大同區承德路三段55、57號1樓,25.0652109,121.51856629999999,554326993
統一超商,86123234,臺北巿第２０７分公司,中山區林森北路572號1樓,25.064995800000002,121.52553490000001,554326994
統一超商,89388785,台北巿第三０七分公司,南京東路四段五十一之二號一樓,25.051892000000002,121.55102600000001,554026973
來來超商,97164984,第二五七分公司,文山區保儀路１００號１樓,24.9867229,121.56811100000002,552526777
全家便利商店,84306244,協和分公司,信義區中坡南路38號1樓,25.042819100000003,121.58336670000001,553826959
統一超商,51568766,台北市第八九六分公司,內湖區基湖路35巷13號1樓,25.079813199999997,121.56550370000001,554627027
統一超商,54386868,台北市第七六四分公司,中山區南京東路3段21號1樓,25.052312899999997,121.537779,554026971
全家便利商店,28436722,大孝分公司,中正區愛國東路112號1樓．2樓,25.0326488,121.5213509,553526920
全家便利商店,28438209,復林分公司,中正區正義里林森北路149號-1．149-2號1樓,25.051499,121.52538,554026967
全家便利商店,53019680,華港分公司,士林區大南路231號、233號,25.0883797,121.52093719999999,554827028
全家便利商店,54392427,台北市第五三二分公司,中山區農安街160號,25.0645895,121.53399070000002,554226995
萊爾富國際,27249433,第２５９７分公司,南港區東明里南港路２段２、４號１樓,25.054381699999997,121.6060771,554026991
萊爾富國際,53670020,第四0八二分公司,萬華區孝德里德昌街241號2453號245號1樓,25.0227662,121.49310870000001,553326885
統一超商,24803845,台北市第八五六分公司,北投區公館路259號1樓,25.1254092,121.5081946,555627051
統一超商,27235732,台北市第五十三分公司,中山區中山北路三段二十三之六號一樓,25.0648609,121.52272169999999,554326993
統一超商,53654020,台北市第八二八分公司,士林區延平路6段122、124號1樓,25.0885705,121.50375179999999,554827025
統一超商,53654339,台北市第八二九分公司,大安區羅斯福路3段245號1樓,25.019332000000002,121.529996,553226883
統一超商,84250804,台北市第二三六分公司,大同區重慶北路三段309、311號1樓,25.0714112,121.51358379999999,554427002
來來超商,53026633,第四五八分公司,北投區石牌路1段166巷97號1樓,25.112289899999997,121.51520390000002,555327048
萊爾富國際,70786910,北市雙連分公司,中山區民生西路六二號一樓,25.0575608,121.52093149999999,554126978
萊爾富國際,86324979,民生分公司,中山區民生西路２號１樓,25.0577564,121.52243870000001,554126979
統一超商,27937157,台北市第五二五分公司,中山區松江路２０８號１樓,25.057844199999998,121.5329186,554126982
統一超商,28411551,台北市第六三四分公司,大安區忠孝東路4段223巷42號,25.0435977,121.55307549999999,553826955
統一超商,53010040,台北市第十一分公司,大安區信義路4段74號1樓,25.0330759,121.5464175,553626926
全家便利商店,28422473,福泰分公司,中山區中山里民生東路1段36號1樓,25.0578748,121.52426409999998,554126980
全家便利商店,28423249,芝玉分公司,士林區東山里士東路266巷5弄16號1樓,25.112385999999997,121.537499,555327053
全家便利商店,28991684,玉林分公司,中山區民生東路1段27巷15號及17號,25.058692999999998,121.52514599999999,554126982
全家便利商店,53666861,濟南二分公司,大安區濟南路3段7號,25.040271100000002,121.53363859999999,553726942
全家便利商店,80327865,福林分公司,士林區福林里中正路233號、233之1號1樓,25.095192,121.52601200000001,554927037
統一超商,27932131,台北市第六０七分公司,萬華區忠德里東園街28巷56、58號1樓,25.026132999999998,121.494375,553426895
統一超商,54386207,台北市第七六三分公司,內湖區環山路1段70號1樓,25.086539000000002,121.566875,554727036
統一超商,84896972,台北巿第２９６分公司,基隆路一段１４５號１樓,25.0427826,121.5656683,553826955
統一超商,89405715,台北巿第３３６分公司,北投區明德路87、89號1樓,25.108964999999998,121.51874040000001,555227047
統一超商,97163367,台北巿第１２３分公司,士林區忠義街121號1樓,25.1076796,121.5327971,555227049
來來超商,70801187,第六五三分公司,中正區和平西路２段７０巷１５弄３號１樓,25.0282005,121.51140149999999,553426905
全家便利商店,23167419,光復南路分公司,信義區光復南路447之2號1樓,25.0351746,121.55766799999999,553626934
全家便利商店,54386852,台北市第五二七分公司,中正區八德路1段43巷2號,25.0443907,121.5315762,553826952
統一超商,27925080,台北市第五七五分公司,松山區健康路11號1樓,25.053224,121.552453,554026976
統一超商,28989245,台北市第六九○分公司,萬華區武昌街2段57號1樓,25.0447812,121.5072107,553826947
統一超商,51235178,台北市第八八一分公司,士林區基河路368、370號1樓,25.0948165,121.5185817,554927035
統一超商,70781014,台北市第八十三分公司,南港區成福里東新街118巷1、3號1樓,25.046466199999998,121.58838940000001,553826969
統一超商,84895312,台北市第二九０分公司,中山區農安街一七八號一樓,25.064548300000002,121.5348399,554226995
全家便利商店,28414678,復昌分公司,信義區中興里光復南路505號、507號、文昌街329號1樓,25.032119,121.5575139,553526926
全家便利商店,70814633,東華分公司,北投區永明里東華街2段88號1樓,25.117755399999997,121.51362730000001,555427050
全家便利商店,97169670,景中分公司,文山區景中街5號，7號1樓,24.9930331,121.54177800000001,552726796
統一超商,1846195,台北市第一七０分公司,士林區文林路一六九號一樓,25.0895031,121.5267905,554827031
統一超商,28419435,台北市第六一一分公司,中正區黎明里忠孝西路1段33、35號1樓,25.0461178,121.5187655,553826953
統一超商,28429399,台北市第六五五分公司,大安區忠孝東路3段217巷1弄2號1樓,25.042463,121.539593,553826949
統一超商,51085234,台北市第八七六分公司,松山區南京東路5段16號1樓,25.0513242,121.5588287,554026974
統一超商,53026508,台北市第八０八分公司,信義區基隆路1段398號1樓,25.0342889,121.56002659999999,553626933
來來超商,96972312,第二二０分公司,士林區中山北路６段１９３號１樓,25.1078503,121.52493600000001,555227047
全家便利商店,51012198,台北市第五七五分公司,大安區永康里信義路2段104號1樓,25.0338012,121.527533,553626924
萊爾富國際,27244296,第２８６０分公司,中山區德惠街一０九號一樓,25.0668195,121.52502390000001,554326997
統一超商,24793516,台北市第七八八分公司,松山區八德路2段366巷7號1樓,25.0477652,121.5460902,553926963
統一超商,97165436,台北巿第１４４分公司,士林區格致路57號1樓,25.1379005,121.54640690000001,555927060
來來超商,27250944,第八五九分公司,松山區撫遠街３８２號１樓,25.0644396,121.56555259999999,554227002
全家便利商店,70813347,葫蘆分公司,士林區葫蘆里延平北路5段283之1號1樓,25.0855563,121.5094953,554727022
全家便利商店,80342818,萬年分公司,萬華區西門里西寧南路155號1樓,25.043519600000003,121.50633049999999,553826944
全家便利商店,86381746,豐禾分公司,松山區民生東路三段130巷5弄2號1樓,25.056917000000002,121.54633500000001,554126983
萊爾富國際,53019513,第三九五八分公司,內湖區康樂里安泰街26號28號1樓,25.0740793,121.6176432,554527030
萊爾富國際,80341418,北市文福分公司,文山區景慶里景福街二三０巷二號一樓,24.9963098,121.5360159,552726807
統一超商,28438377,台北市第六六五分公司,中正區信陽街2-1號1樓,25.044586499999998,121.5167517,553826949
統一超商,80032519,台北市第二０一分公司,士林區陽明里格致路二十八號,25.136905399999996,121.54649029999999,555827060
來來超商,24807770,第一二二七分公司,文山區興隆路4段72之2號、74巷2號、74巷4號1樓,24.9884079,121.558328,552626782
全家便利商店,28422488,漢中分公司,萬華區新起里漢中街139號1樓,25.041701,121.507356,553726940
全家便利商店,53013546,金門分公司,中正區汀州路2段216號1樓,25.0223276,121.523826,553326891
全家便利商店,53670458,鑫順分公司,文山區忠順街2段16號、18號,24.984584299999998,121.56265390000002,552526768
全家便利商店,53678590,台北市第五0一分公司,中山區復興北路514巷35號、37號,25.066063,121.54269509999999,554327000
萊爾富國際,28973193,第三六二九分公司,南港區舊莊里舊莊街1段212巷2號1樓,25.038283,121.6223631,553726957
統一超商,51532000,台北市第九O二分公司,大安區羅斯福路三段193號1樓,25.0210652,121.5281383,553326888
統一超商,53025775,台北市第八0五分公司,中山區中山北路2段11巷1、3號1樓,25.0595479,121.5241784,554126983
統一超商,53660374,台北市第八四八分公司,大安區忠孝東路4段205巷7弄5號1樓,25.04216,121.55220020000002,553826951
統一超商,97179614,台北巿第３０８分公司,北投區致遠二路149號1樓,25.117423600000002,121.51298529999998,555427050
來來超商,70747179,第四三０分公司,文山區木新路２段２４２號１樓,24.983348,121.56660649999999,552526764
全家便利商店,23928234,龍江分公司,龍江路９３號,25.051332199999997,121.5405505,554026970
全家便利商店,23929509,敦仁分公司,仁愛路四段１５１巷３７號１樓,25.0405902,121.55198159999999,553726947
萊爾富國際,53676811,第四0九二分公司,南港區西新里南港路3段8號1樓、10號1樓,25.054020899999998,121.592243,554026987
統一超商,22555284,臺北市第１分公司,中山北路六段１５０號１樓,25.1063689,121.5250808,555227046
統一超商,23361997,台北巿第８３分公司,延吉街１３１巷十九、二十一號１樓,25.0427009,121.55543370000001,553826953
統一超商,54388752,台北市第七七一分公司,信義區虎林街222巷7、9號1樓,25.037183,121.577097,553626944
來來超商,70819742,第七一一分公司,信義區信安街１４９號１樓,25.0229689,121.55553400000001,553326900
全家便利商店,24801115,台北市第五五三分公司,中正區館前路36號1樓,25.044483800000002,121.5148784,553826948
全家便利商店,28422446,國順分公司,大同區國順里延平北路3段118號1樓,25.0673454,121.5107976,554326995
全家便利商店,54397035,台北市第五三七分公司,中山區新生北路1段116號、118號,25.050589399999996,121.527773,553926965
萊爾富國際,54398148,第四二三二分公司,大同區承德路3段284、286號1樓,25.0738888,121.5193528,554527008
統一超商,16089732,台北巿第３５２分公司,中山區復興北路１６４號１樓,25.053476999999997,121.54384499999999,554026975
統一超商,28415199,台北市第六四八分公司,信義區松山路455號,25.039796300000003,121.5780166,553726951
統一超商,70799400,台北市第三四八分公司,中正區杭州南路一段二十三號一樓,25.0424074,121.5265416,553826946
統一超商,84900568,台北市第三０一分公司,中山北路二段四十之一號一樓,25.0542879,121.52379750000001,554026972
來來超商,16085905,第三一二分公司,北投區泉源路三十五巷１號１樓,25.140504999999997,121.506215,555927051
全家便利商店,23929579,大安分公司,大安區大安路1段20號1樓,25.0440968,121.54608130000001,553826954
全家便利商店,53662719,金園分公司,萬華區西園路2段140巷42號、44號,25.0313135,121.4951544,553526910
萊爾富國際,86174726,福德分公司,信義區福德街２６６號１樓,25.038884,121.58589209999998,553726950
統一超商,16089199,台北巿第３５１分公司,北投區明德路九十九號１樓,25.109517999999998,121.5193952,555227047
統一超商,27241495,台北市第五七三分公司,中正區南昌路二段一七三號,25.0255587,121.52282920000002,553426900
統一超商,28433507,台北市第六六０分公司,萬華區武昌街2段114-3、114-4號1樓,25.045131,121.504727,553826948
統一超商,51317831,台北市第九四六分公司,內湖區港墘路46、48號1樓,25.0820648,121.5780385,554627033
統一超商,84442607,台北巿第２４７分公司,民生東路五段100號1樓,25.058441100000003,121.560323,554126989
全家便利商店,27230814,試院分公司,文山區試院里木柵路1段91號、93號1樓,24.987121,121.547393,552526774
全家便利商店,28979963,復盛分公司,松山區八德路4段40、42號,25.0481978,121.5593007,553926967
萊爾富國際,96967107,和平分公司,中正區延平南路２１０號１樓,25.0347891,121.50745479999999,553626922
統一超商,53651831,台北市第八二二分公司,士林區基河路132號1樓,25.0890872,121.5227567,554827030
統一超商,70816098,台北市第一七三分公司,中山區林森北路310巷10號1樓、中山北路二段59巷55、55-1、55-2、55-3、55-4、57、59號1樓,25.056120999999997,121.52478049999999,554126976
統一超商,80339975,台北市第五三一分公司,士林區文林路五三０號一樓,25.0870762,121.5256226,554727028
統一超商,80349045,台北市第五四四分公司,中山區中山北路二段九八號一樓,25.059896300000002,121.5226656,554126984
來來超商,89391402,第一八九分公司,松山區敦化北路１５５巷８７號之１號１樓,25.054072,121.551406,554026978
萊爾富國際,27254293,第３０３４分公司,北投區關渡里知行路３１４號１樓,25.1224438,121.46726890000001,555527042
萊爾富國際,86174134,延平第二分公司,士林區延平北路五段１３８號１樓,25.0789815,121.5100351,554627013
統一超商,16832212,台北市第３１１分公司,松山區三民路十號一樓,25.0524003,121.5639517,554026977
統一超商,27246983,台北市第三七八分公司,信義區松德路二七一號,25.032912,121.574648,553526932
統一超商,27949007,台北市第六二０分公司,內湖區康樂街213號1樓,25.0762293,121.62170590000001,554527034
統一超商,27951404,台北市第六二九分公司,北投區文林北路98號,25.10564,121.517646,555227044
統一超商,51527554,台北市第八九一分公司,北投區光明路132-2號1樓,25.133616,121.50216,555827051
統一超商,84706706,台北市第２６６分公司,和平西路1段26號1樓,25.0266129,121.52074350000001,553426903
統一超商,89388321,台北市第三０三分公司,大同區南京西路四三六號一樓,25.0533002,121.50890420000002,554026967
全家便利商店,54373625,台北市第五0六分公司,中山區民權東路2段152巷14號,25.061174899999997,121.53498049999999,554226989
統一超商,28417788,台北市第一四一分公司,大同區重慶北路2段60號、62號1樓,25.0558329,121.51379299999999,554126973
統一超商,97175574,台北巿第２２２分公司,大安區敦化南路二段八十一巷二十九號１樓,25.030054800000002,121.55001499999999,553526919
全家便利商店,28436096,力晶分公司,松山區中正里南京東路3段258號1樓,25.051609699999997,121.5448268,554026971
全家便利商店,51567470,台北市第六O六分公司,大安區民炤里新生南路1段165巷35號,25.0342643,121.5360805,553626927
全家便利商店,53661021,吉泰分公司,大安區仁愛路4段300巷11之1號、2號,25.036904999999997,121.5545587,553626938
全家便利商店,54389963,台北市第五二九分公司,大安區和平東路3段58號1樓,25.024442699999998,121.54818770000001,553426902
萊爾富國際,97082528,懷德分公司,北投區懷德街五號一樓,25.1113681,121.51915159999999,555327048
統一超商,22656059,台北市第七十八分公司,長安東路一段８之３號１樓,25.049468100000002,121.52265120000001,553926962
統一超商,27934010,台北市第五一六分公司,大同區延平北路４段１５７、１５９號１樓,25.0731183,121.5114223,554427005
統一超商,27949983,台北市第六二四分公司,信義區興隆里忠孝東路4段514號,25.040831,121.56259399999999,553726950
統一超商,84892906,台北巿第二八一分公司,文山區指南里十六鄰指南路三段八、十號一樓,24.9798244,121.58246729999999,552426753
統一超商,96977870,台北巿第７１分公司,松山區八德路4段151號1樓,25.048779999999997,121.562569,553926969
全家便利商店,28421707,永隆分公司,信義區興雅里基隆路1段147巷7號1樓,25.042521,121.566194,553826955
全家便利商店,51707417,台北市第六一七分公司,中正區黎明里衡陽路7號1樓,25.0424284,121.5137115,553826943
統一超商,24811937,台北市第八六六分公司,內湖區新湖二路329號1樓,25.0645815,121.58351670000002,554227006
全家便利商店,23528482,公館分公司,中正區汀州路3段251號1１樓,25.013642,121.53441299999999,553126866
全家便利商店,51445337,台北市第五九七分公司,信義區安康里松德路157號、159號,25.0365603,121.5749548,553626942
全家便利商店,51667203,台北市第六一三分公司,松山區民有里民生東路3段127巷6號1樓及113巷7弄19號1樓,25.0575896,121.54195449999999,554126983
萊爾富國際,24789386,第四二六五分公司,南港區三重里經貿二路235巷36號1樓,25.061362399999997,121.61516950000001,554227007
萊爾富國際,27927192,第３１０５分公司,內湖區安康路１４２號１樓,25.0628349,121.600146,554227006
萊爾富國際,54370818,第四一六一分公司,內湖區大湖里大湖山莊街179號1樓,25.0881987,121.6011837,554827046
統一超商,24801522,台北市第七九六分公司,松山區民生東路3段130巷2之1號1樓,25.0570076,121.5461262,554126983
統一超商,51443540,台北市第八八七分公司,大安區永康街2巷12號1樓,25.0332016,121.5291838,553626923
統一超商,54378972,台北市第七五二分公司,松山區敦化北路199巷2弄9號1樓,25.0554268,121.55004140000001,554026981
全家便利商店,28421621,民族分公司,中山區行仁里民族東路410巷23弄24號1樓,25.066738,121.53956699999999,554327000
全家便利商店,51182209,台北市第五八二分公司,內湖區紫星里康寧路1段116號1樓及地下室,25.0783462,121.59620090000001,554627032
全家便利商店,54382737,台北市第五一八分公司,文山區木新路3段93、95號,24.982117000000002,121.56295940000001,552426758
萊爾富國際,28429222,第三五三六分公司,松山區復勢里光復北路102號1樓,25.0506768,121.55769009999999,553926972
統一超商,16632262,台北市第３８４分公司,松山區南京東路五段139之4、139之8號1樓,25.0517153,121.56155759999999,554026975
統一超商,51627961,台北市第九一六分公司,信義區忠孝東路5段68號24樓,25.0405044,121.56689640000002,553726950
統一超商,54389181,台北市第七七四分公司,大安區泰順街64號1樓,25.022223,121.531154,553326892
統一超商,84449159,台北市第２５９分公司,內湖區民權東路6段120巷7弄8號1樓,25.067753600000003,121.5875824,554327013
全家便利商店,27237176,寶清分公司,松山區慈祐里八德路四段五九八號一樓,25.049907,121.57227240000002,553926974
萊爾富國際,28438518,第三六三三分公司,大同區隆和里延平北路3段40號1樓,25.0646138,121.51110700000001,554226990
萊爾富國際,80350957,北市松華分公司,松山區吉祥里南京東路五段三十四號一樓,25.0512633,121.5592325,554026974
統一超商,16740240,台北市第３８９分公司,大同區延平北路二段一五九．一六一號一樓,25.059173,121.51168700000001,554126980
統一超商,24810347,台北市第八六五分公司,松山區延吉街27之1號1樓,25.0459868,121.553706,553826960
統一超商,70746122,台北市第四三三分公司,中山區松江路183、183之1號1樓,25.05645,121.53328799999998,554126979
統一超商,80347476,台北市第八十七分公司,中山區北安路六二一巷四十八號一樓,25.082836999999998,121.54643200000001,554727027
全家便利商店,16095713,建國分公司,大安區建國南路2段151巷38號1樓,25.0286662,121.5392925,553526913
全家便利商店,28977521,大港分公司,士林區前港里前港街39號,25.0848696,121.5215362,554727024
萊爾富國際,70822628,北市安世分公司,大安區誠安里忠孝東路三段二八九號一樓,25.0418612,121.54302129999999,553726948
統一超商,16083738,台北巿第２１３分公司,中山區伊通街30號(1樓),25.0508746,121.53466090000002,553926967
統一超商,22555448,臺北市第十七分公司,信義區忠孝東路五段386號1樓,25.040764000000003,121.574124,553726952
統一超商,51007717,台北市第八七０分公司,中山區南京東路2段11號1樓,25.0523055,121.52845190000001,554026969
統一超商,53668729,台北市第七二０分公司,士林區中山北路6段18、20號1樓,25.1039515,121.5267463,555127045
統一超商,89392444,台北巿第三一０分公司,中正區青島東路9號1樓、林森南路4-3號1樓,25.0441083,121.5230209,553826949
全家便利商店,28422924,昌隆分公司,大安區昌隆里忠孝東路3段217巷2弄1號1樓,25.042400100000002,121.53984240000001,553826949
全家便利商店,70813249,環山分公司,內湖區西湖里環山路1段5號1樓,25.082813899999998,121.5656618,554727031
統一超商,27257284,台北市第五八四分公司,中山區長春路182號1、2樓,25.054709399999997,121.53441609999999,554026976
統一超商,53659088,台北市第八三五分公司,大安區敦化南路2段99號1樓,25.0288698,121.5494371,553526915
統一超商,53665309,台北市第七一０分公司,中山區中山北路2段44巷2號1樓,25.054889499999998,121.5213932,554026973
統一超商,70754348,台北市第四四二分公司,大同區民生西路三四三、三四五號一樓,25.0570861,121.51287590000001,554126976
統一超商,89398263,台北巿第３２４分公司,松山區八德路4段245巷35號1樓,25.0504658,121.56438329999999,553926973
全家便利商店,28425339,懷生分公司,大安區誠安里復興南路1段70號,25.044142899999997,121.5436009,553826954
全家便利商店,84900075,明真分公司,大同區延平北路4段19號1樓,25.069361999999998,121.51096329999999,554426998
統一超商,27929207,台北市第六０二分公司,松山區延壽街323號1樓,25.056713000000002,121.56055400000001,554126986
統一超商,84252486,台北市第二三八分公司,信義區福德街247、249號1樓,25.0387563,121.5858873,553726950
全家便利商店,51713826,台北市第六二O分公司,松山區自強里健康路285號1樓,25.0543129,121.5639936,554026981
全家便利商店,54375433,台北市第五0七分公司,中山區林森北路630、632號,25.067559699999997,121.52560919999999,554326999
全家便利商店,54394071,台北市第五三六分公司,萬華區西園路1段246號1樓,25.034458899999997,121.4985949,553626919
萊爾富國際,27318748,北市港北分公司,南港區中坡北路五０巷一號一樓,25.046577,121.58090200000001,553926968
萊爾富國際,51752101,第四四五一分公司,松山區敦化北路222巷50號、52號,25.060104,121.5469947,554126989
統一超商,23362829,台北市第１４８分公司,指南路二段九十九、１０１號１樓,24.987804999999998,121.57553759999999,552626783
統一超商,24799912,台北市第七九五分公司,中正區忠孝西路1段66號B1,25.0461278,121.515325,553826952
統一超商,27235352,台北市第三五三分公司,中山區長春路一六八號一樓,25.054593,121.533423,554026975
統一超商,54385410,台北市第七六一分公司,萬華區西園路一段238號1、2樓,25.0348072,121.4988354,553626920
統一超商,80022316,台北市第四十二分公司,中正區中華路一段五十九之十六、五十九之十七號一樓,25.0439908,121.5087626,553826946
統一超商,80339779,台北市第五二九分公司,內湖區港華街40號1樓,25.0829757,121.5749132,554727033
統一超商,86376048,臺北巿第２１０分公司,北投區實踐街22、24號1樓,25.1149346,121.5081253,555427048
統一超商,27934428,台北市第三十分公司,松山區南京東路５段334、336號1樓,25.0510894,121.5686879,553926975
統一超商,27939465,台北市第九十八分公司,中正區東門里信義路1段13-1號1樓,25.0364924,121.5227125,553626930
統一超商,51076283,台北市第八七五分公司,萬華區萬大路486巷61、63號1樓,25.0205189,121.495798,553326879
統一超商,70791054,台北市第一七九分公司,大安區復興南路一段一三五巷五號一樓,25.042776899999996,121.5446297,553826951
統一超商,70816273,台北市第四六六分公司,大同區南京西路一二七號一樓,25.0542783,121.51457020000001,554026970
統一超商,80023429,台北市第四四六分公司,大安區信義路三段三十三號一樓,25.0337685,121.5346828,553626926
全家便利商店,16090111,中興分公司,中山區龍江路201號1樓,25.056279800000002,121.5406666,554126980
統一超商,22959743,台北巿第１２５分公司,文山區羅斯福路6段20、22號1樓,24.9969549,121.539942,552826810
統一超商,27243352,台北市第五七六分公司,士林區文林路102號地下1樓之1~5、地下1樓之32,25.087847,121.526399,554827029
統一超商,27929038,台北市第六０一分公司,松山區復興北路179號,25.0542432,121.544379,554026977
統一超商,28418013,台北市第四七一分公司,中山區圓山里中山北路3段57號1樓,25.0683396,121.5229425,554326999
統一超商,70744905,台北市第四三０分公司,大安區忠孝東路四段一０一巷七號一樓,25.042137399999998,121.5481601,553826950
