name,schoolType,district,address,lat,lon,state_code
國立臺灣師範大學-1,college,大安區,和平東路一段162號 ,25.0259126,121.5283135,553426902
國立臺灣師範大學-2,college,大安區,和平東路一段129號 ,25.026815399999997,121.52874820000001,553426905
國立臺灣師範大學-3,college,文山區,汀州路四段88號,25.0080629,121.5366277,553026848
銘傳大學-1,college,士林區,中山北路五段250號,25.0860676,121.5275514,554727027
銘傳大學-2,college,士林區,基河路130號3樓,25.0890026,121.5228862,554827029
中國文化大學-1,college,士林區,陽明里華岡路55號,25.137717600000002,121.54100559999999,555927059
中國文化大學-2,college,大安區,建國南路二段231號,25.0258897,121.5380777,553426904
中國文化大學-3,college,中正區,延平南路127號,25.038340100000003,121.50864550000001,553726932
東吳大學-1,college,士林區,臨溪路70號城,25.0952273,121.54574209999998,554927041
東吳大學-2,college,中正區,貴陽街一段56號,25.0388741,121.50992859999998,553726933
國立臺北教育大學,college,大安區,和平東路二段134號,25.024624399999997,121.54463740000001,553426902
國立臺北科技大學,college,大安區,忠孝東路三段1號,25.0420753,121.5382938,553826948
國立臺灣科技大學,college,大安區,基隆路四段43號,25.0132497,121.5411187,553126866
國立臺灣大學-1,college,大安區,羅斯福路四段1號,25.0152002,121.5375088,553226872
國立臺灣大學-2,college,中正區,思源街18號,25.013696399999997,121.52972079999999,553126865
國立臺灣大學-3,college,中正區,徐州路21號,25.0404822,121.5250637,553726941
實踐大學,college,中山區,大直街70號,25.083272100000002,121.54514679999998,554727027
大同大學,college,中山區,中山北路三段40號,25.066888100000003,121.5222432,554326997
國立臺北大學-1,college,中山區,民生東路三段67號 ,25.0580395,121.54238559999999,554126984
國立臺北大學-2,college,中山區,建國北路二段69號,25.0565984,121.5374116,554126980
天主教輔仁大學,college,中正區,汀州路三段58號,25.015617499999998,121.53119209999998,553226872
臺北市立大學-1,college,中正區,愛國西路1號,25.0356043,121.5142953,553626926
臺北市立大學-2,college,士林區,忠誠路二段101號,25.1161765,121.53647109999999,555427055
國立臺北商業大學,college,中正區,濟南路一段321號,25.0418977,121.52566159999999,553726944
國立臺灣戲曲學院-1,college,內湖區,內湖路二段177號,25.0812796,121.58668030000001,554627034
國立臺灣戲曲學院-1,college,文山區,木柵路三段66巷8之1號,24.9868391,121.5666841,552526778
國防醫學院,college,內湖區,民權東路六段161號,25.068539,121.5954216,554327016
康寧大學,college,內湖區,康寧路三段75巷137號,25.0758088,121.61005049999999,554527031
世新大學,college,文山區,木柵路一段17巷1號,24.9886453,121.5442068,552626780
國立政治大學,college,文山區,指南路二段64號,24.9873313,121.57612809999999,552526782
臺灣警察專科學校,college,文山區,興隆路三段153號,24.998033,121.5591642,552826818
中國科技大學,college,文山區,興隆路三段56號,24.9991431,121.5553747,552826821
國防大學,college,北投區,中央北路二段70號,25.1395051,121.4915912,555927048
國立陽明大學,college,北投區,立農街二段155號,25.119244600000002,121.5138621,555527051
國立臺北護理健康大學-1,college,北投區,明德路365號,25.117737899999998,121.52003159999998,555427052
國立臺北護理健康大學-2,college,萬華區,內江街89號,25.041755399999996,121.5033595,553726939
國立臺北藝術大學,college,北投區,學園路1號,25.1317665,121.4664379,555727043
臺北城市科技大學-1,college,北投區,學園路2號,25.133617,121.468879,555827043
臺北城市科技大學-2,college,北投區,奇岩路283號,25.1279635,121.51154009999999,555627053
臺北醫學大學-1,college,信義區,吳興街250號,25.025840600000002,121.5612122,553426909
臺北醫學大學-2,college,大安區,基隆路二段172-1號,25.0261496,121.55420579999999,553426909
中華科大,college,南港區,九如里研究院路三段245號,25.0335957,121.6098889,553626942
德明財經科技大學,college,內湖區,環山路一段56號,25.0867061,121.5652249,554727036
國立師大附中,high,大安區,和安里信義路3段143號,25.033658499999998,121.54048799999998,553626927
國立政大附中,high,文山區,政大一街353號,24.9872162,121.5858297,552526783
市立西松高中,high,松山區,鵬程里健康路325巷7號,25.0555538,121.56708200000001,554026985
市立中崙高中,high,松山區,八德路四段101號,25.0487226,121.5611946,553926968
市立松山高中,high,信義區,基隆路一段156號,25.0436062,121.56558840000001,553826957
市立永春高中,high,信義區,松隆里松山路654號,25.031257399999998,121.5802182,553526929
市立和平高中,high,大安區,芳和里臥龍街100號,25.0196224,121.54915430000001,553326888
市立中山女中,high,中山區,力行里長安東路2段141號,25.0485124,121.5372124,553926963
市立大同高中,high,中山區,中央里長春路167號,25.0549546,121.53498229999998,554026976
市立大直高中,high,中山區,劍潭里北安路420號,25.07886,121.543375,554627021
市立建國中學,high,中正區,龍光里南海路56號,25.030689199999998,121.5128107,553526912
市立成功中學,high,中正區,幸福里濟南路1段71號,25.042333499999998,121.5236872,553826945
市立北一女中,high,中正區,黎明里重慶南路1段165號,25.0385611,121.5131031,553726933
市立明倫高中,high,大同區,保安里承德路3段336號,25.076246100000002,121.5193385,554527011
市立成淵高中,high,大同區,承德路二段235號,25.061353399999998,121.5189709,554226986
市立華江高中,high,萬華區,日善里西藏路213號,25.028556899999998,121.4962369,553526903
市立大理高中,high,萬華區,綠堤里長順街2號,25.030857,121.49122849999999,553526908
市立景美女中,high,文山區,樟新里木新路3段312號,24.980731600000002,121.55618510000001,552426751
市立萬芳高中,high,文山區,興隆路3段115巷1號,25.0006248,121.5589135,552826828
市立南港高中,high,南港區,西新里向陽路21號,25.052554100000002,121.59503219999999,554026984
市立育成高中,high,南港區,重陽路366號,25.0585978,121.6093328,554127000
市立內湖高中,high,內湖區,紫陽里文德路218號,25.0784076,121.58662,554627030
市立麗山高中,high,內湖區,環山路二段100號,25.0840979,121.577832,554727036
市立南湖高中,high,內湖區,康寧路三段220號,25.066460199999998,121.61052690000001,554327015
市立陽明高中,high,士林區,後港里中正路510號,25.0918395,121.51713090000001,554927031
市立百齡高中,high,士林區,義信里承德路4段177號,25.0870504,121.5229913,554727027
市立復興高中,high,北投區,復興四路70號,25.1435907,121.50179969999999,556027049
市立中正高中,high,北投區,文林北路77號,25.104412300000003,121.516608,555127043
私立協和祐德中學,high,信義區,忠孝東路5段790巷27號,25.042601,121.58346999999999,553826959
私立延平中學,high,大安區,和安里建國南路1段275號,25.036290700000002,121.53848149999999,553626933
私立金甌女中,high,大安區,光明里杭州南路2段1號,25.034737,121.5241519,553626926
私立復興實驗高中,high,大安區,敦化南路1段262 號,25.0393604,121.5483831,553726943
私立中興中學,high,中山區,力行里朱崙街42號,25.049912399999997,121.5419125,553926967
私立大同高中,high,中山區,聚英里中山北路3段40號,25.066888100000003,121.5222432,554326997
私立強恕中學,high,中正區,板溪里汀州路二段143號,25.0250164,121.5199408,553426898
私立靜修女中,high,大同區,雙連里寧夏路59號,25.057931,121.51548659999999,554126978
私立立人高中,high,萬華區,桂林路171號,25.0388105,121.49639909999999,553726930
私立東山高中,high,文山區,老泉里老泉街26巷3號,24.9726891,121.56169809999999,552226718
私立滬江高中,high,文山區,景美里羅斯福路6段336號,24.9894876,121.53888490000001,552626782
私立大誠高中,high,文山區,萬興里秀明路2段175號,24.9910526,121.578524,552626796
私立再興中學,high,文山區,明義里興隆路4段2號,24.990413600000004,121.55916119999999,552626790
私立景文高中,high,文山區,木新里保儀路127號,24.9854798,121.5673841,552526772
私立文德女中,high,內湖區,紫陽里成功路3段70號,25.077576999999998,121.5897144,554527029
私立方濟中學,high,內湖區,紫星里成功路三段61號,25.077309399999997,121.59052959999998,554527029
私立達人女中,high,內湖區,湖濱里內湖路2段314號,25.0812531,121.58764340000002,554627034
私立泰北高中,high,士林區,福林里福林路240號,25.0973651,121.53394309999999,555027041
私立衛理女中,high,士林區,翠山里至善路2段321號,25.101757,121.55231,555127049
私立華興中學,high,士林區,芝山里仰德大道1段101號,25.104863,121.5385442,555127048
私立薇閣高中,high,北投區,中心里珠海路50號,25.139527800000003,121.5039696,555927051
私立十信高中,high,北投區,北投路二段55號,25.133392899999997,121.4968898,555827050
私立奎山實中,high,北投區,榮華里明德路200號,25.112998,121.52230279999999,555327050
市立松山家商,high,信義區,松山路655號,25.035049800000003,121.5806133,553626939
市立松山工農,high,信義區,忠孝東路5段236巷15號,25.039629,121.5721227,553726949
市立大安高工,high,大安區,龍圖里復興南路2段52號,25.031952800000003,121.54300649999999,553526923
市立木柵高工,high,文山區,萬芳里木柵路4段77號,24.995913899999998,121.5719112,552726813
市立南港高工,high,南港區,南港里興中路29號,25.056230199999998,121.6074617,554126995
市立內湖高工,high,內湖區,港墘里內湖路1段520號,25.0794174,121.5753203,554627029
市立士林高商,high,士林區,後港里士商路150號,25.0945958,121.51661090000002,554927034
私立育達家商,high,松山區,美仁里寧安街12號,25.0497049,121.554371,553926969
私立東方工商,high,大安區,信義路四段186巷8號,25.0322561,121.5514468,553526925
私立喬治工商,high,大安區,基隆路2段172號,25.026190300000003,121.5542237,553426909
私立開平餐飲,high,大安區,復興南路2段148巷24號,25.028543300000003,121.5423719,553526913
私立稻江護家,high,中山區,新生北路三段55號,25.065801999999998,121.5286327,554326996
私立開南商工,high,中正區,東門里濟南路1段6號,25.0424202,121.52182109999998,553826945
私立稻江高商,high,大同區,國昌里民權西路225巷24號,25.063848899999996,121.51212609999999,554226989
私立華岡藝校,high,士林區,建業路73巷8號,25.1371454,121.54909450000001,555927061
私立惇敘工商,high,北投區,泉源路221號,25.1448466,121.52698020000001,556027054
國立師大附中(國中部),junior,大安區,和安里信義路3段143號,25.033658499999998,121.54048799999998,553626927
國立政大附中(國中部),junior,文山區,政大一街353號,24.9872162,121.5858297,552526783
國立台灣戲曲學院(國中部),junior,內湖區,內湖路二段177號,25.0812796,121.58668030000001,554627034
市立介壽國中,junior,松山區,介壽里延壽街401號,25.056411899999997,121.5564366,554126984
市立民生國中,junior,松山區,新東里新東街30巷1號,25.059804800000002,121.5667367,554126993
市立中山國中,junior,松山區,復興北路361巷7號,25.0606072,121.54553059999999,554226990
市立敦化國中,junior,松山區,南京東路三段300號,25.0515711,121.5467135,554026972
市立興雅國中,junior,信義區,松德路168巷15號,25.0364201,121.57223700000002,553626941
市立永吉國中,junior,信義區,四育里8鄰松隆路161號,25.048236300000003,121.5741453,553926970
市立?公國中,junior,信義區,福德街221巷15號,25.037070999999997,121.58535359999999,553626945
市立信義國中,junior,信義區,松仁路158巷1號,25.0286441,121.5675767,553526919
市立仁愛國中,junior,大安區,敦安里仁愛路4段130號,25.0374832,121.5505879,553626939
市立大安國中,junior,大安區,大安路2段63號,25.0308602,121.54625,553526920
市立芳和國中,junior,大安區,芳和里臥龍街170號,25.0187502,121.55027109999999,553226886
市立金華國中,junior,大安區,福住里新生南路2段32號,25.031201199999998,121.533178,553526918
市立懷生國中,junior,大安區,忠孝東路三段248巷30號,25.040382100000002,121.54117509999999,553726944
市立民族國中,junior,大安區,羅斯福路4段113巷13號,25.0111861,121.53887379999999,553126859
市立龍門國中,junior,大安區,建國南路二段269號,25.0246733,121.5382078,553426901
市立長安國中,junior,中山區,興亞里松江路70巷11號,25.049392899999997,121.5318545,553926963
市立北安國中,junior,中山區,劍潭里明水路325號,25.0777783,121.54156780000001,554527019
市立新興國中,junior,中山區,聚葉里林森北路511號,25.061975600000004,121.52574550000001,554226988
市立五常國中,junior,中山區,下埤里復興北路430巷1號,25.0634822,121.5430996,554226995
市立濱江國中,junior,中山區,樂群二路262號,25.07955,121.5607499,554627026
市立螢橋國中,junior,中正區,林興里汀州街3段4號,25.019455899999997,121.5261508,553326883
市立古亭國中,junior,中正區,中華路2段465號,25.0246115,121.51104679999999,553426895
市立南門國中,junior,中正區,南門里廣州街6號,25.0352657,121.50906869999999,553626924
市立弘道國中,junior,中正區,公園路21號,25.0374875,121.51529340000002,553626931
市立中正國中,junior,中正區,新營里愛國東路158號,25.0323588,121.5219754,553526919
市立建成國中,junior,大同區,長安西路37之1號,25.0516475,121.51862609999999,554026965
市立忠孝國中,junior,大同區,玉泉里西寧北路32號,25.051222699999997,121.50821770000002,554026962
市立民權國中,junior,大同區,重慶北路三段1號,25.063724800000003,121.5138747,554226989
市立蘭州國中,junior,大同區,至聖里大龍街187巷1號,25.069322,121.51673559999999,554427000
市立重慶國中,junior,大同區,重慶里敦煌路19號,25.0759232,121.51799779999999,554527011
市立萬華國中,junior,萬華區,日善里西藏路201號,25.0291069,121.4988346,553526905
市立雙園國中,junior,萬華區,和德里興義街2號,25.027553899999997,121.4926457,553426899
市立龍山國中,junior,萬華區,富裕里南寧路46號,25.0360766,121.504618,553626925
市立木柵國中,junior,文山區,木柵路3段102巷12號,24.9874125,121.56764340000001,552526780
市立實踐國中,junior,文山區,樟林里辛亥路七段67號,24.9834293,121.5547688,552526761
市立北政國中,junior,文山區,指南里指南路3段2巷14號,24.9849798,121.5782554,552526773
市立景美國中,junior,文山區,景華里景中街27號,24.993026500000003,121.54294099999998,552726796
市立興福國中,junior,文山區,興旺里福興路80號,25.0048845,121.54984850000001,552926840
市立景興國中,junior,文山區,景華里景興路46巷2號,24.9961868,121.54422520000001,552726808
市立誠正國中,junior,南港區,新富里富康街1巷24號,25.054249300000002,121.6187775,554026993
市立成德國中,junior,南港區,成福里東新街108巷23號,25.044683399999997,121.58764520000001,553826965
市立內湖國中,junior,內湖區,紫陽里陽光街1號,25.077035000000002,121.5886895,554527028
市立麗山國中,junior,內湖區,內湖路1段629巷42號,25.0816165,121.5756876,554627032
市立三民國中,junior,內湖區,湖興里民權東路6段45號,25.069154,121.58640729999999,554327015
市立西湖國中,junior,內湖區,西湖里環山路1段27號,25.0851741,121.56575149999999,554727034
市立東湖國中,junior,內湖區,樂康里康樂街131號,25.072164899999997,121.61942179999998,554427027
市立明湖國中,junior,內湖區,葫洲里康寧路3段60號,25.070619600000004,121.61064309999999,554427023
市立士林國中,junior,士林區,福德里中正路345號,25.0944413,121.5226341,554927035
市立蘭雅國中,junior,士林區,三玉里忠誠路2段51號,25.110619,121.53089270000001,555327051
市立至善國中,junior,士林區,臨溪里至善路2段360號,25.1036423,121.5555425,555127051
市立格致國中,junior,士林區,陽明里仰德大道四段75號,25.130849899999998,121.54635400000001,555727061
市立福安國中,junior,士林區,福安里延平北路7段250號,25.1028546,121.4880705,555127036
市立天母國中,junior,士林區,天和里天母東路120號,25.118011,121.53816509999999,555427056
市立北投國中,junior,北投區,溫泉里溫泉路62號,25.1344493,121.504201,555827051
市立新民國中,junior,北投區,林泉里新民路10號,25.138102,121.507636,555927052
市立明德國中,junior,北投區,建民里明德路50號,25.107822100000003,121.5184451,555227046
市立桃源國中,junior,北投區,一德里中央北路4段48號,25.1346473,121.47729950000002,555827045
市立石牌國中,junior,北投區,吉利里石牌路1段139號,25.114982,121.5141732,555427049
市立關渡國中,junior,北投區,關渡里知行路212號,25.119884699999997,121.46714479999999,555527041
私立立人國際國民中小學,junior,大安區,義榮里安和路二段99號,25.0319202,121.5503507,553526924
私立靜心中學,junior,文山區,興福里興隆路2段46號,24.998920000000002,121.5466851,552826819
市立西松高中(國中部),junior,松山區,鵬程里健康路325巷7號,25.0555538,121.56708200000001,554026985
市立中崙高中(國中部),junior,松山區,八德路四段101號,25.0487226,121.5611946,553926968
市立和平高中(國中部),junior,大安區,芳和里臥龍街100號,25.0196224,121.54915430000001,553326888
市立大同高中(國中部),junior,中山區,中央里長春路167號,25.0549546,121.53498229999998,554026976
市立大直高中(國中部),junior,中山區,劍潭里北安路420號,25.07886,121.543375,554627021
市立成淵高中(國中部),junior,大同區,承德路二段235號,25.061353399999998,121.5189709,554226986
市立大理高中(國中部),junior,萬華區,綠堤里長順街2號,25.030857,121.49122849999999,553526908
市立萬芳高中(國中部),junior,文山區,興隆路3段115巷1號,25.0006248,121.5589135,552826828
市立南港高中(國中部),junior,南港區,西新里向陽路21號,25.052554100000002,121.59503219999999,554026984
市立陽明高中(國中部),junior,士林區,後港里中正路510號,25.0918395,121.51713090000001,554927031
市立百齡高中(國中部),junior,士林區,義信里承德路4段177號,25.0870504,121.5229913,554727027
私立延平中學(國中部),junior,大安區,和安里建國南路1段275號,25.036290700000002,121.53848149999999,553626933
私立復興實驗高中(國中部),junior,大安區,敦化南路1段262 號,25.0393604,121.5483831,553726943
私立靜修女中(國中部),junior,大同區,雙連里寧夏路59號,25.057931,121.51548659999999,554126978
私立立人高中(國中部),junior,萬華區,桂林路171號,25.0388105,121.49639909999999,553726930
私立東山高中(國中部),junior,文山區,老泉里老泉街26巷3號,24.9726891,121.56169809999999,552226718
私立再興中學(國中部),junior,文山區,明義里興隆路4段2號,24.990413600000004,121.55916119999999,552626790
私立景文高中(國中部),junior,文山區,木新里保儀路127號,24.9854798,121.5673841,552526772
私立方濟中學(國中部),junior,內湖區,紫星里成功路三段61號,25.077309399999997,121.59052959999998,554527029
私立達人女中(國中部),junior,內湖區,湖濱里內湖路2段314號,25.0812531,121.58764340000002,554627034
私立泰北高中(國中部),junior,士林區,福林里福林路240號,25.0973651,121.53394309999999,555027041
私立衛理女中(國中部),junior,士林區,翠山里至善路2段321號,25.101757,121.55231,555127049
私立華興中學(國中部),junior,士林區,芝山里仰德大道1段101號,25.104863,121.5385442,555127048
私立薇閣高中(國中部),junior,北投區,中心里珠海路50號,25.139527800000003,121.5039696,555927051
私立奎山實中(國中部),junior,北投區,榮華里明德路200號,25.112998,121.52230279999999,555327050
市立中山國中補校,junior,松山區,復興北路361巷7號,25.0606072,121.54553059999999,554226990
市立興雅國中補校,junior,信義區,松德路168巷15號,25.0364201,121.57223700000002,553626941
市立大安國中補校,junior,大安區,大安路2段63號,25.0308602,121.54625,553526920
市立北安國中補校,junior,中山區,劍潭里明水路325號,25.0777783,121.54156780000001,554527019
市立弘道國中補校,junior,中正區,公園路21號,25.0374875,121.51529340000002,553626931
市立民權國中補校,junior,大同區,重慶北路三段1號,25.063724800000003,121.5138747,554226989
市立萬華國中補校,junior,萬華區,日善里西藏路201號,25.0291069,121.4988346,553526905
市立木柵國中補校,junior,文山區,木柵路3段102巷12號,24.9874125,121.56764340000001,552526780
市立南港高中附國中補校,junior,南港區,西新里向陽路21號,25.052554100000002,121.59503219999999,554026984
市立內湖國中補校,junior,內湖區,陽光街一號,25.077035000000002,121.5886895,554527028
市立士林國中補校,junior,士林區,福德里中正路345號,25.0944413,121.5226341,554927035
市立北投國中補校,junior,北投區,溫泉里溫泉路62號,25.1344493,121.504201,555827051
北投分館,library,北投區,光明路251號,25.136298,121.50629599999999,555827051
稻香分館,library,北投區,稻香路81號3-4樓,25.140962,121.4888639,555927047
石牌分館,library,北投區,明德路208巷5號3-10樓,25.1131424,121.52262420000001,555327050
清江分館,library,北投區,公館路198號3樓,25.127765300000004,121.50698999999999,555627051
吉利分館,library,北投區,立農街1段366號5-8樓,25.119305999999998,121.50838490000001,555527050
永明民眾閱覽室,library,北投區,石牌路2段115號7-8樓,25.1182549,121.5175247,555427051
秀山民眾閱覽室,library,北投區,中和街534號5-9樓,25.1456025,121.4931623,556027047
葫蘆堵分館,library,士林區,延平北路5段136巷1號3-9樓,25.079190399999998,121.51054779999998,554627014
天母分館,library,士林區,中山北路7段154巷6號3-4樓,25.1236127,121.53306129999999,555627056
士林分館臨時替代館,library,士林區,基河路363號2樓,25.095829199999997,121.51829939999999,554927036
李科永紀念館,library,士林區,中正路15號,25.095748899999997,121.5285341,554927038
內湖分館,library,內湖區,民權東路6段99號6樓,25.069318799999998,121.58908629999999,554427016
東湖分館,library,內湖區,五分街6號,25.0674149,121.61261,554327018
西湖分館,library,內湖區,內湖路1段594號,25.0786852,121.57724240000002,554627028
西中分館,library,內湖區,內湖路1段285巷66號1-2樓,25.081926,121.56872299999999,554627031
松山分館,library,松山區,八德路4段688號5-8樓,25.0498733,121.57684990000001,553926974
民生分館,library,松山區,敦化北路199巷5號4-5樓,25.055615,121.550754,554026981
三民分館,library,松山區,民生東路5段163-1號5-6樓,25.059315100000003,121.56290829999999,554126991
中崙分館,library,松山區,長安東路2段229號7-10樓,25.0484893,121.5460219,553926965
啟明分館,library,松山區,敦化北路155巷76號,25.0543418,121.5514838,554026979
永春分館,library,信義區,松山路294號3-4樓,25.0430922,121.57764990000001,553826959
三興分館,library,信義區,吳興街156巷6號4-5樓,25.0290753,121.5611877,553526919
六合分館,library,信義區,松仁路240巷19號3-5樓,25.024319600000002,121.5688375,553426907
南港分館,library,南港區,市民大道8段367號2-3樓及B1,25.053731600000003,121.60795970000001,554026990
舊莊分館,library,南港區,舊莊街1段91巷11號2-5樓,25.0413277,121.6194384,553726964
龍華民眾閱覽室,library,南港區,東新街63巷8號,25.047461399999996,121.5862248,553926971
親子美育數位圖書館,library,南港區,研究院路2段61巷15號,25.0444488,121.61726750000001,553826971
北原借還書站,library,南港區,向陽路49號4樓,25.0539922,121.5944653,554026987
中山分館,library,中山區,松江路367號8樓,25.0644075,121.5334558,554226995
長安分館,library,中山區,長安西路3號4樓,25.0502099,121.52095420000002,553926963
大直分館,library,中山區,大直街25號3-5樓,25.081849899999998,121.546687,554627026
恆安民眾閱覽室,library,中山區,民權東路1段71巷19號,25.0633695,121.52719409999999,554226991
龍山分館,library,萬華區,桂林路65巷6號,25.038549300000003,121.50233870000001,553726931
東園分館,library,萬華區,東園街199號,25.022721899999997,121.4980936,553326886
西園分館,library,萬華區,興寧街6號3-6樓,25.032193300000003,121.50171850000001,553526914
萬華分館,library,萬華區,東園街19號5-7樓,25.0277033,121.49575390000001,553426900
柳鄉民眾閱覽室,library,萬華區,環河南路2段102號4樓,25.0368395,121.4955798,553626925
延平分館,library,大同區,保安街47號,25.059169100000002,121.51209209999999,554126980
大同分館,library,大同區,重慶北路3段318號,25.074263199999997,121.5132821,554527007
建成分館,library,大同區,民生西路198之20號4樓,25.0569008,121.5161366,554126976
蘭州民眾閱覽室,library,大同區,昌吉街57號4樓之6,25.066060999999998,121.51510630000001,554326994
總館,library,大安區,建國南路2段125號,25.029152,121.53836899999999,553526914
道藩分館,library,大安區,辛亥路3段11號3樓,25.021576899999996,121.544049,553326893
大安分館,library,大安區,辛亥路3段223號4-5樓,25.0160219,121.55078689999999,553226877
延吉民眾閱覽室,library,大安區,延吉街236巷17號3-4樓,25.0364085,121.55508799999998,553626937
成功民眾閱覽室,library,大安區,和平東路2段311巷29號4樓,25.0254345,121.5452719,553426905
龍安民眾閱覽室,library,大安區,永康街60號2-3樓,25.028559899999998,121.5293908,553526910
王貫英紀念館,library,中正區,汀州路2段265號,25.0226979,121.52380829999998,553326892
城中分館,library,中正區,濟南路2段46號3樓,25.0403026,121.5308428,553726942
南機場借還書站,library,中正區,中華路2段315巷16號1樓,25.0283965,121.50689640000002,553426905
景美分館,library,文山區,羅斯福路5段176巷50號2-4樓,25.003620899999998,121.53633590000001,552926833
木柵分館,library,文山區,保儀路13巷3號3-4樓,24.9885129,121.56915990000002,552626785
永建分館,library,文山區,木柵路1段177號3-4樓,24.987735999999998,121.55097409999999,552526778
萬興分館,library,文山區,萬壽路27號4-5樓,24.988685,121.57650100000001,552626787
文山分館,library,文山區,興隆路2段160號7-9樓,25.0015855,121.55141979999999,552926829
力行分館,library,文山區,一壽街22號5-8樓,24.9795779,121.55649790000001,552426746
景新分館,library,文山區,景後街151號5-10樓,24.989919399999998,121.5418973,552626784
安康民眾閱覽室,library,文山區,興隆路4段105巷1號4樓,24.987525199999997,121.56087520000001,552526779
萬芳民眾閱覽室,library,文山區,萬美街1段25號1-2樓,25.002215,121.56917800000001,552926835
公訓圖書站,library,文山區,萬美街2段21巷20號5樓,25.004576899999996,121.56103999999999,552926842
西門智慧館,library,中正區,中華路1段51-1號,25.044374899999998,121.50932590000001,553826947
松山機場智慧館,library,松山區,敦化北路338號B1,25.063717999999998,121.54964299999999,554226997
太陽圖書館,library,萬華區,青年路65號,25.0249363,121.50373789999999,553426894
百齡智慧館,library,士林區,福港街205號,25.0862066,121.51785020000001,554727025
東區地下街智慧館,library,大安區,大安路1段77號,25.0419764,121.54635390000001,553726949
福德智慧圖書館,library,信義區,福德街15號2樓,25.036241,121.579701,553626942
古亭智慧圖書館,library,中正區,寧波西街286號,25.025514899999997,121.5104977,553426897
社子島智慧圖書館,library,士林區,延平北路9段80號2樓,25.106337,121.474814,555227035
市立三玉國小,small,士林區,三玉里天母東路116號,25.117860699999998,121.5372679,555427056
市立天母國小,small,士林區,天玉里天玉街12號,25.1197914,121.5275331,555527054
市立文昌國小,small,士林區,文林路615巷20號,25.0994098,121.5212957,555027040
市立平等國小,small,士林區,平等里平菁街101號,25.129105600000003,121.57651070000001,555727067
市立社子國小,small,士林區,永倫里延平北路六段308號,25.089812300000002,121.5029481,554827026
市立社子國小補校,small,士林區,永倫里延平北路六段308號,25.089812300000002,121.5029481,554827026
市立雨農國小,small,士林區,名山里忠義街1號,25.1052602,121.52985430000001,555127047
市立雨聲國小,small,士林區,岩山里至誠路1段62巷70號,25.1026617,121.53526470000001,555127046
市立劍潭國小,small,士林區,明勝里通河街16號,25.079946600000003,121.5229841,554627018
私立華興小學,small,士林區,芝山里仰德大道1段101號,25.104863,121.5385442,555127048
市立芝山國小,small,士林區,芝山里德行東路285號,25.1102489,121.5364388,555327052
市立富安國小,small,士林區,富洲里延平北路8段135號,25.105868700000002,121.4824416,555227037
市立陽明山國小,small,士林區,新安里仰德大道3段61號,25.119332399999998,121.5528168,555527060
市立溪山國小,small,士林區,溪山里至善路3段199號,25.1196984,121.57994860000001,555527066
市立百齡國小,small,士林區,福中里福港街205號,25.0862066,121.51785020000001,554727025
市立福林國小,small,士林區,福志里福志路75號,25.0986884,121.52959650000001,555027041
市立士林國小,small,士林區,福德里大東路165號,25.0932987,121.5248831,554927035
市立雙溪國小,small,士林區,翠山里中社路2段66號,25.106487100000002,121.5647875,555227055
市立葫蘆國小,small,士林區,環河北路3段95號,25.0837421,121.50696310000001,554727019
市立士東國小,small,士林區,蘭雅里中山北路6段392號,25.1129301,121.52682800000001,555327051
市立士東國小補校,small,士林區,蘭雅里中山北路六段392號,25.1129301,121.52682800000001,555327051
市立蘭雅國小,small,士林區,蘭興里磺溪街57號,25.1084096,121.5231371,555227047
市立雙蓮國小,small,大同區,民權里錦西街51號,25.060272,121.51629709999999,554226983
市立大龍國小,small,大同區,保安里哈密街47號,25.073408999999998,121.5166925,554427006
市立大龍國小補校,small,大同區,保安里哈密街47號,25.073408999999998,121.5166925,554427006
市立太平國小,small,大同區,南芳里延平北路2段239號,25.0613756,121.5114493,554226984
市立永樂國小,small,大同區,南芳里延平北路2段266號,25.061297,121.5110848,554226984
市立永樂國小補校,small,大同區,南芳里延平北路二段266號,25.061297,121.5110848,554226984
市立日新國小,small,大同區,星明里太原路151號,25.0543892,121.51647609999999,554026971
市立蓬萊國小,small,大同區,星明里寧夏路35號,25.0563873,121.5157097,554126975
市立延平國小,small,大同區,國慶里昌吉街97號,25.0660466,121.5124544,554326993
市立大橋國小,small,大同區,隆和里重慶北路3段2號,25.0641802,121.5130462,554226990
市立大同國小,small,大同區,蓬萊里大龍街51號,25.0648624,121.51613059999998,554326992
私立復興實驗高級中學附設小學部,small,大安區,仁愛里敦化南路1段262號,25.0393604,121.5483831,553726943
市立古亭國小,small,大安區,古風里羅斯福路3段201號,25.0205827,121.52877749999999,553326887
市立幸安國小,small,大安區,民炤里仁愛路3段22號,25.037684,121.5349702,553726936
市立金華國小,small,大安區,永康里愛國東路79巷11號,25.0322766,121.52776670000002,553526920
市立大安國小,small,大安區,芳和里臥龍街129號,25.0199922,121.54911770000001,553326889
市立公館國小,small,大安區,基隆路4段41巷68弄2號,25.012407800000002,121.54280790000001,553126864
市立仁愛國小,small,大安區,敦安里安和路1段60號,25.035773199999998,121.55235,553626935
市立和平實小,small,大安區,敦南街76巷28號,25.0213639,121.54532659999998,553326893
市立新生國小,small,大安區,新生南路二段36號,25.0296747,121.53328810000001,553526914
私立立人國際國民中小學,small,大安區,義榮里安和路二段99號,25.0319202,121.5503507,553526924
市立銘傳國小,small,大安區,農場里羅斯褔路四段21號,25.0185474,121.53381929999999,553226882
私立新民小學,small,大安區,龍坡里辛亥路1段113號,25.0222236,121.53166110000001,553326892
市立龍安國小,small,大安區,龍門里新生南路3段33號,25.0239215,121.53488540000001,553326898
國立臺北教大實小,small,大安區,龍淵里和平東路2段94號,25.025042499999998,121.54094599999999,553426903
市立建安國小,small,大安區,龍雲里大安路2段99號,25.0293967,121.54617009999998,553526916
市立建安國小補校,small,大安區,龍雲里大安路2段99號,25.0293967,121.54617009999998,553526916
市立中正國小,small,中山區,力行里龍江路62號,25.05049,121.54007250000001,553926968
市立五常國小,small,中山區,下埤里五常街16號,25.0641393,121.5422023,554226996
市立大佳國小,small,中山區,大佳里6鄰濱江街107號,25.073322199999996,121.5364107,554427011
市立大直國小,small,中山區,大直里大直街2號,25.0805666,121.54640400000001,554627024
市立長春國小,small,中山區,中央里長春路165號,25.0549363,121.5339007,554026976
市立吉林國小,small,中山區,中原里長春路116號,25.054651999999997,121.529321,554026974
市立永安國小,small,中山區,明水路397巷19弄1號,25.078776100000002,121.5494063,554627022
市立中山國小,small,中山區,恆安里民權東路1段69號,25.0630518,121.52641440000001,554226990
市立中山國小補校,small,中山區,恆安里民權東路1段69號,25.0630518,121.52641440000001,554226990
市立懷生國小,small,中山區,埤頭里安東街16巷2號,25.045240399999997,121.5417844,553826956
市立濱江國小,small,中山區,樂群二路266巷99號,25.078001399999998,121.5616369,554527023
市立長安國小,small,中山區,興亞里吉林路15號,25.0497694,121.5301634,553926964
市立忠義國小,small,中正區,中華路二段307巷17號,25.029699700000002,121.50618689999999,553526908
市立河堤國小,small,中正區,汀州路二段180號,25.023323100000002,121.52260890000001,553326893
市立河堤國小補校,small,中正區,汀州路二段180號,25.023323100000002,121.52260890000001,553326893
市立東門國小,small,中正區,東門里仁愛路一段2-4號,25.0386417,121.5208757,553726935
市立南門國小,small,中正區,南門里廣州街6號,25.0352657,121.50906869999999,553626924
市立忠孝國小,small,中正區,梅花里忠孝東路2段101號,25.042926899999998,121.5315325,553826948
市立大學附小,small,中正區,黎明里公園路29號,25.044383399999997,121.51704140000001,553826949
市立螢橋國小,small,中正區,螢雪里詔安街29號,25.0250745,121.51433200000001,553426897
市立國語實小,small,中正區,龍光里南海路58號,25.0307489,121.51059029999999,553526912
市立大湖國小,small,內湖區,大湖里大湖山莊街170號,25.0881707,121.6005499,554827046
市立碧湖國小,small,內湖區,內湖里金龍路100號,25.0853115,121.59111029999998,554727040
市立潭美國小,small,內湖區,石潭里新明路22號,25.0602709,121.5904814,554226999
市立文湖國小,small,內湖區,西康里文湖街15號,25.085770999999998,121.56012240000001,554727034
市立西湖國小,small,內湖區,西湖里環山路1段25號,25.0838299,121.56569950000001,554727033
市立東湖國小,small,內湖區,東湖里東湖路115號,25.069159699999997,121.61606780000001,554327021
市立明湖國小,small,內湖區,東湖里康寧路3段105號,25.0713228,121.61076100000001,554427024
市立麗湖國小,small,內湖區,金湖路363巷8號,25.072992000000003,121.601146,554427024
市立康寧國小,small,內湖區,清白里星雲街121號,25.0800801,121.59494850000002,554627034
市立麗山國小,small,內湖區,港都里港華街100號,25.0836791,121.5724649,554727034
市立內湖國小補校,small,內湖區,港富里內湖路2段41號,25.079203699999997,121.58025020000001,554627029
市立內湖國小,small,內湖區,港富里內湖路二段41號,25.079203699999997,121.58025020000001,554627029
市立新湖國小,small,內湖區,湖興里民權東路6段138號,25.0682258,121.5885493,554327014
市立南湖國小,small,內湖區,葫洲里康寧路3段200號,25.068071300000003,121.6118874,554327019
國立台灣戲曲學院(國小部),small,內湖路,二段177號,25.0812796,121.58668030000001,554627034
市立木柵國小,small,文山區,木柵里木柵路3段191號,24.9902695,121.5701489,552626792
市立木柵國小補校,small,文山區,木柵里木柵路3段191號,24.9902695,121.5701489,552626792
私立中山小學,small,文山區,木柵路1段292號,24.9883007,121.55632790000001,552626781
市立博嘉國小,small,文山區,木柵路4段159巷14-1號,25.001763699999998,121.5758197,552926835
私立再興小學,small,文山區,明義里興隆路4段2號,24.990413600000004,121.55916119999999,552626790
市立明道國小,small,文山區,明興里木柵路2段138巷61號,24.98885,121.56051200000002,552626784
國立政大實小,small,文山區,指南路三段12號,24.9846444,121.57985020000001,552526772
市立指南國小,small,文山區,指南路三段38巷5-2號,24.976394199999998,121.58363529999998,552326739
市立志清國小,small,文山區,景仁里景福街21巷5號,24.9986645,121.53890759999999,552826816
市立景美國小,small,文山區,景行里景文街108號,24.9895266,121.5407811,552626782
市立溪口國小,small,文山區,景慶里景福街225號,24.99413,121.53875740000001,552726799
市立永建國小,small,文山區,華興里試院路2號,24.9875796,121.5500432,552526777
市立萬芳國小,small,文山區,萬芳里萬和街1號,25.001393399999998,121.56761110000001,552926832
市立武功國小,small,文山區,萬祥里興隆路1段68號,25.003888699999997,121.54049270000002,552926835
市立萬興國小,small,文山區,萬興里秀明路2段114號,24.9904294,121.57659270000002,552626794
市立實踐國小,small,文山區,樟文里忠順街1段4號,24.983927899999998,121.5582463,552526764
市立力行國小,small,文山區,樟腳里木新路3段155巷7號,24.980969100000003,121.56116180000001,552426753
市立興華國小,small,文山區,興光里興隆路3段125巷6號,24.9988344,121.55872179999999,552826821
市立景興國小,small,文山區,興安里景華街150巷21號,24.9964339,121.5482935,552726810
市立興德國小,small,文山區,興邦里興隆路2段235號,25.001622199999996,121.5507703,552926829
市立辛亥國小,small,文山區,興昌里辛亥路4段103號,25.006429500000003,121.5592422,553026848
市立興隆國小,small,文山區,興望里福興路2號,25.002501000000002,121.5519018,552926833
私立靜心小學,small,文山區,興福里興隆路2段46號,24.998920000000002,121.5466851,552826819
市立萬福國小,small,文山區,羅斯福5段170巷32號,25.0048928,121.53671240000001,552926838
市立關渡國小,small,北投區,一德里中央北路4段581號,25.1264283,121.46622009999999,555627042
市立大屯國小,small,北投區,大屯里復興三路312號,25.154895,121.503983,556227045
市立逸仙國小,small,北投區,中心里新民路2號,25.138371600000003,121.5051631,555927051
市立桃源國小,small,北投區,中央北路3段40巷45號,25.139704899999998,121.4844614,555927046
市立文化國小,small,北投區,文化里文化三路1號,25.1371562,121.4965074,555927049
市立立農國小,small,北投區,立農里立農街1段250號,25.119493,121.505032,555527049
市立石牌國小,small,北投區,吉利里致遠二路80號,25.1157861,121.5117371,555427049
市立清江國小,small,北投區,奇岩里公館路220號,25.1269568,121.50766340000001,555627052
市立北投國小,small,北投區,長安里中央北路1段73號,25.134149100000002,121.5002233,555827050
市立北投國小補校,small,北投區,長安里中央北路1段73號,25.134149100000002,121.5002233,555827050
私立薇閣小學,small,北投區,長安里育仁路106號,25.136058,121.50088000000001,555827050
市立文林國小,small,北投區,建民里文林北路155號,25.1059048,121.5147443,555227044
市立泉源國小,small,北投區,泉源里東昇路34號,25.1493002,121.5244264,556127052
市立義方國小,small,北投區,珠海路155號,25.1419691,121.5092915,556027051
市立湖山國小,small,北投區,湖山里湖底路11號,25.1496532,121.535435,556127054
市立湖田國小,small,北投區,湖田里竹子湖路17之2號,25.1684294,121.53877140000002,556527042
市立明德國小,small,北投區,榮華里明德路190號,25.1122284,121.521827,555327049
私立奎山實中附小,small,北投區,榮華里明德路200號,25.112998,121.52230279999999,555327050
市立松山國小,small,松山區,八德路四段746號,25.0504899,121.5776879,553926976
市立敦化國小,small,松山區,中正里敦化北路2號,25.0491037,121.54853059999999,553926966
市立民族國小,small,松山區,民生東路4段97巷7號,25.0595939,121.5517182,554126989
市立民權國小,small,松山區,民權東路四段200號,25.0623873,121.5623038,554226997
市立健康國小,small,松山區,延壽街168號,25.0566674,121.56278459999999,554126986
市立西松國小,small,松山區,東光里三民路5號,25.052301800000002,121.56348759999999,554026977
市立西松國小補校,small,松山區,東光里三民路5號,25.052301800000002,121.56348759999999,554026977
市立三民國小,small,松山區,莊敬里民權東路五段1號,25.0631782,121.56428570000001,554226999
市立民生國小,small,松山區,敦化北路199巷18號,25.0565153,121.5521795,554126983
市立福德國小,small,信義區,中行里褔德街253號,25.0388994,121.58650349999999,553726950
市立永春國小,small,信義區,永春里松山路225巷48號,25.0446527,121.57907920000001,553826963
市立永春國小補校,small,信義區,永春里松山路225巷48號,25.0446527,121.57907920000001,553826963
市立永吉國小,small,信義區,永春里松山路287巷5號,25.043008800000003,121.57988529999999,553826959
市立光復國小,small,信義區,光復南路271號,25.0402704,121.5578527,553726948
市立吳興國小,small,信義區,松仁路226號,25.025743300000002,121.568716,553426911
市立吳興國小補校,small,信義區,松仁路226號,25.025743300000002,121.568716,553426911
市立博愛國小,small,信義區,松仁路22鄰95巷20號,25.036362,121.57044499999999,553626940
市立信義國小,small,信義區,松勤街60號,25.0319243,121.5633121,553526927
市立三興國小,small,信義區,景聯里基隆路2段99號,25.029467,121.55826699999999,553526919
市立興雅國小,small,信義區,雅祥里基隆路1段83巷9號,25.046751,121.5700216,553926966
市立南港國小,small,南港區,三重里惠民街67號,25.0571633,121.6103835,554126998
市立南港國小補校,small,南港區,三重里惠民街67號,25.0571633,121.6103835,554126998
市立胡適國小,small,南港區,中研里舊莊街1段1號,25.042389399999998,121.61723459999999,553826966
市立玉成國小,small,南港區,西新里向陽路31號,25.0535818,121.5947692,554026987
市立東新國小,small,南港區,東新里興南街62號,25.055459399999997,121.6022189,554026992
市立修德國小,small,南港區,東新街118巷86號,25.045456100000003,121.58964329999999,553826967
市立成德國小,small,南港區,聯成里東新街65號,25.0470902,121.58687250000001,553926970
市立舊莊國小,small,南港區,舊莊里舊莊街1段100號,25.040244899999998,121.61953899999999,553726961
市立西園國小,small,萬華區,日善里東園街73巷65號,25.0271068,121.4982517,553426899
市立東園國小,small,萬華區,全德里東園街195號,25.023163,121.4978675,553326888
市立萬大國小,small,萬華區,全德里萬大路346號,25.022928699999998,121.499329,553326887
市立西門國小,small,萬華區,西門里成都路98號,25.043172,121.5035971,553826943
市立新和國小,small,萬華區,西藏路125巷31號,25.0259828,121.5033372,553426897
市立龍山國小,small,萬華區,青山里和平西路三段235號,25.035415,121.49590330000001,553626921
私立光仁小學,small,萬華區,壽德里萬大路423巷15號,25.0214164,121.4995713,553326883
市立福星國小,small,萬華區,福星里中華路一段66號,25.0467829,121.50890509999999,553926952
市立老松國小,small,萬華區,福音里桂林路64號,25.038045999999998,121.502725,553726930
市立老松國小補校,small,萬華區,福音里桂林路64號,25.038045999999998,121.502725,553726930
市立大理國小,small,萬華區,綠堤里艋舺大道389號,25.031156699999997,121.49305840000001,553526909
市立華江國小,small,萬華區,環河南路2段250巷42弄2號,25.034069100000004,121.4911815,553626917
市立雙園國小,small,萬華區,雙園里莒光路315號,25.030818300000004,121.4985878,553526910
市立雙園國小補校,small,萬華區,雙園里莒光路315號,25.030818300000004,121.4985878,553526910
市立啟聰學校,special,大同區,重慶北路三段320號?,25.0753508,121.51355339999999,554527009
市立啟智學校,special,士林區,忠誠路二段207巷3號?,25.1166288,121.5362497,555427055
市立啟明學校,special,士林區,忠誠路二段207巷1號?,25.1166437,121.5350165,555427055
市立文山特殊教育學校,special,文山區,秀明路一段169號?,24.99154,121.567807,552626796
