name,shopType,district,status,address,lat,lon,number,state_code
順達汽車材料行,hardware,大同區,核准設立,南京西路64巷24弄5號,25.0512902,121.5181977,1130298,554026965
昆成工具行,hardware,大同區,核准設立,哈密街59巷38弄31號3樓,25.075094,121.5149113,1131515,554527009
欣工電能工程行,hardware,內湖區,核准設立,內湖路3段60巷6號,25.0865509,121.592065,1217816,554727042
利榮五金行,hardware,北投區,核准設立,自強街5巷71號1樓,25.1112651,121.5118635,1383048,555327047
億勝工程行,hardware,信義區,核准設立,永吉路326巷23號1樓,25.044273,121.575561,1604443,553826961
立德機械五金行,hardware,內湖區,核准設立,新明路125號(1樓),25.0594412,121.5898063,1638083,554126998
榮泰輪胎五金行,hardware,南港區,核准設立,研究院路1段153號1樓,25.0506762,121.6157798,1662885,553926985
明泉水電工程行,hardware,文山區,核准設立,指南路3段29號1樓,24.9847455,121.5803813,1711767,552526772
全慶五金電料行,hardware,大同區,核准設立,環河北路2段223巷14號,25.0699624,121.5100956,1961217,554426999
劉建成五金店,hardware,中正區,核准設立,市民大道3段8號4樓417、418室,25.0450357,121.5319312,3573500,553826953
金振發五金電器行,hardware,中正區,核准設立,紹興南街4之11號,25.0434253,121.5246874,4236844,553826948
建成工具行,hardware,大同區,核准設立,重慶北路1段100號1樓,25.0528531,121.51564609999998,4518512,554026967
勝隆水電行,hardware,內湖區,核准設立,金龍路53號1樓,25.0849681,121.593465,4775722,554727040
台源五金行,hardware,中正區,核准設立,環河南路1段河濱商場135號1樓,25.0474492,121.5046554,5149993,553926953
裕祥裝潢材料行,hardware,文山區,核准設立,羅斯福路6段149號1樓,24.9974993,121.5409748,5502565,552826812
川禾電氣五金行,hardware,中正區,核准設立,市民大道3段8號光華數位新天地商場4樓032、033、034、035號店鋪,25.0450021,121.5321956,5721978,553826953
萬佳五金行,hardware,大同區,核准設立,敦煌路66號1樓,25.075530800000006,121.5184753,7639172,554527010
宏昇工程行,hardware,內湖區,核准設立,安泰街125巷28號1樓,25.077269,121.6173215,8603736,554527035
造鴻工程行,hardware,內湖區,核准設立,內湖路1段205號,25.0835034,121.5635644,9606182,554727032
君誠水電行,hardware,大安區,核准設立,大安路2段130號,25.029988,121.5458911,10304930,553526918
華晉橡膠五金行,hardware,萬華區,核准設立,環河南路1段133號,25.0425403,121.5005638,10311593,553826940
旭鴻工程行,hardware,文山區,核准設立,興隆路1段171號,25.0013864,121.5428095,10312191,552926827
宇林五金行,hardware,內湖區,核准設立,民權東路6段86號,25.0687183,121.5858097,10331964,554327014
上好廣告工程行,hardware,大同區,核准設立,哈密街63巷16號,25.073862,121.5152346,10338967,554527007
詠順工程行,hardware,士林區,核准設立,延平北路6段30號,25.0875044,121.5091532,10345377,554827025
三儀電子材料行,hardware,中正區,核准設立,市民大道3段8號光華數位新天地商場4樓48號店鋪,25.0450021,121.5321956,10348233,553826953
巨揚水電行,hardware,信義區,核准設立,吳興街470號,25.023675,121.5691084,10387988,553326905
金鈴服裝材料行,hardware,大同區,核准設立,延平北路2段35號5樓,25.0621612,121.5100305,10664723,554226985
正昌五金行,hardware,大同區,核准設立,華陰街201號1樓,25.0504949,121.514643,11187002,553926962
泰發水電行,hardware,中山區,核准設立,南京東路2段174號11樓,25.0517526,121.5349476,11571408,554026969
龍江五金建材行,hardware,中山區,核准設立,龍江路200之3號,25.0574522,121.5404507,12403020,554126983
家源水電冷氣行,hardware,大安區,核准設立,大安路1段51巷17號1樓,25.0432388,121.5469476,13445435,553826952
久榮電機五金行,hardware,中山區,核准設立,新生北路2段147號1樓,25.0618202,121.527957,13448475,554226988
瑞泰工程行,hardware,信義區,核准設立,永吉路225巷5弄3號,25.046486,121.574404,13452511,553826966
佳福五金行,hardware,萬華區,核准設立,環河南路1段24號1樓,25.0482773,121.50569009999998,13464642,553926955
元威工程行,hardware,內湖區,核准設立,安美街165號7樓,25.0600573,121.6003345,13471566,554127001
弘龍工程行,hardware,內湖區,核准設立,內湖路3段60巷6號,25.0865509,121.592065,13476886,554727042
正林五金行,hardware,萬華區,核准設立,環河南路1段338號1樓,25.040517,121.498416,13824674,553726935
東昱五金工具行,hardware,松山區,核准設立,八德路4段604之24號1樓,25.0497009,121.5727809,13838207,553926973
久鑫五金行,hardware,中山區,核准設立,四平街76號1樓,25.0535575,121.5340348,13849014,554026973
全聖五金行,hardware,南港區,核准設立,南港路1段197號,25.0551276,121.6118782,13859862,554026994
理盛工程行,hardware,文山區,核准設立,興隆路4段29巷4弄10號3樓,24.9903749,121.5602805,14315277,552626790
友善工程行,hardware,中正區,核准設立,汀州路3段19號1樓,25.020084,121.526346,14325090,553326885
國泰五金行,hardware,信義區,核准設立,永吉路278巷8號1樓,25.044824,121.574112,14325107,553826962
五佰元裝潢五金行,hardware,松山區,核准設立,五常街271號1樓,25.064411,121.544893,14331656,554226997
春達建築五金行,hardware,信義區,核准設立,忠孝東路5段790巷68弄11號,25.0404805,121.5830526,14340851,553726954
友舜工程行,hardware,士林區,核准設立,社正路45巷29弄5號2樓,25.0901972,121.509382,14743209,554827028
宏太工程行,hardware,北投區,核准設立,大度路3段301巷128弄2之1號4樓,25.1201659,121.465527,14882406,555527040
南方工具行,hardware,萬華區,核准設立,貴陽街2段83號1樓,25.0398798,121.5038971,15246002,553726935
萬華五金鐵材行,hardware,萬華區,核准設立,莒光路116號1樓,25.0313918,121.5036155,15416408,553526912
威盛鐵門窗工程行,hardware,士林區,核准設立,通河西街2段145號3樓,25.0931313,121.5054534,15640412,554927030
翰興五金商行,hardware,北投區,核准設立,中央南路1段19號,25.1327162,121.5015167,15645916,555827051
全盛五金行,hardware,萬華區,核准設立,西園路2段261巷46弄4號3樓,25.024035,121.493428,15652227,553426889
大盛五金電動工具行,hardware,松山區,核准設立,八德路4段294號1樓,25.0489872,121.5670712,15653443,553926970
金原五金行,hardware,萬華區,核准設立,西藏路261之2號1樓,25.0284698,121.493769,15946650,553426902
奇美五金行,hardware,萬華區,核准設立,貴陽街2段1之5號1樓,25.039424,121.5067507,15949050,553726934
鑫鎂設計室內裝修工程行,hardware,信義區,核准設立,基隆路1段143號6樓之7,25.042894600000004,121.5657582,17084974,553826956
興曄工程行,hardware,信義區,核准設立,吳興街583巷159號1樓,25.019946,121.571063,17090639,553326894
輝耀空調水電工程行,hardware,萬華區,核准設立,永福街69號5樓,25.0387036,121.5032487,17256949,553726931
欣鼎祥五金行,hardware,萬華區,核准設立,環河南路1段80號1樓,25.0471598,121.50422890000002,17521216,553926952
復林工程行,hardware,中山區,核准設立,長安東路1段42號5樓,25.048383,121.5270758,17523306,553926960
東昇華福五金行,hardware,萬華區,核准設立,康定路143號,25.0386931,121.5019682,17524332,553726931
昌運工程行,hardware,大安區,核准設立,安居街84巷14號,25.0197652,121.5524609,17526198,553326889
三葉五金行,hardware,大同區,核准設立,重慶北路3段120巷59號1樓,25.0672982,121.5118909,17550133,554326995
俊明五金行,hardware,大同區,核准設立,重慶北路3段257巷2號1樓,25.0716637,121.5141806,17738762,554427003
王維水電冷氣工程行,hardware,大同區,核准設立,重慶北路3段152巷12號1樓,25.0680246,121.5129988,17743940,554326997
美實固五金水電材料行,hardware,北投區,核准設立,中央北路2段58號1樓,25.137261,121.494982,17757872,555927049
金聲五金行,hardware,大同區,核准設立,重慶北路1段37號1樓,25.05187,121.5145515,17758318,554026965
聯展五金商行,hardware,大安區,核准設立,復興南路2段151巷6之1號1樓,25.028296,121.5442832,17764212,553426913
切貨五金行,hardware,士林區,核准設立,大南路92號1樓,25.0895449,121.524358,17767983,554827030
友信建材五金行,hardware,大安區,核准設立,泰順街44巷1號1樓,25.023688,121.5312,17770988,553326896
建中五金行,hardware,信義區,核准設立,吳興街220巷77號1樓,25.026061,121.560749,17774324,553426910
新涵五金行,hardware,內湖區,核准設立,成功路2段316號,25.0673424,121.5904584,17806043,554327013
貿順工程行,hardware,萬華區,核准設立,萬大路550號2樓,25.018408,121.496398,17818343,553226873
峰源水電行,hardware,士林區,核准設立,德行東路190巷2弄2號1樓,25.1083731,121.5310631,18103817,555227049
億隆家庭五金行,hardware,信義區,核准設立,松山路541巷8號,25.0376989,121.57851399999998,18375373,553726946
漢昌鋼鋁工程行,hardware,北投區,核准設立,西安街2段195號1樓,25.1198679,121.51023229999998,18387357,555527050
長春五金行,hardware,大同區,核准設立,太原路97巷1號1樓,25.05219,121.516074,18408521,554026966
加新五金行,hardware,文山區,核准設立,木柵路1段66之8號,24.986781,121.547736,19526434,552526773
武昌水電行,hardware,松山區,核准設立,南京東路5段123巷4弄5號,25.0526402,121.5612028,20578254,554026977
大進汽車材料行,hardware,信義區,核准設立,松隆路23號1樓,25.044089000000003,121.567512,20754759,553826959
百泰水電五金材料行,hardware,信義區,核准設立,吳興街549號,25.0228433,121.5696161,20900177,553326902
大民水電冷氣行,hardware,信義區,核准設立,文昌街310號1樓,25.0320843,121.5576895,20953069,553526926
來來五金行,hardware,松山區,核准設立,基隆路1段1號,25.0500914,121.5700134,20964896,553926973
上順五金行,hardware,信義區,核准設立,永吉路189之2號1樓,25.045779,121.5728831,20996840,553826964
久保家具材料行,hardware,士林區,核准設立,永平街80巷39號1樓,25.0915291,121.506402,21740754,554827029
大都會工程行,hardware,萬華區,核准設立,中華路2段150巷15號1樓,25.0302975,121.5035338,21762341,553526909
閤慶水電行,hardware,內湖區,核准設立,江南街65巷49號1樓,25.0764536,121.5789183,21778152,554527025
建榮工程行,hardware,中山區,核准設立,龍江路318巷29號2樓,25.064886,121.538896,21899424,554326997
泓勝工程行,hardware,內湖區,核准設立,成功路4段41巷7弄1號,25.0808139,121.59218,25513695,554627034
大正油漆工程行,hardware,士林區,核准設立,承德路4段6巷91號,25.0804329,121.518626,25524588,554627017
久益五金行,hardware,萬華區,核准設立,富民路145巷38號,25.01879,121.500986,25532026,553226875
富裕五金行,hardware,萬華區,核准設立,環河南路1段42號21號攤位,25.0341019,121.493284,25538540,553626917
優異安控工程行,hardware,中正區,核准設立,羅斯福路3段100之101號,25.021174,121.527214,25540829,553326888
奉龍聖起裝潢工程行,hardware,中山區,核准設立,(南)中原街91號,25.0596635,121.52899920000002,25541192,554126985
銘彥五金企業社,hardware,萬華區,核准設立,西藏路180號,25.0300084,121.5030854,25548483,553526908
紘華工程行,hardware,北投區,核准設立,中央北路4段142巷2之1號2樓,25.1335687,121.4757303,25554463,555827045
景華五金百貨行,hardware,文山區,核准設立,景華街222號,24.9992582,121.5475475,25555717,552826820
聖諭工程行,hardware,南港區,核准設立,南港路3段130巷5弄12號,25.0537259,121.58705159999998,25556808,554026985
龍鈦五金行,hardware,松山區,核准設立,八德路4段481號,25.049912,121.5720611,25557124,553926974
上豪五金生活百貨館,hardware,士林區,核准設立,華榮街79號,25.0967533,121.5232703,25557356,555027038
星昇機電保養工程行,hardware,士林區,核准設立,社正路45巷10號1樓,25.0896281,121.50971,25565010,554827027
名家水電行,hardware,萬華區,核准設立,青年路68巷16號1樓,25.0233986,121.5021592,25567592,553326889
晨達橡膠五金行,hardware,萬華區,核准設立,開封街2段12號3樓之1,25.046055,121.508731,25573665,553826951
佳隆水電工程行,hardware,文山區,核准設立,辛亥路4段166巷17號,25.0047183,121.5557489,25574257,552926841
僑富工程行,hardware,中山區,核准設立,中原街9號,25.0554366,121.5289087,25580167,554026976
大台北五金行,hardware,松山區,核准設立,八德路4段435號1樓,25.0498688,121.5702264,25583328,553926973
翊筌鋁窗材料行,hardware,北投區,核准設立,中和街441巷1弄1號,25.143894600000007,121.4975353,25661652,556027048
柏億工程行,hardware,中山區,核准設立,長安東路2段246號7樓之5,25.048105,121.5431755,26207370,553926963
廣詮工程行,hardware,文山區,核准設立,興隆路2段194號3樓,25.0013739,121.551843,26215028,552926829
盛庭工程行,hardware,中山區,核准設立,松江路318號13樓,25.060655800000006,121.532867,26215625,554226987
富鈞水電行,hardware,大同區,核准設立,重慶北路3段69號,25.0663013,121.5139462,26218974,554326994
三助水電行,hardware,中山區,核准設立,新生北路2段77巷6號,25.0567591,121.528466,26224315,554126979
大金冷氣材料行,hardware,文山區,核准設立,辛亥路7段51號,24.9846837,121.5544403,26228804,552526766
力豪工程行,hardware,北投區,核准設立,新市街24巷51之1號3樓,25.1312796,121.5032822,26231982,555727051
旭豐工程行,hardware,大安區,核准設立,忠孝東路4段295號3樓,25.041724,121.555095,26236852,553726951
何苡工程行,hardware,文山區,核准設立,景興路63號3樓,24.9964527,121.5448585,26242475,552726809
極翔發照明工程行,hardware,北投區,核准設立,行義路23巷3號2樓,25.125247,121.526419,26246280,555627055
久康科技工程行,hardware,大安區,核准設立,忠孝東路4段169號11樓之1,25.0417054,121.5503665,26246654,553726949
世佳工程行,hardware,大同區,核准設立,承德路2段193號10樓之5,25.0593384,121.5184248,26247056,554126982
越峰工程行,hardware,中山區,核准設立,渭水路54號,25.0455836,121.5350694,26251375,553826955
金鼎工程行,hardware,大同區,核准設立,昌吉街121號,25.065996,121.510678,26252521,554326992
常勝水電材料行,hardware,大同區,核准設立,大龍街58號,25.0651005,121.5159574,26257194,554326992
寶翔工程行,hardware,中山區,核准設立,南京東路3段189號10樓,25.0520942,121.5421843,26338730,554026972
鼎曜工程行,hardware,松山區,核准設立,南京東路5段296號10樓,25.051112,121.567412,26340222,554026975
東新水電行,hardware,南港區,核准設立,東新街10之10號4樓之1,25.0498773,121.583458,26343781,553926976
宏德興業工程行,hardware,中山區,核准設立,南京東路1段86號8樓之4,25.0518622,121.5256117,26344310,554026968
宇盛冷氣材料行,hardware,北投區,核准設立,崇仁路1段18號,25.127713,121.501216,26347858,555627050
技美汽車電機材料商行,hardware,萬華區,核准設立,西藏路350號1樓,25.0295013,121.49934609999998,26349960,553526906
三發五金行,hardware,內湖區,核准設立,康樂街72巷17弄44號1樓,25.0703725,121.6171212,26353725,554427024
瑞遠工程行,hardware,文山區,核准設立,辛亥路7段15號,24.9868809,121.553029,26367690,552526775
星榮電料五金行,hardware,大同區,核准設立,承德路3段8巷18號4樓,25.0636574,121.5165737,26373047,554226989
鏵鑫五金行,hardware,內湖區,核准設立,成功路2段181號1樓,25.0655629,121.589941,27172639,554327009
順有五金行,hardware,北投區,核准設立,尊賢路258號,25.1172464,121.50715859999998,27174186,555427049
鴻錡鋼鋁工程行,hardware,中正區,核准設立,汀州路2段78號1樓,25.0250599,121.5187313,27183544,553426898
天福水電?飾廚具行,hardware,內湖區,核准設立,康樂街72巷17弄96號1樓,25.0708145,121.6165585,27184001,554427024
安西小五金加工行,hardware,大同區,核准設立,環河北路1段389號,25.061397,121.508657,27184608,554226983
永德五金行,hardware,萬華區,核准設立,康定路218號1樓,25.0382033,121.501621,27188549,553726930
和興工程行,hardware,信義區,核准設立,松隆路167號10樓,25.048288,121.574219,29220329,553926970
伯豐汽車材料行,hardware,大同區,核准設立,承德路2段53巷33號1樓,25.0553789,121.5194709,29246910,554026974
幸安五金建材行,hardware,大安區,核准設立,忠孝東路3段217巷4弄1之1號1樓,25.0432757,121.539588,30985287,553826951
鴻達五金行,hardware,北投區,核准設立,尊賢街249巷30號1樓,25.117207,121.505293,31175692,555427048
昇煜五金行,hardware,士林區,核准設立,通河西街2段111號1樓,25.093661,121.500561,31346133,554927030
順盈工程行,hardware,內湖區,核准設立,麗山街46巷8之1號,25.080691100000006,121.5800477,31454293,554627031
鑫采工程行,hardware,萬華區,核准設立,昆明街201巷8號1樓,25.0389406,121.504491,31580171,553726932
雲台山工程行,hardware,文山區,核准設立,木新路2段79巷6弄11號3樓,24.984496,121.570755,31842772,552526769
譓矷工程行,hardware,信義區,核准設立,忠孝東路5段372巷27弄8號3樓,25.0393919,121.574215,31849199,553726949
政統資訊工程行,hardware,士林區,核准設立,中正路653號5樓,25.0859669,121.5078402,31855115,554727022
詠鈞工程行,hardware,文山區,核准設立,興隆路4段49之10號2樓,24.9899504,121.5597967,31855207,552626788
藝順工程行,hardware,大安區,核准設立,和平東路3段228巷24號4樓之1,25.0218343,121.5540737,31861783,553326896
宅修繕工程行,hardware,大同區,核准設立,萬全街11號1樓,25.0586655,121.5197687,31863641,554126980
偉懋家電材料行,hardware,松山區,核准設立,民生東路5段272號1樓,25.059052,121.5677408,31865227,554126992
威竑工程行,hardware,內湖區,核准設立,安康路434巷36號5樓,25.066453,121.6160455,31871348,554327017
一嘉空調工程行,hardware,南港區,核准設立,市民大道8段532號,25.0539051,121.613364,31871641,554026991
智勝壁紙材料行,hardware,大安區,核准設立,溫州街12巷24弄1號1樓,25.025631,121.531799,31872141,553426902
洪文灝工程行,hardware,士林區,核准設立,葫東街40號1樓,25.0836577,121.5114572,31874345,554727020
名耀室內裝修工程行,hardware,萬華區,核准設立,環河南路2段100巷5號5樓,25.037188,121.4949814,31952881,553626926
詠成五金行,hardware,松山區,核准設立,延壽街364號,25.0563507,121.5586295,31956681,554126984
正裕保溫工程行,hardware,中山區,核准設立,建國北路三段175號3樓,25.0679634,121.534012,31963677,554327001
弘展水電行,hardware,北投區,核准設立,中央北路4段330號,25.1306676,121.4722379,31966392,555727044
國豐五金行,hardware,萬華區,核准設立,環河南路1段162號（河濱商場攤位第81號）,25.0341019,121.493284,36541120,553626917
鼎紳工程行,hardware,大同區,核准設立,仁愛路3段9號地下1層,25.0394344,121.5419962,38457984,553726942
長和工程行,hardware,中山區,核准設立,長安東路1段27號9樓之1,25.0493881,121.5242679,38473838,553926962
靖勝五金行,hardware,大同區,核准設立,太原路50之2號3樓,25.0509327,121.5152668,38474338,553926963
騰翔工程行,hardware,士林區,核准設立,天母西路3號8樓之16,25.1185873,121.5292979,38475168,555427054
弘全工程行,hardware,內湖區,核准設立,新明路426巷7號,25.0553741,121.5793553,38497445,554026987
士全五金行,hardware,中山區,核准設立,長安東路1段23之6號,25.0494821,121.523794,38498774,553926962
頂尖環保工程行,hardware,萬華區,核准設立,環河南路3段257號1樓,25.019861,121.493108,38499957,553326877
吉連興工程行,hardware,萬華區,核准設立,東園街28巷30號,25.026872,121.495241,38500336,553426898
利多環保工程行,hardware,松山區,核准設立,南京東路4段130號2樓之1,25.0513964,121.555721,38500737,554026973
石神工程行,hardware,萬華區,核准設立,昆明街46號7樓之47,25.0464563,121.5055677,38501905,553826951
名喬工程行,hardware,大同區,核准設立,酒泉街246巷6號3樓,25.0717959,121.5095351,38504972,554427002
?奕工程行,hardware,萬華區,核准設立,廣州街204號2樓,25.0366825,121.4974312,38506508,553626925
宇鑫工程行,hardware,大同區,核准設立,承德路2段155巷7號,25.0582109,121.518776,38508739,554126979
銘御室內外設計工程行,hardware,北投區,核准設立,中央北路2段237巷33號2樓,25.137544,121.492378,38509673,555927048
源榕五金行,hardware,大同區,核准設立,延平北路2段60巷9號1樓,25.0554704,121.5112635,38513613,554026972
雨勳工程行,hardware,萬華區,核准設立,萬大路493巷28弄5號,25.019503,121.49881,38513677,553326877
見張工程行,hardware,南港區,核准設立,合順街8巷3弄18號,25.0421918,121.6189079,38515149,553826966
允盛工程行,hardware,士林區,核准設立,社中街228巷3弄1號3樓,25.0916128,121.5081104,38553255,554827029
紘暘工程行,hardware,萬華區,核准設立,和平西路3段109巷11號3樓,25.0359014,121.500516,38553662,553626924
永承水電工程行,hardware,南港區,核准設立,玉成街235巷4號,25.0431161,121.5855753,38554114,553826961
台灣愛梭五金行,hardware,萬華區,核准設立,環河南路1段248號,25.0460659,121.5029775,38556350,553826949
大昌中古五金行,hardware,萬華區,核准設立,環河南路1段10號,25.0485247,121.50591409999998,38558548,553926956
承達室內裝修工程行,hardware,大安區,核准設立,忠孝東路4段206之1號4樓,25.041193,121.552351,38560827,553726949
青山汽車材料行,hardware,內湖區,核准設立,麗山街328巷8之1號,25.0831862,121.57362109999998,38561229,554727033
亞摩工程行,hardware,內湖區,核准設立,成功路2段301號1樓,25.0726238,121.5893976,38566049,554427021
孫氏工程行,hardware,大同區,核准設立,長安西路249號4樓,25.0521572,121.51117920000002,38568980,554026965
大勇工程行,hardware,文山區,核准設立,和平東路4段89號,25.0049991,121.568492,38571303,552926845
宏翊工程行,hardware,內湖區,核准設立,康樂街20巷10號3樓,25.0685099,121.617467,38571520,554327021
立安工程行,hardware,大同區,核准設立,華陰街277巷7號,25.0501054,121.5158748,38571599,553926961
振鼎工程行,hardware,中山區,核准設立,林森北路259巷9號5樓之14,25.054424800000003,121.5260521,38572632,554026973
水手清潔用品材料行,hardware,內湖區,核准設立,內湖路1段323巷5弄5號5樓,25.0829368,121.5683207,38574147,554727032
宇伸工程行,hardware,中山區,核准設立,中山北路2段170號8樓,25.0635527,121.5222178,38574358,554226990
以勒工程行,hardware,大安區,核准設立,忠孝東路3段249號3樓,25.0418043,121.5414846,38575589,553726948
啟宏五金行,hardware,信義區,核准設立,和平東路3段531巷83號,25.015757,121.562232,38577361,553226879
聖嘉工程行,hardware,中山區,核准設立,松江路283號5樓,25.060222,121.5334757,38578328,554226987
亦翔工程行,hardware,北投區,核准設立,中央北路4段456巷2號,25.1291776,121.4698551,38579425,555727043
尚歷工程行,hardware,中正區,核准設立,中華路2段81巷66號,25.0263345,121.5109831,38580350,553426900
創升工程行,hardware,內湖區,核准設立,東湖路160巷10弄20號4樓,25.067609,121.617068,41070606,554327019
佳欣工程行,hardware,中正區,核准設立,忠孝西路1段50號15樓之1,25.046222,121.51583,41083519,553826953
帷新工程行,hardware,中山區,核准設立,民族東路410巷23弄22號5樓,25.066771,121.539449,42268465,554327000
泰泓工程行,hardware,南港區,核准設立,市民大道7段26號2樓,25.0487854,121.5813884,42269627,553926973
富瑜工程行,hardware,文山區,核准設立,興隆路2段222號,25.0013627,121.552811,42276423,552926829
阿樑工程行,hardware,內湖區,核准設立,內湖路1段629巷40弄16號,25.0817285,121.5743327,42277561,554627032
鼎笙工程行,hardware,北投區,核准設立,中和街493巷16弄16號,25.144371600000003,121.4937256,42277909,556027047
鋐冠工程行,hardware,北投區,核准設立,中和街502巷11弄10號3樓,25.147251,121.493897,42278301,556127046
源泰五金行,hardware,中山區,核准設立,龍江路11巷46號1樓,25.0473734,121.5412717,42279759,553926961
宏宥工程行,hardware,信義區,核准設立,和平東路3段447號,25.0189191,121.5586865,42280616,553226888
承安工程行,hardware,文山區,核准設立,興德路53巷15弄3號,25.001983600000006,121.5554903,42284084,552926832
宏信工程行,hardware,大安區,核准設立,基隆路2段208號,25.0236889,121.551437,42292492,553326901
利山鋁業工程行,hardware,中山區,核准設立,吉林路394號1樓,25.0652078,121.5301953,42292943,554326995
風尚工程行,hardware,大同區,核准設立,南京西路18巷6號5樓之2,25.0518668,121.5201911,42293680,554026966
祥宥工程行,hardware,萬華區,核准設立,廣州街62號1樓,25.036481,121.5032639,42295322,553626926
得鑫電器工程行,hardware,大安區,核准設立,臥龍街272巷5號,25.0168926,121.5582522,42297996,553226882
上好裝潢工程行,hardware,信義區,核准設立,松隆路345號1樓,25.048702,121.579864,42335252,553926973
名辰五金行,hardware,萬華區,核准設立,環河南路1段222號1樓,25.046321,121.5032939,42336610,553826950
國盟工程行,hardware,萬華區,核准設立,莒光路250之1號1樓,25.0313262,121.4996691,42338384,553526911
老虎空間室內裝修工程行,hardware,南港區,核准設立,富康街41號1樓,25.053249,121.617333,42339314,554026991
天降神兵工程行,hardware,信義區,核准設立,虎林街232巷9號1樓,25.036615,121.577187,42340136,553626942
富霖水電瓦斯器具行,hardware,信義區,核准設立,中坡南路130之6號,25.04052,121.584637,42343632,553726954
顏億五金商行,hardware,萬華區,核准設立,大理街171之2號1樓,25.0339999,121.4948798,48502214,553626917
東海水電行,hardware,信義區,核准設立,吳興街281巷13號1樓,25.0266141,121.5647382,48559525,553426912
永勝工程行,hardware,內湖區,核准設立,內湖路3段60巷50弄6號,25.0891115,121.5929386,48582407,554827045
佳昇工具行,hardware,士林區,核准設立,延平北路6段33號1樓,25.0872955,121.5088987,48683030,554827024
琦士美工程行,hardware,萬華區,核准設立,西寧南路36號2樓之105,25.0452425,121.5064943,48686521,553826948
恆億水電材料行,hardware,文山區,核准設立,恆光街14巷16號1樓,24.9826808,121.56629840000002,48698245,552426761
春和五金行,hardware,大同區,核准設立,民族西路35號1樓,25.0686724,121.5194419,48717720,554326999
永昇五金行,hardware,大安區,核准設立,四維路154巷11號1樓,25.0310714,121.5473769,48721392,553526921
亞帝工程行,hardware,中山區,核准設立,民族東路262號,25.0679895,121.5349401,48725783,554327001
巨丞裝潢設計工程行,hardware,信義區,核准設立,忠孝東路5段71巷10號,25.041948100000006,121.5672194,48750662,553726954
松杰汽車材料行,hardware,大同區,核准設立,太原路11巷18號1樓,25.0494872,121.5157473,48756645,553926960
永宏工程行,hardware,信義區,核准設立,嘉興街179之2號,25.0269998,121.5570207,48770180,553426912
承泰不銹鋼工程行,hardware,士林區,核准設立,永平街16號1樓,25.0899631,121.5052799,48777064,554827027
佳得百貨五金行,hardware,萬華區,核准設立,萬大路486巷31號,25.0200679,121.496494,48786401,553326878
金三芝五金百貨行,hardware,文山區,核准設立,景美街99號,24.9903167,121.5416033,48786535,552626786
彩富五金行,hardware,北投區,核准設立,中和街488號,25.1453141,121.4949936,48788288,556027047
利樺工具五金行,hardware,萬華區,核准設立,西藏路161號,25.0293448,121.5012727,48812506,553526906
和泰五金行,hardware,南港區,核准設立,南港路2段258號,25.0544027,121.5967296,48856166,554026989
來發五金行,hardware,內湖區,核准設立,成功路4段315號,25.0844914,121.5985436,48856216,554727041
尚杰工程行,hardware,北投區,核准設立,民族街39號,25.133113,121.505477,48868326,555827051
長弘五金行,hardware,萬華區,核准設立,和平西路3段49之1號,25.0353573,121.5027148,48868775,553626923
拾圓五金文具百貨商行,hardware,萬華區,核准設立,東園街28巷7號,25.026862,121.495424,48883430,553426898
鈺民廣告工程行,hardware,士林區,核准設立,延平北路5段63號,25.0805268,121.5106176,48894252,554627016
鴻祥汽車材料行,hardware,中山區,核准設立,八德路2段195號,25.0465936,121.5389824,48901063,553926959
煥新工程行,hardware,士林區,核准設立,延平北路7段9號1樓,25.094496,121.4961851,48922644,554927030
亨佳工程行,hardware,北投區,核准設立,公館路340巷6號,25.1237405,121.5049547,48936400,555627050
信發水電材料行,hardware,文山區,核准設立,興隆路1段289號,24.9988538,121.5445957,48947173,552826818
上慶五金百貨商行,hardware,北投區,核准設立,石牌路1段166巷131號,25.111526,121.5157889,48960323,555327048
勝昌五金行,hardware,萬華區,核准設立,環河南路1段154號,25.0468522,121.5038772,48962080,553926951
麗顏工程企業社,hardware,信義區,核准設立,莊敬路390號4樓,25.027359,121.565463,48963861,553426915
勝利五金行,hardware,萬華區,核准設立,環河南路1段224、226號,25.0462804,121.5032423,48964593,553826950
慶燁工程行,hardware,萬華區,核准設立,寶興街210巷22號,25.022835,121.495106,48964881,553326886
統來機電五金行,hardware,萬華區,核准設立,環河南路1段2號公有河濱一商場1號攤位,25.0341019,121.493284,48977289,553626917
家禾汽車材料行,hardware,北投區,核准設立,文林北路68號,25.105115,121.518362,48979890,555127044
日晟軸承五金商行,hardware,大同區,核准設立,歸綏街50號,25.059167,121.5173291,48995126,554126981
玄皇工程行,hardware,文山區,核准設立,興隆路3段192巷8弄42號,24.998006600000004,121.5574188,48999214,552826818
勁勇建材五金行,hardware,南港區,核准設立,重陽路10號,25.0592888,121.6102731,49896567,554127002
廷固工程行,hardware,文山區,核准設立,辛亥路7段11、12號,24.9870599,121.552799,50647460,552526775
松陽汽車材料行,hardware,大同區,核准設立,赤峰街53巷6號1樓,25.056145,121.5198881,73885040,554126975
龍太五金行,hardware,南港區,核准設立,八德路4段901號1樓,25.0510333,121.5809924,73891134,553926978
宏伸水電工程行,hardware,內湖區,核准設立,內湖路1段411巷9弄4號1樓,25.0821593,121.5713842,73892231,554627032
家豪五金機械行,hardware,士林區,核准設立,社正路64巷1弄9號1樓,25.0887212,121.5113307,73910630,554827027
澤遠工程行,hardware,大同區,核准設立,哈密街59巷21弄19之1號1樓,25.074662300000004,121.5158122,73917802,554527008
鴻祥水電空調工程行,hardware,文山區,核准設立,木柵路2段109巷79號,24.9914091,121.5641088,77483258,552626795
宏欣廣告工程行,hardware,大同區,核准設立,環河北路1段69號1樓,25.052676,121.507461,77515408,554026965
新明達五金商行,hardware,松山區,核准設立,八德路4段503號1樓,25.0500304,121.571757,78330718,553926974
東信五金行,hardware,中正區,核准設立,延平南路266號1樓,25.0325891,121.5073147,78369500,553526916
禾稑工程行,hardware,內湖區,核准設立,新明路498巷14弄10號,25.053863600000003,121.5775883,80985059,554026983
龍礄螺絲五金行,hardware,萬華區,核准設立,環河南路1段6號1樓,25.0485826,121.5059761,80987248,553926956
中二水電行,hardware,大安區,核准設立,忠孝東路3段251巷9弄14號,25.0432429,121.5423302,80991550,553826951
信得立工程行,hardware,南港區,核准設立,舊莊街1段145巷6弄35號1樓,25.039544,121.6220525,80993678,553726960
協聲水電行,hardware,士林區,核准設立,中山北路7段190巷6號1樓,25.1248835,121.5331996,80995541,555627057
啟明水電工程行,hardware,中正區,核准設立,南海路101號5樓之1,25.0280974,121.50785259999998,81606921,553426904
國新水電行,hardware,文山區,核准設立,木新路2段161巷2號,24.983807,121.568781,81618237,552526766
旺旺五金行,hardware,內湖區,核准設立,內湖路1段737巷51弄2號1樓,25.0805835,121.5792273,81646753,554627031
坤松汽車材料百貨行,hardware,文山區,核准設立,興隆路2段218之1號1樓,25.0014109,121.5525553,81672294,552926829
佳晉水電材料行,hardware,南港區,核准設立,南港路1段79號1樓,25.055106,121.6155006,81714442,554026994
佳欣工具行,hardware,士林區,核准設立,葫蘆街35號1樓,25.0800559,121.5096074,81731548,554627015
協億水電行,hardware,萬華區,核准設立,和平西路3段174之4號,25.0351735,121.4977767,81763999,553626921
吉成衛生清潔工程行,hardware,萬華區,核准設立,國興路1巷2之2號,25.0242262,121.508818,81779710,553426893
進鑫電機五金行,hardware,萬華區,核准設立,環河南路1段36號1樓,25.0481076,121.5054348,81781716,553926955
錦勝水電材料行,hardware,大同區,核准設立,延平北路2段144巷7號1樓,25.057716,121.511164,83907043,554126977
上大五金水電材料行,hardware,士林區,核准設立,文林路755號1樓,25.1032241,121.51939,83910737,555127043
英洲工程行,hardware,松山區,核准設立,光復南路6巷47號1樓,25.0475862,121.5565471,83917675,553926965
山鋒五金行,hardware,內湖區,核准設立,新明路183號1樓,25.058608,121.588652,83931070,554126996
日進水電行,hardware,中山區,核准設立,新生北路1段78號9樓之2,25.0474115,121.5300587,83947559,553926959
立德工程行,hardware,內湖區,核准設立,康樂街48巷16號,25.0690973,121.6175158,92908640,554327022
聯成空油壓五金行,hardware,大同區,核准設立,華陰街119號1樓,25.0500734,121.5165135,94913177,553926962
清聯鎖印五金行,hardware,南港區,核准設立,中南街72號1樓,25.0534114,121.6150964,94917005,554026991
祥順工程行,hardware,信義區,核准設立,虎林街120巷143號1樓,25.042315,121.574759,98905846,553826956
翔霖工程行,hardware,北投區,核准設立,吉利街123巷18號2樓,25.1191479,121.506404,98917152,555527049
明凰室內裝潢工程行,hardware,文山區,核准設立,興隆路1段119號,25.002423,121.541897,99325326,552926830
大楓城飾品材料行,hardware,大同區,核准設立,延平北路2段60巷11號,25.0554659,121.5112357,99333022,554026972
瑞鑫五金百貨行,hardware,北投區,核准設立,中和街263號1樓,25.1400034,121.500588,99345723,555927050
順太五金行,hardware,萬華區,核准設立,康定路226號,25.0380145,121.5016233,99348714,553726929
億源冷氣工程行,hardware,中山區,核准設立,華陰街24巷1弄3號1樓,25.0489585,121.5199557,99644026,553926960
心成水電工程行,hardware,士林區,核准設立,承德路4段315號2樓,25.090271,121.518026,99945613,554827030
良裕工程行,hardware,萬華區,核准設立,中華路2段416巷1號3樓之1,25.0278591,121.5052996,99948153,553426903
大千水電行,hardware,信義區,核准設立,虎林街100巷104號1樓,25.0429009,121.574946,99956272,553826958
祐德玻璃工程行,hardware,中山區,核准設立,民權東路3段75巷2弄9號1樓,25.0629892,121.5432631,99966139,554226994
鉅綸裝潢工程行,hardware,松山區,核准設立,五常街271號1樓,25.064411,121.544893,99969451,554226997
永裕昌鋁門窗工程行,hardware,文山區,核准設立,木新路3段310巷12弄15號1樓,24.9820836,121.5574471,99987021,552426756
新響工程行,hardware,大安區,核准設立,復興南路1段107巷5弄19之1號1樓,25.0443351,121.5451481,99990378,553826955
