companyName,storeNumber,storeName,address,lat,lon
統一超商,1846195,台北市第一七０分公司,士林區文林路一六九號一樓,25.0895031,121.5267905
統一超商,16080140,台北巿第三四二分公司,松山區健康路224號１樓,25.053838199999998,121.5610997
統一超商,16082148,台北巿第二二四分公司,中山區民權東路3段71、73號1樓,25.0625757,121.54351270000001
統一超商,16082175,台北巿第２３３分公司,東新街八十巷１號１樓、１０８巷２弄三十號１樓,25.0329694,121.56541770000001
統一超商,16082787,台北巿第３４３分公司,中山區民生東路二段１５７號,25.0581224,121.53585530000001
統一超商,16083723,台北巿第２３７分公司,吳興街２５７、２５９號１樓,25.027248999999998,121.5637452
統一超商,16083738,台北巿第２１３分公司,中山區伊通街30號(1樓),25.0508746,121.53466090000002
統一超商,16085237,台北市第３３１分公司,中山區林森北路２６２號１樓,25.0546678,121.5253106
統一超商,16085258,台北市第３４６分公司,萬華區環河南路二段２００號１樓,25.034084600000003,121.49307820000001
統一超商,16086926,台北巿第３４７分公司,中山區民權西路六十六號１樓,25.062603600000003,121.5200647
統一超商,16087241,台北巿第三四九分公司,士林區福順里重慶北路4段149、151號1樓,25.080023,121.51324
統一超商,16088760,台北巿第３５０分公司,大安區和平東路二段１１８巷三十三號１樓,25.023535,121.54292659999999
統一超商,16089199,台北巿第３５１分公司,北投區明德路九十九號１樓,25.109517999999998,121.5193952
統一超商,16089732,台北巿第３５２分公司,中山區復興北路１６４號１樓,25.053476999999997,121.54384499999999
統一超商,16092336,台北巿第３５４分公司,文山區景中街四十五號１樓,24.9927198,121.54404140000001
統一超商,16097796,台北巿第３５６分公司,士林區士東路四十八號１樓,25.111906899999997,121.527767
統一超商,16097971,台北巿第３５８分公司,大安區大安路二段１０２號１樓,25.030802100000002,121.5459455
統一超商,16097986,台北巿第３５９分公司,士林區德行東路262號1樓,25.1097496,121.53470420000001
統一超商,16098520,台北巿第３６０分公司,大安區東豐街９號１樓,25.036113399999998,121.5442913
統一超商,16432911,台北巿第３６１分公司,大安區建國南路一段２７４號１樓,25.0364085,121.53730449999999
統一超商,16432927,台北巿第三六二分公司,中正區永昌里21鄰中華路2段405、407號1樓,25.026016199999997,121.50827269999999
統一超商,16435558,台北巿第３６４分公司,中山區長春路六十七號１樓,25.055025399999998,121.5264992
統一超商,16436352,台北巿第３６５分公司,信義區大仁里８鄰林口街四十八號,25.038253,121.5794416
統一超商,16436509,台北巿第３６６分公司,北投區振興街三十一號１樓,25.117998800000002,121.52231450000001
統一超商,16436711,台北巿第３６７分公司,北投區公館路三十一號１樓,25.133571,121.50519399999999
統一超商,16438437,台北巿第３６９分公司,信義區新仁里二十四鄰東興路五十七號１樓,25.047321,121.566457
統一超商,16442559,台北巿第３７１分公司,南港區興華路117、119、121、123、125號1樓,25.0568892,121.6057148
統一超商,16443157,台北巿第３７２分公司,南港區忠孝東路六段２７６號,25.049101500000003,121.58906979999999
統一超商,16447864,台北巿第３７６分公司,文山區景行里景文街九十六．九十八號１樓,24.990756,121.54119509999998
統一超商,16448673,台北巿第３７９分公司,中山區合江街１１７號１樓,25.0603401,121.5393178
統一超商,16450620,台北市第三八三分公司,北投區光明路121號1樓,25.1338665,121.50209939999999
統一超商,16632262,台北市第３８４分公司,松山區南京東路五段139之4、139之8號1樓,25.0517153,121.56155759999999
統一超商,16633641,台北市第３８５分公司,中山區北安路六四九號一樓,25.084047,121.54919
統一超商,16633656,台北市第３８６分公司,大同區民生西路九十五．九十七號一樓 ,25.0569879,121.5155683
統一超商,16740240,台北市第３８９分公司,大同區延平北路二段一五九．一六一號一樓,25.059173,121.51168700000001
統一超商,16740277,台北市第３８８分公司,士林區光華路二十六巷七-一、七-二、七-三號一樓,25.1373518,121.54547609999999
統一超商,16743437,台北市第３９１分公司,大安區師大路五十九巷十三號一樓,25.0239172,121.529356
統一超商,16749586,台北市第３６分公司,中正區杭州南路一段八十三號一樓,25.039056100000003,121.52552050000001
統一超商,16749592,台北市第４５分公司,大同區酒泉街五十八．六十號一樓,25.0718576,121.5151094
統一超商,16832206,台北市第３３９分公司,松山區新東街十五巷一號一樓,25.0585499,121.565913
統一超商,16832212,台北市第３１１分公司,松山區三民路十號一樓,25.0524003,121.5639517
統一超商,16832655,台北市第３９２分公司,中山區長安東路二段一０一號一樓,25.048636899999998,121.53020990000002
統一超商,16833444,台北市第３９４分公司,士林區中山北路七段十四巷十九號Ｂ一樓,25.118896,121.532398
統一超商,16833900,台北市第３９６分公司,信義區信義路六段十一號一樓,25.034160999999997,121.575201
統一超商,16836012,台北市第４０１分公司,大安區大安路一段二一八號一樓,25.0343323,121.54589399999999
統一超商,16836358,台北市第４０２分公司,內湖區大湖山莊街219巷6、8號1樓,25.088348,121.59941
統一超商,16836998,台北市第４０４分公司,內湖區金龍里金龍路五號一樓,25.0844527,121.59504070000001
統一超商,16841079,台北市第４１２分公司,大安區仁愛路四段二十七巷一號一樓,25.038663800000002,121.5452794
統一超商,16841084,台北市第４１３分公司,信義區惠安里吳興街五二０號一樓,25.0220932,121.56894059999999
統一超商,16841654,台北市第四一四分公司,大安區忠孝東路四段二一六巷六十八號一樓,25.038126199999997,121.55288519999999
統一超商,16845053,台北市第四一八分公司,大安區建國南路一段二十八、三十號一樓,25.0408678,121.53698179999999
統一超商,16845075,台北市第四二０分公司,南港區研究院路一段九十九號一樓之十四,25.052018399999998,121.61623540000001
統一超商,16846145,台北市第四二二分公司,內湖區成功路三段二０一號一樓,25.0776603,121.5896825
統一超商,16846594,台北市第四二三分公司,信義區松山路608、610號1樓,25.035809399999998,121.57850079999999
統一超商,16846601,台北市第四二四分公司,內湖區康寧路3段99巷14號1樓、康寧路3段99巷12弄2號1樓,25.0726997,121.6106675
統一超商,16847593,台北市第四二六分公司,士林區福國路九十四號一樓,25.102046100000003,121.52230890000001
統一超商,16848002,台北市第四二七分公司,南港區八德路四段778、780號1樓,25.0504394,121.580272
統一超商,22555284,臺北市第１分公司,中山北路六段１５０號１樓,25.1063689,121.5250808
統一超商,22555307,臺北市第３分公司,石牌路二段７６號１樓,25.1165908,121.51627350000001
統一超商,22555313,臺北市第４分公司,中山北路七段１７４號１樓,25.1243838,121.5327438
統一超商,22555329,台北市第５分公司,北投區榮華三路３–１號１樓,25.113696700000002,121.52395530000001
統一超商,22555334,台北市第６分公司,北投區石牌路一段126號1樓,25.114095000000002,121.5124895
統一超商,22555340,台北市第７分公司,北投區中和街222號1樓,25.1391741,121.5018741
統一超商,22555355,台北市第８分公司,士林區忠誠路二段7號1樓,25.108968700000002,121.53063200000001
統一超商,22555361,台北市第九分公司,松山區八德路三段200、202號1樓,25.0479604,121.5564935
統一超商,22555405,台北市第十三分公司,松山區八德路三段27號1樓,25.048393,121.55272759999998
統一超商,22555411,台北市第十四分公司,光復南路４７１號１樓,25.033725399999998,121.55766570000002
統一超商,22555432,台北市第１６分公司,松信路１４５號１樓,25.043543,121.572162
統一超商,22555448,臺北市第十七分公司,信義區忠孝東路五段386號1樓,25.040764000000003,121.574124
統一超商,22555453,臺北市第十八分公司,信義區基隆路二段22號1樓,25.031950100000003,121.5587135
統一超商,22555469,台北市第十九分公司,信義區臺北市永吉路32、34號1樓,25.0454044,121.5689813
統一超商,22555475,台北市第二十分公司,中坡南路三十八號１樓,25.042819100000003,121.58336670000001
統一超商,22555502,台北市第二十三分公司,松山區民生東路五段65號1樓,25.058645000000002,121.558171
統一超商,22555518,台北市第二十四分公司,松山區延壽街422號1樓,25.0562242,121.5564331
統一超商,22555524,台北市第二十五分公司,敦化北路149號1樓,25.053870899999996,121.5495491
統一超商,22555539,台北市第二十六分公司,松山區八德路二段439號1樓,25.0483738,121.5469997
統一超商,22555545,台北市第二十七分公司,松山區民權東路3段108號1樓,25.0619448,121.54498590000001
統一超商,22555566,台北市第２９分公司,大安區永康街43號1樓,25.0304269,121.529595
統一超商,22555587,臺北市第３１分公司,忠孝東路三段２１７巷１弄２號１樓,25.042463,121.539593
統一超商,22555616,台北市第三十四分公司,中正區新生南路一段126-7號1樓,25.0371229,121.5325096
統一超商,22555637,台北市第三十六分公司,連雲街７２–１、２、３號１樓,25.0376936,121.5321634
統一超商,22555658,台北市第三十八分公司,中正區南昌路一段72號1樓,25.031087300000003,121.5171828
統一超商,22555664,台北市第３９分公司,大安區師大路87號1樓,25.0232307,121.5285488
統一超商,22555714,臺北市第４４分公司,和平東路三段３０８巷３０號１樓,25.0198326,121.55562320000001
統一超商,22555735,台北市第四十六分公司,大安區敦化南路1段236巷13號1樓,25.0407185,121.5473505
統一超商,22555741,台北市第４７分公司,大安區信義路四段265巷12弄1號1樓,25.0343188,121.554317
統一超商,22555778,台北市第５０分公司,大安區安和路1段86號1樓,25.034707,121.5523932
統一超商,22555783,台北市第５１分公司,文山區忠順街一段26巷15號1樓,24.982517,121.55972279999999
統一超商,22555812,臺北市第五十四分公司,松山區南京東路三段303巷5號1樓、3弄2號1樓,25.0524769,121.546691
統一超商,22555828,台北市第五十五分公司,雙城街十六–１號１樓,25.0651791,121.52427309999999
統一超商,22555849,台北市第五十七分公司,中山區農安街28-2號1樓,25.0658166,121.52968510000001
統一超商,22555860,台北市第五十九分公司,大同區鄰江里重慶北路3段260、262號1樓,25.071414,121.5135544
統一超商,22555881,臺北市第６１分公司,民權西路３８號１樓,25.0626038,121.52120910000001
統一超商,22555904,台北市第六十三分公司,中正區青島東路4號1樓,25.043848999999998,121.5215871
統一超商,22555910,台北市第六十四分公司,中正區武昌街一段1-2號1樓,25.0441669,121.51352800000001
統一超商,22555926,台北市第六十五分公司,士林區中正路220、222號1樓,25.095518600000002,121.52607859999999
統一超商,22555931,台北市第六十六分公司,中華商場義棟六十七號１樓,25.0451499,121.5319628
統一超商,22555952,台北市第六十八分公司,中正區金山南路一段108號1樓,25.035499899999998,121.52734450000001
統一超商,22555968,台北市第六十九分公司,萬華區康定街203、205號1樓,25.0360273,121.5014909
統一超商,22555989,台北市第七十一分公司,中山北路一段１０５巷８號１樓,25.050635699999997,121.52338519999999
統一超商,22656001,臺北市第７３分公司,南京東路一段１３２巷２１–１號１樓,25.051054,121.52712009999999
統一超商,22656023,臺北市第７５分公司,長安東路二段８１號１樓,25.048570899999998,121.5345357
統一超商,22656044,台北市第七十七分公司,中山區天津街65號1樓,25.0517312,121.52355159999998
統一超商,22656059,台北市第七十八分公司,長安東路一段８之３號１樓,25.049468100000002,121.52265120000001
統一超商,22656086,台北市第八十一分公司,民生東路二段１１３號１樓,25.058055399999997,121.5315574
統一超商,22656115,台北市第八十四分公司,龍江路２４４號１樓,25.058971399999997,121.5405155
統一超商,22656136,台北市第八十六分公司,林森北路５００號１樓,25.061847699999998,121.5254793
統一超商,22656142,台北市第八七分公司,忠孝東路四段五六０號一一樓,25.0410357,121.56380449999999
統一超商,22656163,台北市第八十九分公司,中山區合江街58巷1號1樓：60、60-1號1樓,25.056979100000003,121.53895990000002
統一超商,22659627,臺北巿第九三分公司,內湖路１段７３３號１樓,25.0791388,121.57818710000001
統一超商,22659632,台北巿第九十四分公司,永吉路３２５號１樓,25.045662,121.57573899999998
統一超商,22660912,台北巿第九十五分公司,萬大路245、247號1樓,25.0261328,121.50065120000001
統一超商,22660928,台北巿第九十六分公司,明德路１１４、１１６號１樓,25.109921300000003,121.52023490000002
統一超商,22661243,台北巿第九十八分公司,東園街六九、七一、七一–１號１樓七三巷１號１樓,25.025998,121.49652900000001
統一超商,22766160,台北市第１０４分公司,木新路二段２５５號１樓,24.983048999999998,121.56662450000002
統一超商,22819069,台北巿第１０６分公司,士林區天母北路39之1號1樓,25.1205139,121.5266497
統一超商,22819526,台北巿第１０７分公司,木柵路１段１６８、１７０號１樓,24.9877211,121.5522328
統一超商,22819841,台北巿第１０８分公司,木柵路２段１５７、１５９號１樓,24.989116600000003,121.56290200000001
統一超商,22820208,台北巿第１０９分公司,龍江路２８１         墱W１號１樓,25.059762,121.541249
統一超商,22820679,台北巿第１１０分公司,瑞安街１８２號１樓,25.028545899999997,121.54106110000001
統一超商,22822058,台北巿第１１３分公司,寧波西街３號１樓,25.0315267,121.51875890000001
統一超商,22822064,臺北巿第１１２分公司,忠孝東路４段５００號１樓,25.041001899999998,121.561765
統一超商,22955866,台北巿第１１７分公司,士林區仰德大道三段68、70號1樓,25.118830199999998,121.5529057
統一超商,22958224,臺北巿第一一九分公司,大同區承德路三段60、60-1號1樓,25.0653753,121.51811370000001
統一超商,22958239,台北巿第１２０分公司,復興北路３５２號１樓,25.060114499999997,121.543951
統一超商,22958553,台北巿第１２２分公司,和平東路二段十八號１樓,25.0255815,121.53601640000001
統一超商,22959743,台北巿第１２５分公司,文山區羅斯福路6段20、22號1樓,24.9969549,121.539942
統一超商,23111345,台北市第１２６分公司,東湖路九十號１樓,25.068468499999998,121.61486670000001
統一超商,23111921,台北巿第１２９分公司,延吉街２３７號１樓,25.0366238,121.555732
統一超商,23112787,台北市第１３０分公司,興隆路二段219號1樓,25.001203,121.55028999999999
統一超商,23116518,台北巿第１３４分公司,士林區至誠路二段31、31-1號1樓,25.1017758,121.5292749
統一超商,23218058,台北巿第１３６分公司,古亭區汀州路一段１２７、１２９號１樓,25.027059,121.5111514
統一超商,23357240,台北巿第一四二分公司,大安區敦化南路1段187巷29號1樓,25.042687100000002,121.5506817
統一超商,23357810,台北巿第１４３分公司,龍江路３２２、３２２–１、３２２–２號１樓,25.064918,121.540811
統一超商,23357826,台北市第一四四分公司,中山區北安路六二一巷四八號一樓,25.082836999999998,121.54643200000001
統一超商,23360081,台北巿第１４７分公司,八德路二段２８２號１樓,25.0469233,121.541665
統一超商,23361997,台北巿第８３分公司,延吉街１３１巷十九、二十一號１樓,25.0427009,121.55543370000001
統一超商,23362829,台北市第１４８分公司,指南路二段九十九、１０１號１樓,24.987804999999998,121.57553759999999
統一超商,23413714,台北巿第１４９分公司,西園路二段１２８號１樓,25.0305956,121.496353
統一超商,23413720,台北市第一五○分公司,中正區汀州路二段210號1樓,25.0223503,121.52369540000001
統一超商,23413735,台北市第一五一分公司,文山區忠順街2段10號1樓,24.984513699999997,121.56237970000001
統一超商,23416389,台北市第一五七分公司,大同區蘭州街135號1樓、昌吉街72、74、76號,25.065910000000002,121.5157192
統一超商,23472467,台北巿第１６０分公司,建國南路二段１５１巷６、８號１樓,25.028706,121.5384152
統一超商,23472895,臺北巿第１６１分公司,忠孝東路六段４４８號１樓,25.0502606,121.59402209999999
統一超商,23473402,台北市第一六三分公司,中山區復興北路六四號一樓,25.0506235,121.54378490000002
統一超商,23530017,臺北巿第１６６分公司,景興路１１３、１１５號１樓,24.995084,121.544858
統一超商,23530369,臺北巿第１６７分公司,大同區長安西路271號1樓、長安西路273巷2號1樓,25.052158600000002,121.5106688
統一超商,23530375,臺北巿第１６８分公司,中和街476、478、480號1樓,25.1452503,121.4952491
統一超商,23530852,臺北巿第１７０分公司,士林區大北路14、16號1樓,25.0898549,121.52664740000002
統一超商,23532129,臺北巿第１７１分公司,忠義街六十八號１樓,25.1058595,121.53130729999998
統一超商,23532134,台北巿第一七二分公司,萬華區萬青街168號1樓,25.0235129,121.501522
統一超商,23640963,台北巿第１７８分公司,大安區和平東路3段97號、97-1號1樓,25.0246603,121.5508287
統一超商,23641490,臺北巿第１８０分公司,文山區木柵路二段九十號１樓/興隆路四段二十六號一樓,24.987807500000002,121.5607105
統一超商,23822160,臺北巿第１８１分公司,萬華區漢中街51號1樓,25.044047,121.5074479
統一超商,23825146,台北巿第１８４分公司,大安區復興南路2段151巷41號1樓,25.0284853,121.54539960000001
統一超商,23825434,臺北巿第１８５分公司,北投區自強街82號1樓,25.1105639,121.5146134
統一超商,23826124,台北巿第１８７分公司,中正區汀州路3段249號1樓,25.0136689,121.534345
統一超商,23827046,臺北巿第１９０分公司,大安區信義路二段２２４號１樓,25.033379,121.53144499999999
統一超商,23827236,台北巿第１９１分公司,忠孝東路四段２１６巷27弄1號1樓,25.0400238,121.55330990000002
統一超商,23827539,台北巿第１９３分公司,文山區復興南路二段82-1、82-2號1樓,25.0309643,121.5433064
統一超商,23827931,臺北巿第１９４分公司,北投區知行路282號、284號1樓,25.1215397,121.46748249999999
統一超商,23827947,臺北巿第１９５分公司,內湖區內湖路一段445號1樓,25.081271899999997,121.5723477
統一超商,23983030,臺北巿第１９６分公司,文山區指南路一段34、36號1樓,24.9876009,121.56966399999999
統一超商,23983968,臺北巿第２００分公司,中山區龍江路４０３號１樓,25.0658311,121.54108259999998
統一超商,23984093,臺北巿第２０２分公司,永吉路三十巷１７８弄１號１樓,25.0416242,121.5686604
統一超商,24792559,台北市第七八六分公司,萬華區東園街78號1樓,25.0249949,121.49679350000001
統一超商,24792707,台北市第七八七分公司,大安區羅斯福路3段283巷14弄16號1樓,25.018307399999998,121.5325804
統一超商,24793311,台北市第七八九分公司,士林區中山北路7段141巷6-1號1樓,25.110228399999997,121.52623100000001
統一超商,24793419,台北市第七九０分公司,士林區延平北路5段228號1樓、230號1、2樓,25.0856168,121.5093202
統一超商,24793516,台北市第七八八分公司,松山區八德路2段366巷7號1樓,25.0477652,121.5460902
統一超商,24795367,台北市第七九一分公司,中正區羅斯福路3段316巷16號1樓,25.0154448,121.53234509999999
統一超商,24795514,台北市第七九二分公司,松山區八德路4段697號1樓,25.050254000000002,121.57655079999999
統一超商,24799770,台北市第七九四分公司,中山區朱崙街60號1樓,25.049855800000003,121.5435826
統一超商,24799912,台北市第七九五分公司,中正區忠孝西路1段66號B1,25.0461278,121.515325
統一超商,24799928,台北市第七九三分公司,大安區信義路3段178號1樓,25.0332039,121.5422769
統一超商,24801403,台北市第七九七分公司,信義區松仁路162號、164號1樓,25.028375,121.568193
統一超商,24801522,台北市第七九六分公司,松山區民生東路3段130巷2之1號1樓,25.0570076,121.5461262
統一超商,24802515,台北市第七九八分公司,大同區延平北路1段89、91、93號1樓,25.05176,121.512028
統一超商,24802607,台北市第七九九分公司,信義區松信路148號1樓,25.043684,121.571913
統一超商,24803654,台北市第八００分公司,內湖區民權東路6段82號1樓,25.0687097,121.585673
統一超商,24803845,台北市第八五六分公司,北投區公館路259號1樓,25.1254092,121.5081946
統一超商,24807223,台北市第八五七分公司,士林區天母東路8巷39號1樓、天母東路8巷41弄1號1樓,25.114801,121.530348
統一超商,24808503,台北市第八五八分公司,南港區玉成街69號1樓,25.048857199999997,121.58196059999999
統一超商,24809720,台北市第八五九分公司,中正區館前路59號1樓,25.044830100000002,121.5151514
統一超商,24810347,台北市第八六五分公司,松山區延吉街27之1號1樓,25.0459868,121.553706
統一超商,24811654,台北市第八六七分公司,內湖區五分街9、11號1樓,25.067778,121.61238300000001
統一超商,24811937,台北市第八六六分公司,內湖區新湖二路329號1樓,25.0645815,121.58351670000002
統一超商,27231031,台北市第五五九分公司,士林區中正路二三五巷十四號一樓,25.094753,121.52605190000001
統一超商,27232290,台北市第五六一分公司,大安區忠孝東路三段一六０號一樓,25.0417768,121.5374092
統一超商,27232427,台北市第五六二分公司,信義區松光里忠孝東路五段五二四巷一弄一，一之一號,25.04126,121.5795739
統一超商,27232664,台北市第六十分公司,大安區辛亥路三段157巷32號1樓、臥龍街188巷1號1樓,25.016561,121.550789
統一超商,27233925,台北市第七十四分公司,中正區忠孝西路一段五十號之一（站前地下街）,25.0466133,121.51552849999999
統一超商,27234656,台北市第五六三分公司,萬華區寶興街184、186號1樓,25.023757999999997,121.49528000000001
統一超商,27234678,台北市第五六五分公司,士林區承德路四段三十九號一樓,25.0809776,121.52286200000002
統一超商,27235352,台北市第三五三分公司,中山區長春路一六八號一樓,25.054593,121.533423
統一超商,27235732,台北市第五十三分公司,中山區中山北路三段二十三之六號一樓,25.0648609,121.52272169999999
統一超商,27236486,台北市第五六七分公司,內湖區康寧路一段一六０號,25.0804384,121.5914236
統一超商,27239104,台北市第五七０分公司,大安區延吉街七十二號一樓,25.042512300000002,121.5541231
統一超商,27239110,台北市第五七一分公司,大安區東豐街43、45號1樓,25.0361697,121.5466779
統一超商,27241018,台北市第五七二分公司,大安區辛亥路二段一七一巷八號,25.0221231,121.540986
統一超商,27241495,台北市第五七三分公司,中正區南昌路二段一七三號,25.0255587,121.52282920000002
統一超商,27241501,台北市第五七四分公司,北投區泉源路12-1號1樓,25.137109,121.50428799999999
統一超商,27243352,台北市第五七六分公司,士林區文林路102號地下1樓之1~5、地下1樓之32,25.087847,121.526399
統一超商,27245035,台北市第一一六分公司,中正區光復里延平南路四十七號一樓,25.044655300000002,121.50941340000001
統一超商,27246983,台北市第三七八分公司,信義區松德路二七一號,25.032912,121.574648
統一超商,27247884,台北市第二十二分公司,大同區延平北路3段61-4、61-5號1樓,25.0655899,121.51134420000001
統一超商,27249551,台北市第五三九分公司,文山區興業里興隆路2段244巷20號,25.000183,121.553168
統一超商,27250114,台北市第四八０分公司,八德路2段314號1樓,25.047182,121.54280700000001
統一超商,27250120,台北市第四四０分公司,中山區遼寧街110號1樓 / 遼寧街108巷1號1樓,25.052651,121.541711
統一超商,27250374,台北市第五三四分公司,文山區景華里景興路14號,24.997875,121.544545
統一超商,27250901,台北市第五八０分公司,文山區興光里興隆路3段173、175號,24.996420899999997,121.56010400000001
統一超商,27252324,台北市第五八一分公司,大同區延平北路4段16、18號1樓,25.0716419,121.51054679999999
統一超商,27254147,台北市第四七三分公司,士林區天母東路8巷96、98號1樓,25.1143705,121.5301134
統一超商,27256905,台北市第五四一分公司,士林區天玉街8號,25.119823699999998,121.5269152
統一超商,27257284,台北市第五八四分公司,中山區長春路182號1、2樓,25.054709399999997,121.53441609999999
統一超商,27257496,台北市第八十八分公司,內湖區紫雲里星雲街136號1樓,25.0798669,121.59496850000001
統一超商,27257518,台北市第五八五分公司,文山區萬年里羅斯福路5段170巷33、35號1樓,25.004655,121.5365649
統一超商,27258158,台北市第五八七分公司,中正區羅斯福路3段80、82號1樓,25.0219837,121.52635790000001
統一超商,27258410,台北市第五八八分公司,內湖區內湖路1段737巷35號1樓,25.079744899999998,121.5787341
統一超商,27259656,台北市第三八七分公司,萬華區富民里廣州街148號,25.036580800000003,121.50059569999999
統一超商,27922226,台北市第一二一分公司,松山區塔悠路31、33號1樓,25.0507342,121.57157099999999
統一超商,27922979,台北市第五七七分公司,松山區撫遠街197、199號1樓,25.0598707,121.5680337
統一超商,27923739,台北市第四一六分公司,文山區萬芳里萬和街6號2樓之1,25.001945499999998,121.56738770000001
統一超商,27924462,台北市第五九二分公司,內湖區星雲街17、17-1號１樓,25.078128,121.590576
統一超商,27924857,台北市第一七四分公司,南港區福德街373巷25號1樓,25.0397098,121.5915506
統一超商,27925080,台北市第五七五分公司,松山區健康路11號1樓,25.053224,121.552453
統一超商,27927854,台北市第十六分公司,士林區福林路191號1樓,25.0969674,121.53265379999999
統一超商,27928657,台北市第五五八分公司,中正區濟南路２段50、52號1樓,25.040272199999997,121.53121409999999
統一超商,27929038,台北市第六０一分公司,松山區復興北路179號,25.0542432,121.544379
統一超商,27929207,台北市第六０二分公司,松山區延壽街323號1樓,25.056713000000002,121.56055400000001
統一超商,27930794,台北市第六０四分公司,中山區錦西街16號,25.060269899999998,121.5213021
統一超商,27931463,台北市第六０五分公司,大安區敦化南路2段63巷7號1樓,25.0311174,121.5495688
統一超商,27932126,台北市第六０六分公司,文山區景行里羅斯福路6段391號,24.9924886,121.5408332
統一超商,27932131,台北市第六０七分公司,萬華區忠德里東園街28巷56、58號1樓,25.026132999999998,121.494375
統一超商,27932569,台北市第六０八分公司,萬華區西藏路125巷17號及129-9號,25.0259789,121.5033178
統一超商,27933455,台北市第六０九分公司,信義區光復南路４１９巷４１號,25.036607,121.55848999999999
統一超商,27934010,台北市第五一六分公司,大同區延平北路４段１５７、１５９號１樓,25.0731183,121.5114223
統一超商,27934428,台北市第三十分公司,松山區南京東路５段334、336號1樓,25.0510894,121.5686879
統一超商,27934969,台北市第一九二分公司,中山區建國北路３段89、91號1樓,25.0656223,121.5368585
統一超商,27937142,台北市第一九七分公司,士林區承德路４段３０號,25.080382999999998,121.522042
統一超商,27937157,台北市第五二五分公司,中山區松江路２０８號１樓,25.057844199999998,121.5329186
統一超商,27939465,台北市第九十八分公司,中正區東門里信義路1段13-1號1樓,25.0364924,121.5227125
統一超商,27939470,台北市第一二四分公司,中山區北安路839-1號,25.084665,121.557303
統一超商,27940028,台北市第三六三分公司,大安區光復南路180巷12號,25.0424914,121.5570156
統一超商,27942454,台北市第一七七分公司,萬華區萬大路292、294號1樓,25.0250457,121.50044550000001
統一超商,27943117,台北市第二四三分公司,信義區莊敬路178巷2號,25.0312165,121.56110859999998
統一超商,27945874,台北市第一七六分公司,南港區聯成里昆陽街150-1、150-3號1樓,25.0491107,121.5941932
統一超商,27947084,台北市第六一四分公司,中山區長春路257號1樓,25.0547848,121.54065290000001
統一超商,27947177,台北市第六一三分公司,大安區通化里光復南路616號1樓,25.032272600000002,121.55726340000001
統一超商,27948416,台北市第六一六分公司,中山區南京東路1段132巷8號1樓,25.0513075,121.5270438
統一超商,27948464,台北市第六一八分公司,內湖區瑞光路580號1樓,25.0801026,121.56640049999999
統一超商,27949007,台北市第六二０分公司,內湖區康樂街213號1樓,25.0762293,121.62170590000001
統一超商,27949560,台北市第六二一分公司,中正區三愛里連雲街81號1樓,25.034315399999997,121.53016140000001
統一超商,27949983,台北市第六二四分公司,信義區興隆里忠孝東路4段514號,25.040831,121.56259399999999
統一超商,27950186,台北市第六二五分公司,中正區臨沂街74、76號,25.0345844,121.5278
統一超商,27950812,台北市第六二七分公司,大安區樂業街71、73號1樓,25.0219229,121.55096029999999
統一超商,27950828,台北市第六二八分公司,信義區松德路200巷10號,25.0348367,121.57365800000001
統一超商,27950968,台北市第九十二分公司,北投區中和街10號,25.137574700000002,121.5034432
統一超商,27951381,台北市第四九六分公司,信義區嘉興街181巷21號,25.026175,121.557473
統一超商,27951404,台北市第六二九分公司,北投區文林北路98號,25.10564,121.517646
統一超商,28410384,台北市第六三一分公司,南港區成福里成福路145、147號,25.0415238,121.587861
統一超商,28410666,台北市第一三五分公司,文山區樟新里木新路3段276號,24.9812437,121.5581412
統一超商,28411530,台北市第六三二分公司,中正區永功里11鄰汀州路1段285號1樓,25.0263615,121.5137938
統一超商,28411551,台北市第六三四分公司,大安區忠孝東路4段223巷42號,25.0435977,121.55307549999999
統一超商,28412480,台北市第六三八分公司,信義區永吉路278巷58弄2號,25.0434723,121.57403490000002
統一超商,28412685,台北市第六四一分公司,中正區華中里萬大路464號,25.0201319,121.49759979999999
統一超商,28412849,台北市第六四二分公司,松山區三民路115號1樓,25.058072,121.56322779999999
統一超商,28413349,台北市第六四三分公司,萬華區中華路二段602-1、602-2號1樓,25.024629,121.50995900000001
統一超商,28413609,台北市第六四四分公司,士林區美崙街112號,25.0971383,121.51973100000001
統一超商,28413827,台北市第六四五分公司,中正區黎明里重慶南路1段1號1樓,25.0466102,121.51365849999999
統一超商,28414895,台北市第二三五分公司,內湖區內湖路1段411巷17號及19弄1號1樓,25.081179000000002,121.57108400000001
統一超商,28415135,台北市第六四七分公司,南港區南港路3段9號1樓,25.05395,121.5920067
統一超商,28415199,台北市第六四八分公司,信義區松山路455號,25.039796300000003,121.5780166
統一超商,28417788,台北市第一四一分公司,大同區重慶北路2段60號、62號1樓,25.0558329,121.51379299999999
統一超商,28418013,台北市第四七一分公司,中山區圓山里中山北路3段57號1樓,25.0683396,121.5229425
統一超商,28418689,台北市第三八０分公司,北投區湖山路1段12號1樓,25.152493,121.547476
統一超商,28419054,台北市第四七七分公司,松山區民生東路4段55巷10號1樓,25.058341199999997,121.55041229999999
統一超商,28419435,台北市第六一一分公司,中正區黎明里忠孝西路1段33、35號1樓,25.0461178,121.5187655
統一超商,28422190,台北市第六五一分公司,士林區三玉里天母東路50巷25號,25.1168141,121.5333138
統一超商,28422826,台北市第四０五分公司,萬華區西門里昆明街81、83號,25.0427638,121.504981
統一超商,28423825,台北市第二五０分公司,士林區基河路1號1樓,25.0863232,121.52504209999998
統一超商,28424850,台北市第六五三分公司,文山區木新路3段54、56號1樓,24.9826035,121.56406799999999
統一超商,28424866,台北市第六五四分公司,信義區基隆路1段141號1樓,25.0429861,121.5659519
統一超商,28424893,台北市第六五二分公司,大安區通化街177號,25.0274507,121.5535905
統一超商,28428440,台北市第二十一分公司,文山區木新路三段179、181號1樓、183巷1號1樓,24.9815215,121.56047590000001
統一超商,28428455,台北市第二八二分公司,松山區八德路4段686號1樓,25.049863000000002,121.57666699999999
統一超商,28429258,台北市第四０七分公司,大安區復興南路2段203號1樓、2樓,25.0262962,121.543668
統一超商,28429399,台北市第六五五分公司,大安區忠孝東路3段217巷1弄2號1樓,25.042463,121.539593
統一超商,28429406,台北市第六五六分公司,中正區延平南路177號1樓,25.0344879,121.5076071
統一超商,28429412,台北市第六五七分公司,大安區和平東路2段63號1樓,25.0257462,121.538629
統一超商,28430494,台北市第六五八分公司,中山區長安東路1段53巷1之3號1樓,25.049146899999997,121.526524
統一超商,28431557,台北市第六五九分公司,信義區吳興街346、348號1樓,25.025837300000003,121.56633659999999
統一超商,28432599,台北市第六十一分公司,大安區安和路1段47號1樓,25.038625,121.55099399999999
統一超商,28432606,台北市第八十五分公司,文山區景福街252號1樓,24.9933819,121.54015290000001
統一超商,28433226,台北市第一八九分公司,信義區虎林街85號1樓,25.044706899999998,121.577308
統一超商,28433507,台北市第六六０分公司,萬華區武昌街2段114-3、114-4號1樓,25.045131,121.504727
統一超商,28435189,台北市第五九一分公司,北投區溫泉路70號1樓,25.135148,121.5049037
統一超商,28436384,台北市第六六一分公司,大同區太原路42號1樓,25.050517000000003,121.51514399999999
統一超商,28437573,台北市第六六三分公司,萬華區青年路144號1樓,25.021584899999997,121.502404
統一超商,28438030,台北市第六六六分公司,中正區一江街11、13號1樓,25.0511675,121.531581
統一超商,28438377,台北市第六六五分公司,中正區信陽街2-1號1樓,25.044586499999998,121.5167517
統一超商,28438735,台北市第六六二分公司,中正區福州街11-3、11-4號1樓,25.0296263,121.51977409999999
統一超商,28438876,台北市第六六七分公司,文山區木新路327號1樓,24.9804372,121.556371
統一超商,28970365,台北市第六六九分公司,北投區裕民里17鄰懷德街85號1樓,25.114069699999998,121.51964779999999
統一超商,28970864,台北市第六七０分公司,士林區永平里延平北路6段202、204號1樓,25.089942899999997,121.50615800000001
統一超商,28970956,台北市第六七一分公司,北投區尊賢街247、247-1號1樓,25.117569500000002,121.50671000000001
統一超商,28971744,台北市第六七三分公司,中山區松江路101號1樓,25.051150699999997,121.53326070000001
統一超商,28972032,台北市第六七二分公司,大安區仁愛路4段151巷27號1樓,25.0395969,121.5518828
統一超商,28973089,台北市第六七四分公司,內湖區康寧路3段63、65、67號1樓,25.0723656,121.6082852
統一超商,28973314,台北市第六七五分公司,內湖區港富里文德路99號1樓,25.078787,121.5833524
統一超商,28975093,台北市第六七七分公司,內湖區文德路6號1樓,25.0784757,121.57889890000001
統一超商,28975333,台北市第六七六分公司,中山區德惠街15號1樓,25.066759,121.52600290000001
統一超商,28976706,台北市第六八○分公司,大同區民生西路214、216號1樓,25.0568694,121.51499579999998
統一超商,28977579,台北市第六八一分公司,中正區博愛路97號1樓,25.043067,121.51164399999999
統一超商,28978303,台北市第六八二分公司,大安區金山南路2段18號1樓,25.0332237,121.52690590000002
統一超商,28979387,台北市第六八四分公司,內湖區內湖路1段669號1樓,25.0800437,121.57599280000001
統一超商,28980096,台北市第六八三分公司,士林區中山北路7段156號1樓,25.123971100000002,121.5326611
統一超商,28981623,台北市第六八五分公司,內湖區東湖路119巷49弄2號1樓,25.069894199999997,121.61713780000001
統一超商,28982405,台北市第六八六分公司,中正區思源街16號1樓,25.0142587,121.53128170000001
統一超商,28982587,台北市第六八七分公司,信義區松仁路91-1號1樓,25.036844600000002,121.56865459999999
統一超商,28983777,台北市第六八八分公司,松山區吉祥里南京東路5段66巷3弄1號1樓,25.0509046,121.5610269
統一超商,28986057,台北市第六八九分公司,中山區長安東路2段178、178號之1一樓,25.048241,121.54069150000001
統一超商,28989174,台北市第六九一分公司,大同區民權西路157-1號1樓,25.0631603,121.5162926
統一超商,28989245,台北市第六九○分公司,萬華區武昌街2段57號1樓,25.0447812,121.5072107
統一超商,28991137,台北市第六九二分公司,內湖區瑞光路76巷59號1樓,25.0701956,121.58030259999998
統一超商,28991848,台北市第六九四分公司,中正區中華路1段41號1樓,25.0350258,121.5067594
統一超商,28991875,台北市第六九三分公司,中山區建國北路2段151巷8號1樓,25.061697100000004,121.5380976
統一超商,28991896,台北市第六九五分公司,南港區南港里南港路1段167號1樓,25.0550967,121.6133095
統一超商,28993331,台北市第六九六分公司,南港區三重路19、19-1號1樓,25.0586414,121.61362720000001
統一超商,28993959,台北市第六九七分公司,文山區羅斯福路5段249號1樓,25.001530300000002,121.539676
統一超商,28995345,台北市第六九八分公司,文山區辛亥路4段132號1樓,25.0043174,121.55647900000001
統一超商,28995485,台北市第六九九分公司,中山區南京西路12巷9號1樓,25.051821,121.52150400000001
統一超商,28996739,台北市第七○○分公司,松山區吉祥村光復北路11巷44號1樓,25.049613,121.5595939
統一超商,28998125,台北市第七○二分公司,萬華區漢中街185、187號1樓,25.041138,121.50684199999999
統一超商,29182129,台北市第七○四分公司,南港區三重路23號1樓,25.0591835,121.61409640000001
統一超商,43003908,台北市第八六一分公司,內湖區陽光街349號1樓,25.073075,121.57759309999999
統一超商,43004955,台北市第八六０分公司,士林區德行東路6-2號1樓,25.1063353,121.5253896
統一超商,43056708,台北市第八六三分公司,內湖區東湖路120號1樓,25.0681157,121.6161773
統一超商,43062201,台北市第八六二分公司,大同區南京西路296、298號1樓,25.050801899999996,121.51831010000001
統一超商,43141803,台北市第八六四分公司,大安區金華街140號1樓,25.029821,121.528376
統一超商,51002608,台北市第八六九分公司,大安區敦化南路1段247巷12號1樓,25.038778,121.5500384
統一超商,51007625,台北市第八七二分公司,大安區信義路4段294巷7號1樓,25.032600600000002,121.55438490000002
統一超商,51007717,台北市第八七０分公司,中山區南京東路2段11號1樓,25.0523055,121.52845190000001
統一超商,51008363,台北市第八六八分公司,南港區忠孝東路7段359號1樓,25.052374899999997,121.6050348
統一超商,51010121,台北市第八七一分公司,北投區石牌路2段179號1樓,25.1186029,121.5182004
統一超商,51015569,台北市第八七四分公司,大安區基隆路4段43號1樓,25.0132497,121.5411187
統一超商,51075209,台北市第八七三分公司,信義區松山路11號1樓,25.0491901,121.57829939999999
統一超商,51076283,台北市第八七五分公司,萬華區萬大路486巷61、63號1樓,25.0205189,121.495798
統一超商,51085234,台北市第八七六分公司,松山區南京東路5段16號1樓,25.0513242,121.5588287
統一超商,51085396,台北市第八七七分公司,北投區西安街2段345號1樓,25.1207265,121.50537460000001
統一超商,51104801,台北市第八七九分公司,中山區樂群三路218號1樓,25.0823185,121.55806969999999
統一超商,51183501,台北市第八八０分公司,中山區中山北路2段77巷3、5號1樓,25.056163,121.52351399999999
統一超商,51235178,台北市第八八一分公司,士林區基河路368、370號1樓,25.0948165,121.5185817
統一超商,51252507,台北市第八八二分公司,士林區後港街210號1樓,25.0883909,121.520599
統一超商,51298406,台北市第八八三分公司,松山區南京東路4段52巷1號1樓,25.051167899999996,121.553694
統一超商,51317831,台北市第九四六分公司,內湖區港墘路46、48號1樓,25.0820648,121.5780385
統一超商,51328078,台北市第九四七分公司,大安區信義路2段198巷6號1樓、B1樓,25.033004000000002,121.530336
統一超商,51365805,台北市第八八四分公司,大同區華陰街91號1樓,25.0498408,121.5175818
統一超商,51442535,台北市第八八五分公司,大安區安東街50之2、50之3、50之4號1樓,25.042891100000002,121.5424508
統一超商,51443345,台北市第八八六分公司,松山區敦化北路340之10號1樓,25.063731699999998,121.5503315
統一超商,51443540,台北市第八八七分公司,大安區永康街2巷12號1樓,25.0332016,121.5291838
統一超商,51450817,台北市第八八八分公司,北投區石牌路2段348巷1號、3號1樓,25.113429,121.51005020000001
統一超商,51450990,台北市第八八九分公司,萬華區西寧南路141號1樓,25.044047199999998,121.5064303
統一超商,51469604,台北市第九０一分公司,文山區木柵路4段117、119號1樓,24.9976657,121.5737567
統一超商,51512200,台北市第八九０分公司,士林區士東路266巷5弄18、20號1樓,25.1124612,121.53756920000001
統一超商,51527153,台北市第八九二分公司,士林區德行東路109巷102弄15號1樓、地下室,25.110913399999998,121.52952749999999
統一超商,51527554,台北市第八九一分公司,北投區光明路132-2號1樓,25.133616,121.50216
統一超商,51528195,台北市第八九三分公司,松山區南京東路4段133巷6弄1號1樓,25.052635600000002,121.55503870000001
統一超商,51529737,台北市第八九四分公司,內湖區堤頂大道2段411號1樓,25.080536499999997,121.56295459999998
統一超商,51532000,台北市第九O二分公司,大安區羅斯福路三段193號1樓,25.0210652,121.5281383
統一超商,51567703,台北市第八九五分公司,中山區中山北路2段39巷8號1樓,25.0539157,121.52350919999999
統一超商,51568766,台北市第八九六分公司,內湖區基湖路35巷13號1樓,25.079813199999997,121.56550370000001
統一超商,51590900,台北市第八九七分公司,中山區松江路418及420號1樓,25.064366,121.533576
統一超商,51605707,台北市第八九八分公司,大同區延平北路3段19-5及21號1樓,25.0633642,121.51117959999999
統一超商,51619147,台北市第八九九分公司,松山區慶城街1號1樓,25.0528006,121.544604
統一超商,51624177,台北市第九００分公司,信義區福德街308號及310巷1號1樓,25.039357199999998,121.5874363
統一超商,51627961,台北市第九一六分公司,信義區忠孝東路5段68號24樓,25.0405044,121.56689640000002
統一超商,51630706,台北市第九一七分公司,大安區復興南路1段107巷5弄1號1樓,25.043732199999997,121.54444850000002
統一超商,51668104,台北市第九一八分公司,中山區南京東路2段144號1樓,25.05172,121.533965
統一超商,51701737,台北市第九一九分公司,中正區忠孝西路1段49號地下1樓,25.046546799999998,121.51755520000002
統一超商,51707872,台北市第九二０分公司,中山區林森北路101號1樓,25.0501796,121.52502279999999
統一超商,51713712,台北市第九二一分公司,中山區松江路237號1樓,25.0590059,121.53353940000001
統一超商,51716302,台北市第九二二分公司,松山區南京東路四段75之2號1樓,25.0523079,121.55356090000002
統一超商,51722509,台北市第九二三分公司,中山區敬業一路130號1樓,25.083627399999997,121.55248200000001
統一超商,51740909,台北市第九二四分公司,中正區和平西路2段152、152-1、154、154-1號 1樓,25.032971300000003,121.50556709999998
統一超商,51749107,台北市第九二五分公司,萬華區武昌街2段122-1號1、2樓,25.0452448,121.50393940000001
統一超商,53001458,台北市第七○六分公司,北投區中央北路3段55、57號1樓,25.1379676,121.4850814
統一超商,53002105,台北市第七○七分公司,中山區明水路636號1樓；樂群三路1號1樓,25.08279,121.553249
統一超商,53004315,台北市第四十八分公司,大安區黎孝里安居街33號1樓,25.020419399999998,121.5543885
統一超商,53004379,台北市第四十分公司,北投區公館路165號1樓、165-1號B1,25.12944,121.506818
統一超商,53004547,台北市第一四五分公司,北投區立德路125號1樓,25.1284955,121.4720103
統一超商,53005659,台北市第三二二分公司,南港區向陽路166號1樓,25.055774300000003,121.59426409999999
統一超商,53006340,台北市第三九七分公司,中正區開封街1段40、42號1樓,25.0459057,121.51226399999999
統一超商,53008699,台北市第四分公司,信義區基隆路一段178、180號1樓,25.042480100000002,121.56494540000001
統一超商,53009986,台北市第七十分公司,松山區復興北路313巷25號1樓,25.059017899999997,121.5462756
統一超商,53009992,台北市第六十七分公司,士林區前港里後港街98之1、98之2號1樓,25.0876968,121.5207619
統一超商,53010040,台北市第十一分公司,大安區信義路4段74號1樓,25.0330759,121.5464175
統一超商,53011147,台北市第一一五分公司,大安區四維路170巷8號1樓,25.028109,121.5476361
統一超商,53011771,台北市第五十八分公司,北投區溫泉路73巷5號地下2樓之1,25.1359056,121.5058696
統一超商,53012167,台北市第二二九分公司,中正區紹興北街37號1樓,25.045473899999998,121.52554270000002
統一超商,53012201,台北市第二０六分公司,松山區南京東路5段315號1樓,25.0515812,121.56682509999999
統一超商,53012217,台北市第一五五分公司,中山區林森北路380號之1  1樓,25.0584415,121.5253511
統一超商,53014334,台北市第二九三分公司,松山區八德路3段20-2號1樓,25.0481,121.55109740000002
統一超商,53014355,台北市第二九一分公司,內湖區行善路64號1樓,25.057055899999998,121.57628159999999
統一超商,53014539,台北市第二七三分公司,內湖區民權東路6段296巷3號1樓,25.0724217,121.60560090000001
統一超商,53016797,台北市第二四四分公司,信義區和平東路3段461、461-1號1樓,25.018652499999998,121.5590639
統一超商,53017698,台北市第四一九分公司,內湖區清白里金湖路49號1樓,25.082207800000003,121.596681
統一超商,53017938,台北市第四五九分公司,內湖區成功路4段359號1樓,25.084448300000002,121.6000629
統一超商,53019823,台北市第四五三分公司,士林區光華路26巷10號1樓,25.1373124,121.5416346
統一超商,53022215,台北市第四七０分公司,大安區敦化南路2段238號1樓,25.020961,121.54835520000002
統一超商,53023994,台北市第八0一分公司,中山區松江路295、295-1號1樓,25.061016600000002,121.53337490000001
統一超商,53024001,台北市第八0二分公司,中山區長安東路1段75號1樓,25.0485276,121.5280405
統一超商,53025466,台北市第八0三分公司,內湖區環山路2段81、83號1樓,25.084751,121.57481640000002
統一超商,53025775,台北市第八0五分公司,中山區中山北路2段11巷1、3號1樓,25.0595479,121.5241784
統一超商,53026319,台北市第八０七分公司,北投區立德路15號1樓,25.124798199999997,121.471475
統一超商,53026508,台北市第八０八分公司,信義區基隆路1段398號1樓,25.0342889,121.56002659999999
統一超商,53026541,台北市第八０六分公司,信義區福德街159、161號1樓,25.0376944,121.58331640000002
統一超商,53027302,台北市第八０九分公司,南港區鴻福里中坡南路47號1樓,25.042859399999998,121.5835986
統一超商,53027339,台北市第八一０分公司,信義區基隆路2段155號1樓,25.025906600000003,121.55450479999999
統一超商,53027345,台北市第八一一分公司,內湖區內湖路1段285巷65弄3、5號1樓,25.085303500000002,121.5584061
統一超商,53027513,台北市第八一二分公司,中正區辛市里忠孝東路2段100號1樓,25.04419,121.52811270000001
統一超商,53027534,台北市第八一三分公司,大同區至聖里酒泉街25、27號1樓,25.070731600000002,121.51938009999999
統一超商,53028034,台北市第八一四分公司,萬華區頂碩里莒光路216號、萬大路57號1樓,25.031823100000004,121.50370079999999
統一超商,53028724,台北市第八一五分公司,中山區江山里建國北路2段127號1樓,25.060012,121.53746000000001
統一超商,53649857,台北市第八一六分公司,大安區敦化南路2段182號1樓,25.023575899999997,121.5483433
統一超商,53650122,台北市第八一七分公司,士林區德華里文林路669號1樓,25.1008507,121.5221153
統一超商,53650143,台北市第八一八分公司,信義區逸仙路42巷25號1樓,25.040468,121.563152
統一超商,53650191,台北市第八一九分公司,萬華區昆明街197、199號1樓,25.0391417,121.5041869
統一超商,53651229,台北市第八二0分公司,大同區延平北路2段232、234號1樓、涼州街72巷11號1樓,25.0601893,121.51081529999999
統一超商,53651831,台北市第八二二分公司,士林區基河路132號1樓,25.0890872,121.5227567
統一超商,53651852,台北市第八二一分公司,大安區敦化南路2段331巷14號1樓,25.0226046,121.5496078
統一超商,53651868,台北市第八二三分公司,大安區敦化南路2段265巷6號1樓,25.0253682,121.54955670000001
統一超商,53652058,台北市第八二四分公司,文山區秀明路2段8、10號1樓,24.9916108,121.5741389
統一超商,53652120,台北市第八二五分公司,信義區基隆路1段333號地下三樓,25.0343199,121.56072569999999
統一超商,53652466,台北市第八二六分公司,內湖區內湖路3段61、63號1樓、59巷1號1樓,25.0846551,121.59239380000001
統一超商,53653253,台北市第八二七分公司,內湖區民權東路6段180巷17、19號1樓,25.068261899999996,121.59289170000001
統一超商,53654020,台北市第八二八分公司,士林區延平路6段122、124號1樓,25.0885705,121.50375179999999
統一超商,53654302,台北市第八三一分公司,大安區臥龍街252、252-1號1樓,25.0184064,121.5570125
統一超商,53654339,台北市第八二九分公司,大安區羅斯福路3段245號1樓,25.019332000000002,121.529996
統一超商,53654372,台北市第八三０分公司,中山區民權東路2段96、98號1樓,25.0623477,121.5318334
統一超商,53655409,台北市第八三二分公司,內湖區金龍路215號1樓,25.088142899999998,121.587246
統一超商,53655822,台北市第八三四分公司,南港區玉成街150號1樓,25.0450006,121.583643
統一超商,53656152,台北市第八三七分公司,大安區仁愛路3段74號1樓,25.037543,121.5385
統一超商,53656272,台北市第八三六分公司,中山區林森北路108號1樓,25.0509333,121.5249159
統一超商,53656287,台北市第八三八分公司,中正區廈門街99巷19-2號1樓,25.0239768,121.51881399999999
統一超商,53656694,台北市第八三九分公司,中正區寧波東街17號1樓,25.033101000000002,121.52027679999999
統一超商,53657357,台北市第八四０分公司,萬華區長沙街2段87號1樓,25.0406072,121.5048372
統一超商,53658383,台北市第八四三分公司,大同區重慶北路3段47、49號1樓,25.0673365,121.51529309999998
統一超商,53658996,台北市第八四六分公司,大同區南京西路233巷15、17號1樓,25.054271,121.51053799999998
統一超商,53659088,台北市第八三五分公司,大安區敦化南路2段99號1樓,25.0288698,121.5494371
統一超商,53659171,台北市第八四五分公司,北投區大興街44、46號1樓,25.130106899999998,121.4993545
統一超商,53659524,台北市第八四七分公司,中正區武昌街1段45號1樓,25.0442046,121.5111993
統一超商,53660276,台北市第八四九分公司,信義區崇德街104、106號1樓,25.023995000000003,121.555603
統一超商,53660297,台北市第八五一分公司,內湖區五分街33、35號1樓,25.067643,121.61338529999999
統一超商,53660326,台北市第八五０分公司,大安區濟南路3段12號1樓,25.040114000000003,121.5338551
統一超商,53660374,台北市第八四八分公司,大安區忠孝東路4段205巷7弄5號1樓,25.04216,121.55220020000002
統一超商,53660732,台北市第八五二分公司,文山區羅斯福路五段216號1樓,25.002326999999998,121.53856040000001
統一超商,53660753,台北市第八五三分公司,大同區承德路三段55、57號1樓,25.0652109,121.51856629999999
統一超商,53660780,台北市第八五五分公司,內湖區內湖路二段407、409號1樓,25.084558899999998,121.5933049
統一超商,53664131,台北市第七一一分公司,內湖區瑞光路406號1樓,25.0780514,121.57058059999999
統一超商,53664955,台北市第七一二分公司,中山區建國北路2段13號1樓,25.053742,121.53730900000001
統一超商,53665309,台北市第七一０分公司,中山區中山北路2段44巷2號1樓,25.054889499999998,121.5213932
統一超商,53666010,台北市第七一三分公司,信義區永吉路30巷168弄1號1樓,25.043098,121.5682983
統一超商,53666047,台北市第七一四分公司,松山區南京東路5段15號1樓,25.0518053,121.55791370000001
統一超商,53667051,台北市第七一六分公司,中山區民生東路1段46、46-1號1樓,25.057901100000002,121.5243957
統一超商,53667714,台北市第七一七分公司,中山區吉林路209號1樓,25.060244600000004,121.53037320000001
統一超商,53668729,台北市第七二０分公司,士林區中山北路6段18、20號1樓,25.1039515,121.5267463
統一超商,53668805,台北市第七一九分公司,中正區信義路2段15號1樓,25.035217499999998,121.52534909999999
統一超商,53670555,台北市第七二二分公司,內湖區瑞光路188巷51號1樓,25.0739879,121.57605900000001
統一超商,53670577,台北市第七二一分公司,大安區仁愛路4段122巷50號1樓,25.03443,121.55012859999998
統一超商,53670892,台北市第七二五分公司,士林區延平北路5段134號1樓,25.0839915,121.51119779999999
統一超商,53671082,台北市第七二四分公司,大安區基隆路4段43號,25.0132497,121.5411187
統一超商,53671251,台北市第七二六分公司,北投區知行路185號1樓,25.1191056,121.4661666
統一超商,53672195,台北市第七二八分公司,大安區敦南街38號1樓,25.0233488,121.54647179999999
統一超商,53675952,台北市第七三一分公司,士林區克強路11、11-1號1樓,25.1087479,121.52444270000001
統一超商,53676495,台北市第七三０分公司,松山區敦化北路100號1樓,25.052429800000002,121.5484124
統一超商,53676636,台北市第七三三分公司,中山區龍江路356巷39、41號1樓,25.066155,121.539345
統一超商,53677353,台北市第七三二分公司,萬華區成都路96號1樓、昆明街136巷1弄11號1樓,25.0420139,121.5068592
統一超商,53677403,台北市第七三四分公司,士林區劍潭路21號1樓,25.0841687,121.52258159999998
統一超商,53677733,台北市第七三五分公司,中山區林森北路107巷15號1樓,25.0503204,121.5256788
統一超商,54369426,台北市第七三六分公司,南港區忠孝東路6段465號1樓,25.050926899999997,121.5941014
統一超商,54370232,台北市第七三七分公司,中山區明水路397巷7弄25號1樓,25.0781193,121.5494913
統一超商,54371513,台北市第七三九分公司,松山區延壽街99號1樓,25.057222399999997,121.5662934
統一超商,54371648,台北市第七三八分公司,士林區天母東路88-1號1樓,25.1179559,121.53582890000001
統一超商,54371942,台北市第七四０分公司,士林區大東路123、125號1樓,25.0915938,121.5254493
統一超商,54372415,台北市第七四一分公司,文山區羅斯福路5段21號1樓,25.007923,121.538523
統一超商,54372843,台北市第七四二分公司,北投區致遠一路2段49、51號1樓,25.111991,121.513601
統一超商,54373316,台北市第七四三分公司,士林區華岡路45-1號1樓,25.137841,121.54211799999999
統一超商,54374069,台北市第七四六分公司,中山區錦州街229號1樓,25.060427899999997,121.5324122
統一超商,54374080,台北市第七四五分公司,信義區吳興街486、488號1樓,25.0234125,121.56950559999999
統一超商,54374645,台北市第七四七分公司,士林區德行東路106、108號1樓,25.111009699999997,121.52887720000001
統一超商,54374785,台北市第七四八分公司,內湖區洲子街102號1樓,25.079991,121.57059
統一超商,54375882,台北市第七四九分公司,北投區立功街76號1樓,25.125008899999997,121.4696585
統一超商,54378488,台北市第七五一分公司,北投區中和街314、316號1樓,25.140963,121.49991899999999
統一超商,54378712,台北市第七五０分公司,萬華區昆明街285-3、285-4號1樓,25.0367448,121.50370559999999
統一超商,54378972,台北市第七五二分公司,松山區敦化北路199巷2弄9號1樓,25.0554268,121.55004140000001
統一超商,54379043,台北市第七五三分公司,內湖區瑞光路316巷56號1樓,25.0758022,121.57281880000001
統一超商,54379613,台北市第七五四分公司,南港區研究院路2段94、96號1樓、98巷1號1樓,25.0441638,121.6158172
統一超商,54382954,台北市第七五五分公司,內湖區金湖路405號1樓,25.0733588,121.60439050000001
統一超商,54383193,台北市第七五六分公司,松山區民權東路3段160巷9號1樓,25.0607534,121.54786940000001
統一超商,54383877,台北市第七五七分公司,中山區龍江路104號1樓,25.066017300000002,121.53738020000002
統一超商,54384263,台北市第七五八分公司,中山區明水路581巷15號1樓,25.080134,121.55093000000001
統一超商,54384307,台北市第七五九分公司,南港區經貿二路168號4樓,25.058724899999998,121.6165477
統一超商,54384947,台北市第七六二分公司,南港區研究院路三段72、74號1樓,25.0347176,121.6141909
統一超商,54384952,台北市第七六０分公司,中山區興安街112號1樓,25.0559021,121.543122
統一超商,54385410,台北市第七六一分公司,萬華區西園路一段238號1、2樓,25.0348072,121.4988354
統一超商,54386207,台北市第七六三分公司,內湖區環山路1段70號1樓,25.086539000000002,121.566875
統一超商,54386868,台北市第七六四分公司,中山區南京東路3段21號1樓,25.052312899999997,121.537779
統一超商,54387249,台北市第七六五分公司,士林區延平北路5段269、271號1樓,25.0852744,121.5095804
統一超商,54387395,台北市第七六六分公司,大安區仁愛路4段79號1樓,25.0381898,121.54735079999999
統一超商,54387971,台北市第七六七分公司,中正區汀州路3段269號1樓,25.0125702,121.5354337
統一超商,54388015,台北市第七六八分公司,萬華區成都路27巷1號1樓,25.042739899999997,121.50691100000002
統一超商,54388063,台北市第七六九分公司,大同區長安西路45-2、47號1樓,25.050794600000003,121.5179706
統一超商,54388752,台北市第七七一分公司,信義區虎林街222巷7、9號1樓,25.037183,121.577097
統一超商,54388789,台北市第七七二分公司,大同區民族西路246、248號1樓,25.0685042,121.5125196
統一超商,54389133,台北市第七七三分公司,萬華區興義街6、8號1樓,25.026678699999998,121.49166389999999
統一超商,54389181,台北市第七七四分公司,大安區泰順街64號1樓,25.022223,121.531154
統一超商,54390027,台北市第七七五分公司,大安區和平東路3段298、300號及和平東路3段308巷2弄9號,25.024383800000003,121.54249109999998
統一超商,54390309,台北市第七七六分公司,信義區忠孝東路5段470號1樓,25.0406569,121.576851
統一超商,54390722,台北市第七七七分公司,萬華區西藏路107、107-1號1樓,25.0297015,121.5035108
統一超商,54394348,台北市第七七八分公司,南港區經貿二路186號2樓,25.0588492,121.61493279999999
統一超商,54394353,台北市第七七九分公司,信義區松德路127號1樓,25.037434,121.57529699999999
統一超商,54394706,台北市第七八０分公司,士林區福華路126號1樓,25.1027074,121.5228906
統一超商,54395043,台北市第七八一分公司,信義區松高路12號B1樓,25.0388485,121.56680159999998
統一超商,54397773,台北市第七八四分公司,萬華區寶興街43號、45號1樓,25.027372,121.49347
統一超商,54398219,台北市第七八五分公司,士林區華齡街17巷2號、4號1樓,25.0839629,121.52151740000001
統一超商,54399028,台北市第七八三分公司,中山區敬業三路11號1樓,25.083638600000004,121.55594140000001
統一超商,70744617,台北市第四二八分公司,松山區八德路四段七六七七六九號一樓,25.048354500000002,121.5623004
統一超商,70744623,台北市第四二九分公司,中正區林森南路十二號一樓,25.0425552,121.52255890000002
統一超商,70744905,台北市第四三０分公司,大安區忠孝東路四段一０一巷七號一樓,25.042137399999998,121.5481601
統一超商,70745475,台北市第四三一分公司,信義區基隆路2段131-3、131-4號1樓,25.027971,121.556901
統一超商,70746116,台北市第四三二分公司,中正區林森南路51、53、55號1樓,25.0402245,121.5221926
統一超商,70746122,台北市第四三三分公司,中山區松江路183、183之1號1樓,25.05645,121.53328799999998
統一超商,70746713,台北市第四三四分公司,文山區指南路二段一四九號一樓,24.987469,121.57724440000001
統一超商,70747380,台北市第四三六分公司,大安區樂利路二九號二九之一號一樓,25.027395199999997,121.55155790000002
統一超商,70747396,台北市第四三七分公司,北投區中央北路一段一０八號一樓,25.133334299999998,121.50142930000001
統一超商,70750835,台北市第四三八分公司,內湖區行善里行善路三十五號一樓,25.056831,121.5764051
統一超商,70751497,台北市第四三九分公司,大安區信義路三段臨一０一號一樓,25.0331649,121.5428889
統一超商,70754348,台北市第四四二分公司,大同區民生西路三四三、三四五號一樓,25.0570861,121.51287590000001
統一超商,70754353,台北市第四四三分公司,中正區汀州路三段129號1樓,25.016345899999997,121.5306449
統一超商,70757078,台北市第四四五分公司,松山區市民大道四段一０五號一樓,25.0447249,121.5517027
統一超商,70758323,台北市第四四七分公司,松山區新東街41之7號1樓,25.0603492,121.56555549999999
統一超商,70759293,台北市第四四九分公司,信義區景新里莊敬路三二五巷四十三號一樓,25.0291055,121.5648436
統一超商,70761381,台北市第四五二分公司,萬華區西園路一段一五三號地下一樓,25.0354487,121.49957909999999
統一超商,70764795,台北市第四五五分公司,中山區龍江路384巷1、3號1樓,25.0478601,121.54065849999999
統一超商,70764970,台北市第四五六分公司,中山區建國北路一段一三六號一樓,25.051002800000003,121.5363886
統一超商,70765226,台北市第四五八分公司,內湖區新明路四二七號一樓,25.0547324,121.5810369
統一超商,70765817,台北市第四六一分公司,士林區雨農路二十五號一樓,25.098575600000004,121.5322642
統一超商,70766604,台北市第四六二分公司,內湖區瑞光路517號1樓,25.079184100000003,121.5693297
統一超商,70766610,台北市第四六三分公司,中正區仁愛路二段三十九、三十九之一號一樓,25.038317000000003,121.529055
統一超商,70767239,台北市第四六四分公司,內湖區文湖街83、85號1樓,25.0865764,121.5641483
統一超商,70767842,台北市第四六七分公司,大同區寧夏路71、73號1樓,25.0584875,121.51523130000001
統一超商,70772747,台北市第四七四分公司,松山區民生東路四段一三０號一樓,25.0578234,121.54982679999999
統一超商,70774560,台北市第四七五分公司,內湖區東湖里東湖路一一三巷八十八號,25.071955300000003,121.6157119
統一超商,70775771,台北市第四七六分公司,士林區大南路三二二號一樓,25.088962300000002,121.5182636
統一超商,70777623,台北市第四八一分公司,中山區龍江路239號1樓,25.0582971,121.5408346
統一超商,70779191,台北市第四八二分公司,大安區基隆路二段142-1、142-2號1樓,25.0282447,121.55661540000001
統一超商,70780388,台北市第六十二分公司,中正區衡陽路6號1樓,25.042208,121.513777
統一超商,70781008,台北市第八０分公司,士林區社中街211號1樓,25.091006,121.50867290000001
統一超商,70781014,台北市第八十三分公司,南港區成福里東新街118巷1、3號1樓,25.046466199999998,121.58838940000001
統一超商,70781865,台北市第四十三分公司,中山區晴光里十四鄰中山北路三段四十七號一樓,25.066614,121.5227165
統一超商,70784791,台北市第九十一分公司,中山區民生東路三段三十一號一樓,25.0580663,121.539111
統一超商,70787328,台北市第一四九分公司,萬華區環河南路二段252號1樓、環河南路二段250巷1號1樓,25.036913199999997,121.49537859999998
統一超商,70790908,台北市第一０五分公司,大安區辛亥路二段五十七號一樓,25.0230569,121.537167
統一超商,70791054,台北市第一七九分公司,大安區復興南路一段一三五巷五號一樓,25.042776899999996,121.5446297
統一超商,70793588,台北市第二三０分公司,大安區忠孝東路四段二十六巷五號一樓,25.041138500000002,121.54448980000001
統一超商,70799035,台北市第三一五分公司,中山區樂群二路206號1樓,25.0796417,121.55908149999999
統一超商,70799041,台北市第三四五分公司,信義區松隆路192、194巷1樓,25.046757100000004,121.5722919
統一超商,70799400,台北市第三四八分公司,中正區杭州南路一段二十三號一樓,25.0424074,121.5265416
統一超商,70800384,台北市第三五七分公司,內湖區成功路四段三十巷二十七、二十九、三十一號一樓,25.084028600000003,121.5951732
統一超商,70801243,台北市第三九０分公司,信義區忠孝東路五段六一七號一樓,25.041691699999998,121.57905420000002
統一超商,70802165,台北市第二００分公司,內湖區成功路五段四二０巷三十號一樓,25.0754117,121.6086647
統一超商,70803100,台北市第一五九分公司,中正區寧波西街86之1號,25.0298397,121.5158945
統一超商,70803571,台北市第四八五分公司,大安區安和路二段七十四巷一號一樓,25.0300214,121.5515962
統一超商,70804662,台北市第四八七分公司,大同區承德路3段240、242號1樓,25.072542000000002,121.518552
統一超商,70804831,台北市第四八八分公司,士林區德行西路九十六號一樓,25.104145000000003,121.52126899999999
統一超商,70804847,台北市第四八九分公司,內湖區瑞光路一九六號一樓,25.0747204,121.57700179999999
統一超商,70807507,台北市第三二六分公司,中山區南京東路3段208號1樓,25.0516723,121.543218
統一超商,70808288,台北市第四九一分公司,中山區樂群二路154號1樓,25.079899899999997,121.5570619
統一超商,70809076,台北市第四九三分公司,士林區大南路400、402號1樓,25.089537699999997,121.5158598
統一超商,70809266,台北市第四九五分公司,大安區信義路四段三十二號一樓,25.033158,121.5446977
統一超商,70811039,台北市第四０三分公司,中山區長春路一三五、一三五之一號一樓,25.054312699999997,121.54236370000001
統一超商,70812353,台北市第五００分公司,信義區松山路136號、138號、138之1號1樓,25.0490105,121.5788896
統一超商,70813584,台北市第五０一分公司,大安區忠孝東路三段二四九之一號一樓,25.042391100000003,121.5386018
統一超商,70814438,台北市第七十二分公司,南港區重陽路164號1樓,25.0571513,121.600925
統一超商,70815422,台北市第五０二分公司,松山區復興南路一段四十三號一樓,25.0456551,121.5440605
統一超商,70815437,台北市第五０三分公司,內湖區洲子街四十六號一樓,25.0790027,121.57332690000001
統一超商,70816098,台北市第一七三分公司,中山區林森北路310巷10號1樓、中山北路二段59巷55、55-1、55-2、55-3、55-4、57、59號1樓,25.056120999999997,121.52478049999999
統一超商,70816273,台北市第四六六分公司,大同區南京西路一二七號一樓,25.0542783,121.51457020000001
統一超商,70816560,台北市第五０四分公司,士林區福港街246、248號1樓,25.0843468,121.51749070000001
統一超商,70817596,台北市第五０五分公司,內湖區西康里瑞光路五八三巷二十七號一樓,25.080904800000003,121.56803049999999
統一超商,70820282,台北市第五０七分公司,大安區和平東路一段一六九號一樓,25.0265332,121.5317508
統一超商,70820683,台北市第五０八分公司,內湖區陽光街三八三號一樓,25.072742,121.5763666
統一超商,70820699,台北市第五０九分公司,內湖區陽光街一五九號一樓,25.0750063,121.58530159999998
統一超商,70820706,台北市第五一０分公司,萬華區峨嵋街一一一之二、一一一之三號一樓,25.043618,121.50686999999999
統一超商,70821819,台北市第二二二分公司,信義區忠孝東路五段一之六號一樓,25.0409991,121.56753559999999
統一超商,70824230,台北市第九十四分公司,士林區中正路三二四號一樓,25.0947384,121.522517
統一超商,70825322,台北市第四００分公司,大同區承德路一段二十二號一樓,25.050499,121.5166991
統一超商,70827172,台北市第一八八分公司,松山區寶清街34號1樓,25.052698499999998,121.56773190000001
統一超商,70827187,台北市第四三五分公司,松山區東興路13-1號1樓；15巷3號1樓,25.0501794,121.5654753
統一超商,80020915,台北市第二三二分公司,中山區錦州街二六三號一樓,25.0603801,121.5349465
統一超商,80022316,台北市第四十二分公司,中正區中華路一段五十九之十六、五十九之十七號一樓,25.0439908,121.5087626
統一超商,80023429,台北市第四四六分公司,大安區信義路三段三十三號一樓,25.0337685,121.5346828
統一超商,80023878,台北市第三十三分公司,士林區至善路二段二六四號,25.100437,121.550925
統一超商,80023883,台北市第五二三分公司,北投區中央北路二段十五、十七號,25.138216699999997,121.4920912
統一超商,80024166,台北市第五五二分公司,內湖區江南街71巷16弄76號1樓、江南街65巷51號1樓,25.076649,121.57880060000001
統一超商,80024172,台北市第五五三分公司,內湖區行愛路一二八號,25.063885600000003,121.58010490000001
統一超商,80026087,台北市第五五四分公司,內湖區康寧路三段一六五巷二十三弄一號,25.0715028,121.61217920000001
統一超商,80026170,台北市第五五五分公司,中正區羅斯福路二段六十八號一樓,25.0273496,121.52194009999998
統一超商,80027797,台北市第二七九分公司,萬華區福星里西寧南路16、18、18-1號1樓,25.046419,121.506853
統一超商,80028803,台北市第二二六分公司,萬華區福音里桂林路55號、57巷1號1樓,25.039892000000002,121.50379769999999
統一超商,80029486,台北市第二九六分公司,大同區鄭州路三之二號一樓,25.049015,121.51574029999999
統一超商,80030569,台北市第二五一分公司,中山區雙城街30號1樓,25.065886199999998,121.52418600000001
統一超商,80031862,台北市第五五七分公司,內湖區行忠路三十號,25.0652669,121.5775987
統一超商,80032102,台北市第四一五分公司,大安區仁愛路四段二六六巷十五弄二十二號一樓,25.036542800000003,121.5542291
統一超商,80032503,台北市第一０二分公司,南港區研究院路二段一五二號一樓,25.038389499999997,121.61691609999998
統一超商,80032519,台北市第二０一分公司,士林區陽明里格致路二十八號,25.136905399999996,121.54649029999999
統一超商,80329364,台北市第三○二分公司,大安區泰順街一三號一樓,25.025102,121.531544
統一超商,80333156,台北市第二七二分公司,士林區延平北路六段三五０、三五０之一號一樓,25.089519,121.50873329999999
統一超商,80333944,台北市第二一八分公司,內湖區金瑞里內湖路三段一四一巷七號一樓,25.0863297,121.5892423
統一超商,80333965,台北市第五二０分公司,中正區中華路二段一五七號一樓,25.0311561,121.50426170000001
統一超商,80334628,台北市第五二一分公司,北投區石牌路二段八號一樓,25.115382699999998,121.5155389
統一超商,80335669,台北市第五二四分公司,大安區安和路二段六十七號一樓,25.0305826,121.5525982
統一超商,80336436,台北市第四０八分公司,中正區南海路五十號一樓,25.032057100000003,121.51533090000001
統一超商,80339031,台北市第四十一分公司,中山區南京東路二段一一五巷一號一樓,25.0526067,121.5336873
統一超商,80339095,台北市第五二七分公司,內湖區港墘路221巷41號1樓,25.0732532,121.5750669
統一超商,80339779,台北市第五二九分公司,內湖區港華街40號1樓,25.0829757,121.5749132
統一超商,80339784,台北市第五三０分公司,北投區福興里承德路七段七十六號一樓,25.111447000000002,121.51081299999998
統一超商,80339975,台北市第五三一分公司,士林區文林路五三０號一樓,25.0870762,121.5256226
統一超商,80341819,台北市第五三三分公司,萬華區西寧南路八十號一樓,25.042502300000002,121.50586709999999
統一超商,80343555,台北市第五三五分公司,內湖區江南街一二八號一樓,25.0762405,121.5755241
統一超商,80343823,台北市第五三六分公司,南港區研究院路三段二三四號一樓,25.0339343,121.6105858
統一超商,80343990,台北市第五三七分公司,萬華區西寧南路五十巷三、五號一樓,25.0444972,121.50554709999999
統一超商,80344490,台北市第五四０分公司,萬華區西園路二段一四０巷五十二、五十二之一號一樓,25.028029999999998,121.49498419999999
統一超商,80346997,台北市第五四二分公司,中正區公園路十三號一樓,25.0455,121.51741399999999
統一超商,80347476,台北市第八十七分公司,中山區北安路六二一巷四十八號一樓,25.082836999999998,121.54643200000001
統一超商,80349045,台北市第五四四分公司,中山區中山北路二段九八號一樓,25.059896300000002,121.5226656
統一超商,80349988,台北市第二六五分公司,內湖區內湖路一段九十一巷二號一樓,25.0847347,121.5614702
統一超商,80350507,台北市第一六五分公司,北投區中庸里大業路七一五、七一七號,25.1370622,121.4997471
統一超商,80350529,台北市第四七九分公司,大安區復興南路二段十七號一樓,25.032398899999997,121.543897
統一超商,80351323,台北市第四七二分公司,文山區仙岩路18、18-1、18-2號1樓,24.999292999999998,121.548763
統一超商,80351604,台北市第五四五分公司,中正區衡陽路二十七號一樓,25.0424069,121.512841
統一超商,80352596,台北市第五四七分公司,文山區興旺里福興路二十號一樓,25.002804,121.55139199999999
統一超商,80353130,台北市第一三九分公司,中正區廈門街四十六號一樓,25.025584100000003,121.51739579999999
統一超商,80353146,台北市第三九九分公司,內湖區成功路四段346號1樓,25.084853,121.5996639
統一超商,80355215,台北市第三七四分公司,信義區永吉路30巷103、105號1樓,25.043539499999998,121.56883729999998
統一超商,80355377,台北市第五四九分公司,中山區松江路三六三號一樓,25.0639526,121.53345970000001
統一超商,80356024,台北市第五一五分公司,文山區景東里景華街一三０號一樓,24.9952603,121.54776240000001
統一超商,84250804,台北市第二三六分公司,大同區重慶北路三段309、311號1樓,25.0714112,121.51358379999999
統一超商,84250810,台北巿第２３５分公司,新生南路一段１００號１樓,25.034451899999997,121.5368977
統一超商,84252486,台北市第二三八分公司,信義區福德街247、249號1樓,25.0387563,121.5858873
統一超商,84252492,第２３９分公司,內湖區新明路３１７號１樓,25.0568882,121.5846595
統一超商,84252508,台北市第二四０分公司,萬華區中華路二段三四號之一號一樓,25.033039499999997,121.5049551
統一超商,84254668,台北市第二四五分公司,中山區吉林路一０一號一樓,25.058145,121.530098
統一超商,84255955,台北市第二四六分公司,士林區克強路八號一樓,25.108927800000004,121.52455570000001
統一超商,84442607,台北巿第２４７分公司,民生東路五段100號1樓,25.058441100000003,121.560323
統一超商,84442613,台北巿第２４８分公司,中正區臺北市和平東路一段九十一號１樓,25.026939000000002,121.52571509999999
統一超商,84445689,台北巿第２５３分公司,大安路二段１２０號１樓,25.030317800000002,121.545855
統一超商,84445695,台北巿第２５４分公司,北投區裕民一路40巷1號、3號1樓,25.116469100000003,121.51792240000002
統一超商,84445702,台北巿第２５５分公司,吳興街１５６巷2弄2、4號1樓,25.0291062,121.56145929999998
統一超商,84448047,台北巿第二五六分公司,萬華區桂林路156、158、160號1樓,25.038404999999997,121.49789299999999
統一超商,84448068,台北巿第２５７分公司,大安區臺北市敦化南路一段２３３巷二十五號１樓,25.0404296,121.550739
統一超商,84449159,台北市第２５９分公司,內湖區民權東路6段120巷7弄8號1樓,25.067753600000003,121.5875824
統一超商,84450057,台北巿第２６１分公司,北寧路66號1樓,25.0509126,121.5529446
統一超商,84703068,台北巿第２６２分公司,中山區北安路606號1樓,25.081976,121.54893200000001
統一超商,84703969,台北巿第２６３分公司,松山區新東街60巷16、18號1樓,25.0581289,121.56726200000001
統一超商,84706706,台北市第２６６分公司,和平西路1段26號1樓,25.0266129,121.52074350000001
統一超商,84708654,台北市第２６９分公司,文山區木柵路1段139、141號1樓,24.9876435,121.5502889
統一超商,84708660,台北市第二七０分公司,大同區寧夏路131-1號1樓、涼州街4-2號1樓,25.060890899999997,121.51486940000001
統一超商,84708900,臺北巿第２７１分公司,士林區社中街320、322號1樓,25.092339300000003,121.5051869
統一超商,84710309,台北市第２７４分公司,大安區仁愛路3段27號1樓,25.0386165,121.5344586
統一超商,84710589,台北巿第２７５分公司,中山區吉林路28號1樓,25.0515967,121.5299176
統一超商,84710595,台北巿第２７６分公司,北投區富貴一路3號1樓,25.113719399999997,121.5238185
統一超商,84892146,台北巿第２７７分公司,東湖路45號1樓,25.068914000000003,121.61412379999999
統一超商,84892700,台北巿第２７８分公司,中山北路1段105巷13號1樓,25.050835600000003,121.5232986
統一超商,84892906,台北巿第二八一分公司,文山區指南里十六鄰指南路三段八、十號一樓,24.9798244,121.58246729999999
統一超商,84893222,台北市第二八三分公司,忠孝東路四段五五九巷六號一樓,25.041892,121.563704
統一超商,84893428,台北巿第二八四分公司,松仁路二一三號一樓,25.0267673,121.5685436
統一超商,84893530,台北市第二八五分公司,忠孝東路二段一三０號之二、一三０號之三、一樓,25.042371,121.531806
統一超商,84893715,台北巿第二八六分公司,青年路18號1樓,25.026006,121.50572
統一超商,84894469,台北巿第二八八分公司,中山區長春路9、11號1樓,25.0550754,121.52361029999999
統一超商,84895185,台北市第二八九分公司,文山區木柵里九鄰木柵路三段八十八號一樓,24.9885359,121.566929
統一超商,84895312,台北市第二九０分公司,中山區農安街一七八號一樓,25.064548300000002,121.5348399
統一超商,84896109,台北市第２９２分公司,文山區興隆路3段108號1樓,24.999278699999998,121.55732379999999
統一超商,84896972,台北巿第２９６分公司,基隆路一段１４５號１樓,25.0427826,121.5656683
統一超商,84900309,台北巿第２９９分公司,文山區順興里二十六鄰保儀路一六六號１樓,24.982909,121.5652248
統一超商,84900315,台北巿第三００分公司,內湖區康寧路三段二十六巷一號一樓,25.0721572,121.6079115
統一超商,84900568,台北市第三０一分公司,中山北路二段四十之一號一樓,25.0542879,121.52379750000001
統一超商,86119724,臺北巿第２０４分公司,大同區民生西路176號1樓,25.057185999999998,121.51751599999999
統一超商,86122045,台北巿第２０５分公司,大安區通化街26-8號1樓,25.0315093,121.55414840000002
統一超商,86123234,臺北巿第２０７分公司,中山區林森北路572號1樓,25.064995800000002,121.52553490000001
統一超商,86375126,臺北巿第２０８分公司,中正區忠孝東路1段138號1樓,25.0441271,121.52543059999999
統一超商,86376048,臺北巿第２１０分公司,北投區實踐街22、24號1樓,25.1149346,121.5081253
統一超商,86377150,臺北巿第七十三分公司,北投區石牌路二段80、82號1樓,25.116841,121.51633989999999
統一超商,86379164,臺北市第１９０分公司,中山區長安東路二段43、45-1號1樓,25.048603699999997,121.531824
統一超商,86379896,臺北巿第２１１分公司,中山區中原街121號1樓、新生北路三段3巷41號2樓,25.0631627,121.52899850000001
統一超商,86519073,臺北巿第２１３分公司,大安路一段二十二號１樓,25.0440708,121.54608300000001
統一超商,86683502,台北巿第２１６分公司,大安區敦化南路1段5號1樓,25.043601300000002,121.5495726
統一超商,86683518,台北巿第２１７分公司,信義區吳興街284巷18弄2號1樓,25.0245326,121.56344229999999
統一超商,86684761,台北巿第２１９分公司,萬華區環河南路二段205、207號1樓,25.033918600000003,121.4930126
統一超商,86686070,台北巿第２２１分公司,民權西路四十二號１樓,25.062620499999998,121.520913
統一超商,86688176,台北巿第二二三分公司,文山區萬芳里萬安街23、25、27號1樓,25.000958899999997,121.570669
統一超商,86692235,台北巿第２２７分公司,中山區錦州街21-2號1樓,25.0604047,121.52502659999999
統一超商,86692919,台北巿第２２８分公司,內湖區內湖路2段249、251號1樓,25.0820228,121.58965230000001
統一超商,86924827,台北巿第３分公司,中山區臺北市中山北路七段十四巷２–１號１樓,25.1187059,121.53122590000001
統一超商,86927227,台北巿第２３２分公司,中山北路七段１７４號１樓,25.1243838,121.5327438
統一超商,86928372,台北巿第２３４分公司,大安區忠孝東路三段２４８巷９號１樓,25.0410441,121.5414263
統一超商,89388321,台北市第三０三分公司,大同區南京西路四三六號一樓,25.0533002,121.50890420000002
統一超商,89388336,台北市第三０四分公司,南港區研究院路二段十四號一樓,25.047537100000003,121.6154884
統一超商,89388785,台北巿第三０七分公司,南京東路四段五十一之二號一樓,25.051892000000002,121.55102600000001
統一超商,89389068,台北市第三０六分公司,承德路七段三七八號一樓,25.1187884,121.50276629999999
統一超商,89389428,台北市第３０８分公司,信義路六段六十三號１樓,25.035392,121.576668
統一超商,89391389,台北市第三０九分公司,中山區新生北路三段35號1樓、台北市中山區農安街67、69號1樓,25.0649652,121.52805490000001
統一超商,89392444,台北巿第三一０分公司,中正區青島東路9號1樓、林森南路4-3號1樓,25.0441083,121.5230209
統一超商,89393979,台北市第三一三分公司,內湖區內湖路1段321號1樓,25.0823847,121.5679053
統一超商,89394479,台北市第三一四分公司,中山區長安東路1段12號1樓,25.0493898,121.5228662
統一超商,89395364,台北市第三一六分公司,內湖區康樂街125巷2、2-1號1樓,25.0734651,121.6196646
統一超商,89395370,台北巿第三一七分公司,中正區廣州街10-2、10-3、10-4號1樓,25.035566600000003,121.50801829999999
統一超商,89395414,台北市第三一八分公司,中山區錦州街8號1樓,25.060231299999998,121.5235483
統一超商,89398263,台北巿第３２４分公司,松山區八德路4段245巷35號1樓,25.0504658,121.56438329999999
統一超商,89398714,台北市第三二五分公司,文山區永安街22巷23、25號1樓,24.9867512,121.5689327
統一超商,89399951,台北市第三二七號分公司,大安區樂利路76、78號1樓,25.0256973,121.55185349999999
統一超商,89400325,台北市第３２８分公司,南港區舊莊街一段九十四號１樓,25.0405586,121.61922009999999
統一超商,89401491,台北市第三三０分公司,北投區石牌路1段35號1樓,25.1131362,121.5101588
統一超商,89402127,台北巿第３３１分公司,松山區民權東路三段１０６巷十五弄二十五號１樓,25.0600478,121.5461148
統一超商,89402962,台北巿第３３２分公司,文山區興隆路3段42號1樓,25.000325,121.5556049
統一超商,89403420,台北巿第３３３分公司,北投區石牌路2段301號1樓,25.121407,121.52278999999999
統一超商,89404700,台北市第３３４分公司,中山區松江路65號1樓,25.0490676,121.5331626
統一超商,89404716,台北市第三三五分公司,中正區許昌街17號1樓,25.0457708,121.5171
統一超商,89405715,台北巿第３３６分公司,北投區明德路87、89號1樓,25.108964999999998,121.51874040000001
統一超商,89406019,台北巿第３３７分公司,信義區忠孝東路五段236巷6-3、8號1樓,25.040157999999998,121.57173799999998
統一超商,89407002,台北巿第３３９分公司,萬華區西藏路１２３號１樓,25.029518,121.50249299999999
統一超商,96970216,台北巿第３４０分公司,內湖區內湖路2段366號1樓,25.0823812,121.59087350000001
統一超商,96973327,台北巿第５分公司,士林區文昌路64號1樓,25.096115,121.521305
統一超商,96973781,台北市第２０分公司,大安區龍坡里18鄰和平東路1段266號1樓,25.0259942,121.533754
統一超商,96974705,台北巿第４４分公司,北投區中央南路1段114號1樓,25.130574199999998,121.5010645
統一超商,96974711,台北市第三十七分公司,萬華區萬大路184號1樓,25.027936999999998,121.50034299999999
統一超商,96977858,台北巿第６６分公司,大安區錦華里杭州南路2段91號1樓,25.028601199999997,121.5219403
統一超商,96977870,台北巿第７１分公司,松山區八德路4段151號1樓,25.048779999999997,121.562569
統一超商,96977962,台北巿第７８分公司,大安區大安路1段43號1樓,25.0434484,121.54626270000001
統一超商,96978884,台北市第８４分公司,大安區和平東路3段230號1樓,25.0222133,121.5546217
統一超商,97160072,台北市第九十三分公司,萬華區漢口街二段73號1樓,25.0461357,121.5053001
統一超商,97160495,台北市第９０分公司,士林區忠誠路一段126、128號1樓,25.1057885,121.52879420000001
統一超商,97162310,台北巿第１０１分公司,中山區一江街23號1樓,25.052989399999998,121.531631
統一超商,97163351,台北巿第１１４分公司,中山區林森北路411號1樓,25.0597579,121.52566259999999
統一超商,97163367,台北巿第１２３分公司,士林區忠義街121號1樓,25.1076796,121.5327971
統一超商,97163373,台北巿第１３２分公司,大安區光復南路262號1樓,25.0401402,121.5574726
統一超商,97163388,台北巿第１３７分公司,中山區吉林路365、367號1樓 / 農安街137號1樓,25.064934899999997,121.53009899999999
統一超商,97163795,台北市第１１２分公司,中山區民權東路2段26號1樓,25.062364499999997,121.5288989
統一超商,97164099,台北巿第１３１分公司,北投區中央北路4段513號1樓,25.128122199999996,121.46853859999999
統一超商,97164859,台北巿第１３８分公司,文山區羅斯福路6段308、310號1樓,24.9906018,121.53962050000001
統一超商,97165436,台北巿第１４４分公司,士林區格致路57號1樓,25.1379005,121.54640690000001
統一超商,97167461,台北市第１５３分公司,南港區南港路一段303、305、307號1樓,25.0543654,121.60773870000001
統一超商,97168757,台北巿第１８２分公司,萬華區萬大路495、497號1樓,25.0199745,121.49784709999999
統一超商,97169691,台北市第１９８分公司,松山區復興北路35號1樓,25.0500648,121.5442053
統一超商,97170162,台北巿第１９９分公司,松山區寧安街3巷11號1樓,25.0489986,121.5549747
統一超商,97172582,台北市第２０３分公司,松山區八德路四段321號1樓,25.049215,121.56703940000001
統一超商,97174701,台北巿第１２６分公司,北投區崇仁路一段七十六號１樓,25.1262669,121.50146670000001
統一超商,97175574,台北巿第２２２分公司,大安區敦化南路二段八十一巷二十九號１樓,25.030054800000002,121.55001499999999
統一超商,97179179,台北巿第２６０分公司,內湖區成功路二段２５２號１樓,25.066214600000002,121.5903534
統一超商,97179614,台北巿第３０８分公司,北投區致遠二路149號1樓,25.117423600000002,121.51298529999998
統一超商,97179662,台北巿第３１９分公司,萬華區西寧南路八十五號１樓,25.0455789,121.506847
來來超商,1582573,第二分公司,士林區中山北路５段７０２號１樓,25.097799399999996,121.527635
來來超商,1658910,第三分公司,康寧路３段１８９巷２１弄２６號１樓,25.0714016,121.61231950000001
來來超商,16081794,第３０５分公司,文山區辛亥路４段９９號１樓,25.006712,121.558718
來來超商,16085905,第三一二分公司,北投區泉源路三十五巷１號１樓,25.140504999999997,121.506215
來來超商,16437520,第３５７分公司,士林區通河路１４１巷１號１樓,25.081055399999997,121.5208074
來來超商,23167109,台北港墘路分公司,內湖區港墘路８４號１樓,25.0807169,121.577583
來來超商,23224636,第十四分公司,金山南路２段１１３號１樓,25.0304379,121.52680500000001
來來超商,23224988,第十五分公司,紹興北街８號之１．１樓,25.045305600000002,121.5252352
來來超商,23225831,第二十分公司,中正區汀州路７１７號１樓,25.015234200000002,121.53094490000001
來來超商,23225950,第二十三分公司,八德路４段３８號１樓,25.0482371,121.5591882
來來超商,23526323,第三十八分公司,北投區吉利街１４０號１樓,25.1185188,121.5077152
來來超商,23526864,等四十三分公司,萬華區萬大路４２３巷１２號１樓,25.0212382,121.49920759999999
來來超商,23929557,第八十分公司,中原街４１號１樓,25.057044,121.52894750000002
來來超商,23929825,第八十八分公司,信義區虎林街７２號１樓,25.044140399999996,121.57703590000001
來來超商,23932053,第一０六分公司,信義區中坡南路１５８號１樓,25.0398138,121.58432420000001
來來超商,23932618,第一一０分公司,中山區民權東路２段７１巷７號１樓,25.0631515,121.53183590000002
來來超商,23932764,第一一二分公司,文山區興隆路１段１３８號１樓,25.0019978,121.5417922
來來超商,24789576,第一一九一分公司,中山區南京東路3段86號1樓,25.051747199999998,121.5394492
來來超商,24802304,第一一四六分公司,大安區四維路154巷1號1樓,25.031072100000003,121.5477504
來來超商,24807770,第一二二七分公司,文山區興隆路4段72之2號、74巷2號、74巷4號1樓,24.9884079,121.558328
來來超商,27240165,第八三六分公司,文山區木柵路４段６６號１樓,24.997664,121.574269
來來超商,27240432,第八四二分公司,信義區基隆路２段３９巷３號１樓,25.0312354,121.5590385
來來超商,27242614,第八五六分公司,中山區龍江路４７號１樓,25.0492823,121.54055929999998
來來超商,27246055,第八七三分公司,北投區復興四路２３號１樓,25.142146,121.499944
來來超商,27250944,第八五九分公司,松山區撫遠街３８２號１樓,25.0644396,121.56555259999999
來來超商,27925357,第九四０分公司,北投區尊賢街２２１號１樓,25.1156349,121.50770190000001
來來超商,27927094,第九五四分公司,士林區和豐街３９巷２號１樓,25.082488,121.5178146
來來超商,27930767,第九七０分公司,松山區三民路１３７號１樓,25.060345899999998,121.56310459999999
來來超商,27934840,第二八七分公司,萬華區萬大路424巷112-4、112-5號1樓,25.021361399999996,121.49549009999998
來來超商,27935263,第九七二分公司,松山區光復北路３２號１樓,25.0493307,121.5576199
來來超商,27943186,第一○三一分公司,北投區知行路1號1樓,25.118026899999997,121.465318
來來超商,28411150,第三二六分公司,北投區石牌路1段39巷124號1樓,25.117168799999998,121.50980420000002
來來超商,28411736,第三七四分公司,文山區萬美街1段47號1樓,25.002110199999997,121.568831
來來超商,28426793,第一０六七分公司,士林區中山北路7段81巷8號1樓,25.121861600000003,121.53066159999999
來來超商,28434463,第四四○分公司,信義區吳興街110號1樓,25.024101100000003,121.5677295
來來超商,28435596,第五六五分公司,大安區樂業街96號1樓,25.0213307,121.55132069999999
來來超商,28439376,第一○七四分公司,文山區和平東路四段383號1樓,24.9999029,121.57389350000001
來來超商,28980589,第七六六分公司,文山區木柵路1段281號,24.988186300000002,121.55366200000002
來來超商,28984924,第九０七分公司,中正區羅斯福路3段244巷7-1號,25.016894,121.530768
來來超商,28989759,第一００三分公司,信義區吳興街284巷21弄2號,25.0233869,121.563379
來來超商,28990427,第九八二分公司,南港區舊莊街1段159號1樓,25.0396313,121.6209414
來來超商,28994351,第六九一分公司,中山區中原街8號,25.0561846,121.528792
來來超商,28997701,第三八九分公司,士林區士東路200巷21號1樓,25.1118557,121.5338377
來來超商,28998075,第二七八分公司,北投區立農街1段277號1樓,25.119416,121.50580900000001
來來超商,28998413,第八二一分公司,中山區撫順街21號,25.0636411,121.52059960000001
來來超商,28999291,第三三四分公司,南港區玉成街82號,25.046211,121.58276799999999
來來超商,28999308,第三七七分公司,士林區天母北路12號1樓,25.1193941,121.5262064
來來超商,51620051,第一一四四分公司,信義區吳興街600巷94號1樓,25.018646,121.571179
來來超商,53006799,第七十一分公司,大同區重慶北路3段278之2號1樓,25.072604600000002,121.513539
來來超商,53026633,第四五八分公司,北投區石牌路1段166巷97號1樓,25.112289899999997,121.51520390000002
來來超商,53027794,第五三0分公司,內湖區內湖路3段60巷10弄1號1樓,25.0879387,121.5921628
來來超商,53650066,第一四八分公司,松山區新東街11巷28號1樓,25.0580581,121.5649048
來來超商,53652228,第四三七分公司,內湖區民權東路6段296巷35號1樓,25.0718951,121.60649679999999
來來超商,53664104,第六分公司,中正區廈門街113巷17號1樓,25.0234685,121.519178
來來超商,54373619,第一一二九分公司,中山區林森北路360、362號1樓,25.057290899999998,121.5253788
來來超商,54390835,第一一五八分公司,萬華區開封街2段80號、80之1號1樓,25.04703,121.504718
來來超商,54395178,第一一二一分公司,信義區富陽街65、67號1樓,25.021922,121.5565272
來來超商,54395640,第一一一O分公司,士林區中正路422號1樓,25.093394,121.519544
來來超商,70747179,第四三０分公司,文山區木新路２段２４２號１樓,24.983348,121.56660649999999
來來超商,70748114,第四三六分公司,中正區同安街６９巷２號１樓,25.0235947,121.52141090000002
來來超商,70754924,第四七四分公司,北投區致遠二路１２３號１樓,25.1170316,121.512289
來來超商,70761734,第五０四分公司,信義區莊敬路３９３號１樓,25.0275359,121.56569499999999
來來超商,70762375,第五０九分公司,內湖區新明路３１６號１樓,25.0554986,121.5817851
來來超商,70779544,第六０三分公司,文山區新光路一段97、99號1樓,24.99093,121.573823
來來超商,70799339,第六四六分公司,大同區民族西路120、122號1樓,25.068436,121.5167476
來來超商,70801187,第六五三分公司,中正區和平西路２段７０巷１５弄３號１樓,25.0282005,121.51140149999999
來來超商,70819742,第七一一分公司,信義區信安街１４９號１樓,25.0229689,121.55553400000001
來來超商,70824317,第七一八分公司,文山區興隆路４段５５號１樓,24.989673,121.55986999999999
來來超商,80200971,第三九四分公司,信義區和平東路３段３４１巷６號１樓,25.0211545,121.55695520000002
來來超商,80201015,第三七一分公司,士林區承德路４段１３０號１樓,25.083796399999997,121.5232404
來來超商,80201042,第三八六分公司,士林區大東路７８號１樓,25.0904543,121.525966
來來超商,80335957,第四三九分公司,內湖區成功路３段６９號１樓,25.077790300000004,121.590121
來來超商,80347308,第七五六分公司,士林區天母北路８９號１樓,25.1228327,121.5267962
來來超商,80500490,第五八九分公司,南港區研究院路２段２３０號１樓,25.0361892,121.6170517
來來超商,80509865,第六一五分公司,大安區金華街２４１－１號１樓,25.0298399,121.530477
來來超商,80523254,第七八三分公司,大同區南京西路２５８號１樓,25.0536413,121.5152652
來來超商,80649970,第七九六分公司,士林區延平北路５段１７７號１樓,25.084410600000002,121.5070885
來來超商,80654207,第七九八分公司,文山區久康街１號１樓,24.98868,121.564397
來來超商,84250327,第一三六分公司,南港區成福路４４號１樓,25.0449625,121.58639280000001
來來超商,84251938,第一四０分公司,文山區景興街４０號１樓,24.997118,121.544526
來來超商,84703481,第一五一分公司,北投區致遠一路１段４４號１樓,25.108539,121.51647709999999
來來超商,84895170,第一六六分公司,松山區八德路３段１２巷５弄４８號１樓,25.0475732,121.5519356
來來超商,86383049,第１２１分公司,內湖區東湖路４３巷２６弄１號１樓,25.0699338,121.613654
來來超商,89388201,第一八一分公司,信義區吳興街２２０巷３３號１樓,25.027229000000002,121.56226699999999
來來超商,89391402,第一八九分公司,松山區敦化北路１５５巷８７號之１號１樓,25.054072,121.551406
來來超商,96972312,第二二０分公司,士林區中山北路６段１９３號１樓,25.1078503,121.52493600000001
來來超商,96974613,第二二五分公司,中山區北安路４７６號１樓,25.079609,121.545121
來來超商,97161261,第２４９分公司,南港區成福路２１２號１樓,25.039852300000003,121.5890905
來來超商,97164979,第２５５分公司,內湖區內湖路３段９１號１樓,25.086289,121.59110600000001
來來超商,97164984,第二五七分公司,文山區保儀路１００號１樓,24.9867229,121.56811100000002
來來超商,97166646,第二六三分公司,大同區酒泉街２２５號１樓,25.0722274,121.511307
全家便利商店,16080660,康定分公司,萬華區康定路73號1樓,25.0406509,121.50221189999999
全家便利商店,16080985,文化分公司,北投區中央北路2段97號1樓,25.136842,121.495158
全家便利商店,16082409,興業分公司,文山區興隆路2段279號1樓,25.001691100000002,121.552673
全家便利商店,16087853,景興分公司,文山區興隆路1段249號1樓,24.999589,121.54413100000001
全家便利商店,16090111,中興分公司,中山區龍江路201號1樓,25.056279800000002,121.5406666
全家便利商店,16095713,建國分公司,大安區建國南路2段151巷38號1樓,25.0286662,121.5392925
全家便利商店,16434609,龍山分公司,萬華區康定路１８９號１樓,25.0364157,121.50159070000001
全家便利商店,16435353,湖安分公司,內湖區內湖路1段285巷19號1樓,25.082970899999996,121.56698290000001
全家便利商店,16437063,大興分公司,北投區大興街二十一號１樓,25.129998999999998,121.4983976
全家便利商店,16438041,西站分公司,中正區懷寧街7之1號1樓,25.0462373,121.51430570000001
全家便利商店,16439908,永孝分公司,信義區松信路145號1樓,25.043543,121.572162
全家便利商店,16440644,民復分公司,松山區民生東路四段80巷3號1樓,25.057351399999998,121.5531358
全家便利商店,16440665,環南分公司,萬華區環河南路2段298號1樓,25.031562,121.49071
全家便利商店,16442805,大南分公司,士林區大南路52號1樓,25.089451,121.52491709999998
全家便利商店,16634579,新東分公司,松山區新東街14號1樓,25.0578366,121.5661588
全家便利商店,16635774,莊敬分公司,信義區莊敬路374號1樓,25.0275659,121.5648922
全家便利商店,16639504,松花分公司,中山區松江路九十五之一號一樓,25.0508766,121.5332982
全家便利商店,16639510,寧夏分公司,大同區寧夏路28號、30號1樓,25.055871300000003,121.5150634
全家便利商店,16639526,興仁分公司,大安區復興南路1段217號1樓,25.0391581,121.54401100000001
全家便利商店,16741682,大業分公司,北投區大興街22號1樓,25.1298943,121.49842849999999
全家便利商店,16742367,通河分公司,士林區通河街145號1樓,25.0810404,121.52068419999999
全家便利商店,16742373,景文分公司,文山區景文街83號1樓,24.991137300000002,121.54136940000001
全家便利商店,16743176,和東分公司,大安區和平東路2段102之3號1樓,25.0249715,121.5418097
全家便利商店,16745343,文祥分公司,中正區杭州南路1段147號1樓,25.0359633,121.5246081
全家便利商店,16748355,永新分公司,士林區社子街27號1樓,25.087666,121.5079622
全家便利商店,16830729,永林分公司,信義區虎林街82巷23號1樓,25.0434378,121.5762287
全家便利商店,16830925,濱江分公司,中山區建國北路三段111號1樓,25.0664378,121.5360557
全家便利商店,16830930,福澤分公司,大同區民權西路146號1樓,25.0627549,121.51582749999999
全家便利商店,16832108,杭愛分公司,中正區杭州南路一段八十三號一樓,25.039056100000003,121.52552050000001
全家便利商店,16835436,大直分公司,中山區大直街33巷1號1樓,25.0821625,121.54656920000001
全家便利商店,16839756,光華分公司,中山區松江路24之1號1樓,25.0469812,121.5327699
全家便利商店,16841182,文盛分公司,中正區汀州路3段173號1樓,25.0150382,121.53250279999999
全家便利商店,16845011,和新分公司,大安區和平東路2段22號1樓,25.025620999999997,121.536271
全家便利商店,16848609,光新分公司,大安區光復南路418號1樓,25.0365381,121.5573165
全家便利商店,23060985,信義分公司,信義路三段２００號１樓,25.0331576,121.5433313
全家便利商店,23060991,雙連分公司,民生西路１３８號１樓,25.057331299999998,121.5189534
全家便利商店,23167017,延吉分公司,大安區忠孝東路四段216巷31號1樓,25.0395997,121.553054
全家便利商店,23167023,中崙分公司,松山區八德路三段74巷43號1樓,25.0462703,121.5525678
全家便利商店,23167044,中山北路分公司,中山北二段１７０號１樓,25.063546300000002,121.52216899999999
全家便利商店,23167419,光復南路分公司,信義區光復南路447之2號1樓,25.0351746,121.55766799999999
全家便利商店,23167430,木柵路分公司,文山區木柵路3段148號1樓,24.988804000000002,121.56861200000002
全家便利商店,23167706,和平東路分公司,和平東路三段４９號１樓,25.0248235,121.5479688
全家便利商店,23224404,石牌分公司,北投區石牌路二段１６５號１樓,25.118463300000002,121.5179441
全家便利商店,23224410,六張黎分公司,信義區和平東路三段387號1樓,25.019848899999996,121.55757870000001
全家便利商店,23224755,吳興分公司,吳興街２５７，２５９號１樓,25.027248999999998,121.5637452
全家便利商店,23224919,民生西路分公司,民生西路２１４號１樓,25.0568694,121.51499579999998
全家便利商店,23225608,東湖分公司,內湖區東湖路４５號１樓,25.068914000000003,121.61412379999999
全家便利商店,23225614,南京新村分公司,南京東路4段191號1樓,25.0518277,121.55667790000001
全家便利商店,23225620,農安分公司,中山區農安街249號1樓,25.0648133,121.53486219999999
全家便利商店,23226091,士林文林分公司,士林區文林路１９５號１樓,25.0898331,121.5269221
全家便利商店,23226894,三民分公司,內湖區民權東路6段90巷1號1樓,25.0687168,121.5861291
全家便利商店,23525345,文德分公司,內湖區文德路２號１樓,25.0784832,121.5788477
全家便利商店,23525957,敦安分公司,大安區安和路一段122巷27號1樓,25.0393202,121.550473
全家便利商店,23526169,天津分公司,中山北路一段１２１巷９號１樓,25.0512023,121.52345990000002
全家便利商店,23526626,吉林分公司,中山區吉林路314號1樓,25.0621665,121.5301398
全家便利商店,23526750,虎林巿分公司,忠孝東路五段４７０號１樓,25.0406569,121.576851
全家便利商店,23527673,師大分公司,大安區師大路79號1樓,25.0233932,121.5285933
全家便利商店,23528482,公館分公司,中正區汀州路3段251號1１樓,25.013642,121.53441299999999
全家便利商店,23529481,寶興分公司,萬華區寶興街78號1樓,25.026083899999996,121.494211
全家便利商店,23928234,龍江分公司,龍江路９３號,25.051332199999997,121.5405505
全家便利商店,23928683,林森南路分公司,中正區林森南路57號1樓,25.0398922,121.522135
全家便利商店,23928972,橋安分公司,延吉街１８６、１８８號１樓,25.038502100000002,121.55503829999999
全家便利商店,23929509,敦仁分公司,仁愛路四段１５１巷３７號１樓,25.0405902,121.55198159999999
全家便利商店,23929579,大安分公司,大安區大安路1段20號1樓,25.0440968,121.54608130000001
全家便利商店,23930246,西湖分公司,內湖路一段２８７號１樓,25.0823473,121.56696740000001
全家便利商店,23930533,仁慈分公司,大安區仁愛路4段48巷6號1樓,25.037070999999997,121.546998
全家便利商店,23930549,祥和分公司,信義區信義路五段150巷401弄31號1樓,25.02409,121.57042
全家便利商店,23930554,新生南路分公司,大安區新生南路一段163號1樓,25.034321,121.5329936
全家便利商店,23931955,忠孝東路分公司,忠孝東路四段３１５號１樓,25.041611899999996,121.5559331
全家便利商店,23932223,南陽分公司,中正區信陽街15號1樓,25.044736800000003,121.5162139
全家便利商店,23932687,安居分公司,大安區安居街76號1樓,25.0196611,121.55332990000001
全家便利商店,24789127,台北市第五四O分公司,中山區龍江路356巷72號,25.065893,121.538028
全家便利商店,24789858,台北市第五四一分公司,信義區松德路200巷13號、15號1樓,25.0345682,121.5735956
全家便利商店,24790497,台北市第五四二分公司,松山區南京東路5段291巷14號、16號,25.0523087,121.5661044
全家便利商店,24792657,台北市第五四三分公司,內湖區石潭路67號1樓,25.0628299,121.58719070000001
全家便利商店,24792967,台北市第五四四分公司,信義區莊敬路307號、309號,25.028451,121.563382
全家便利商店,24793184,台北市第五四五分公司,中正區汀州路2段38號1樓及台北市中正區廈門街61號、63號1樓,25.0252716,121.5175485
全家便利商店,24794661,台北市第五四六分公司,中山區力行里龍江路95號、97號1樓,25.0518546,121.5404469
全家便利商店,24795021,台北市第五四七分公司,中山區中原里中原街16號、18號1樓,25.0565165,121.52879479999999
全家便利商店,24795839,台北市第五四八分公司,大安區大學里羅斯福路3段269巷2號,25.0189895,121.5307517
全家便利商店,24795866,台北市第五四九分公司,萬華區保德里東園街172號、174號及長泰街132號1樓,25.0248715,121.49694479999998
全家便利商店,24796464,台北市第五五０分公司,士林區天福里忠誠路2段168號1樓,25.1156536,121.5331645
全家便利商店,24796859,台北市第五五一分公司,士林區葫東里重慶北路4段182號、184號1樓,25.0846902,121.5117263
全家便利商店,24801115,台北市第五五三分公司,中正區館前路36號1樓,25.044483800000002,121.5148784
全家便利商店,24801157,台北市第五五二分公司,士林區天母西路40-2號1樓,25.118404199999997,121.52582849999999
全家便利商店,24802590,台北市第五五四分公司,大安區通安里大昌街142號1樓,25.030721399999997,121.55729209999998
全家便利商店,24803107,台北市第五五五分公司,松山區東榮里民生東路5段37號,25.058551100000003,121.55691409999999
全家便利商店,24804041,台北市第五五六分公司,中山區江寧里錦州街427號,25.0603117,121.54249009999998
全家便利商店,24808124,台北市第五五八分公司,文山區興豐里興隆路2段75號、77號、79號,24.9992602,121.5466601
全家便利商店,24808139,台北市第五五九分公司,萬華區青山里廣州街235-1號、235-2號,25.0368249,121.4986155
全家便利商店,24808460,台北市第五五七分公司,南港區舊莊街1段169號及145巷2弄22號,25.0401035,121.6205098
全家便利商店,24809279,台北市第五六O分公司,信義區永春里中坡北路23號1樓,25.0449439,121.58078400000001
全家便利商店,24809398,台北市第五六一分公司,松山區東光里南京東路5段123巷1號及1-1號1樓,25.053342,121.56121200000001
全家便利商店,24809427,台北市第五六二分公司,松山區中華里敦化北路199巷2弄5號1樓,25.055533399999998,121.5500351
全家便利商店,24810803,台北市第五六八分公司,信義區惠安里吳興街334號,25.0261754,121.56604229999999
全家便利商店,24811079,台北市第五六九分公司,中山區劍潭里通北街111號,25.084472100000003,121.53804469999999
全家便利商店,24811704,台北市第五七O分公司,北投區永和里中山北路七段219巷3弄171號1樓,25.128545199999998,121.53080130000001
全家便利商店,24812035,台北市第五七二分公司,大安區建安里忠孝東路4段223巷41號1樓,25.042596399999997,121.5528527
全家便利商店,24812112,台北市第五七三分公司,萬華區富福里西園路1段159號、161號1樓,25.034999300000003,121.4994685
全家便利商店,27230814,試院分公司,文山區試院里木柵路1段91號、93號1樓,24.987121,121.547393
全家便利商店,27230878,至善分公司,士林區臨溪里至善路2段268號1樓,25.100456,121.5510571
全家便利商店,27231671,美華分公司,中山區北安里北安路819之1號1樓,25.084977,121.556229
全家便利商店,27233354,中永分公司,北投區開明里中和街252號1樓,25.1399773,121.5008779
全家便利商店,27234972,永興分公司,北投區中庸里永興路1段1號、3號1樓,25.138966,121.50028200000001
全家便利商店,27237133,興德分公司,中山區埤頭里復興南路一段38號1樓,25.045429000000002,121.54359099999999
全家便利商店,27237176,寶清分公司,松山區慈祐里八德路四段五九八號一樓,25.049907,121.57227240000002
全家便利商店,27238626,榮總分公司,北投區永欣里石牌路二段二０一號一樓,25.1192105,121.52038219999999
全家便利商店,27239441,寶清分公司,松山區慈祐里八德路四段598號1樓,25.049907,121.57227240000002
全家便利商店,27240475,工業二分公司,南港區三重里園區街3號2樓之7,25.0584861,121.6118825
全家便利商店,27244943,撫順分公司,中山區集英里撫順街12之2號1樓,25.063489,121.52090700000001
全家便利商店,27249406,忠信分公司,信義區富臺里臺北市信義區富台里忠孝東路5段425號1樓,25.0416146,121.57241499999999
全家便利商店,27250677,碧湖分公司,內湖區麗山里內湖路1段593號1樓,25.0809713,121.5733551
全家便利商店,27252485,新瑞分公司,內湖區西康里堤頂大道2段407巷26號1樓,25.081055,121.563427
全家便利商店,27256052,忠林分公司,信義區安康里虎林街166號1樓,25.039067000000003,121.576422
全家便利商店,27258609,光輝分公司,中山區晴光里德惠街34之2號1樓,25.06655,121.52646440000001
全家便利商店,27259255,長泰分公司,萬華區壽德里長泰街2號、2之1號1樓,25.022825,121.4970747
全家便利商店,27926074,和豐分公司,士林區福華里和豐街2號1樓,25.0828003,121.51933999999999
全家便利商店,27929190,富錦分公司,松山區新益里富錦街529號1樓,25.061280800000002,121.56545390000001
全家便利商店,27930942,松壽分公司,松山區自強里延壽街330巷7弄22號1樓,25.055349800000002,121.56211119999999
全家便利商店,27933928,德芬分公司,北投區吉利里石牌里１段３９巷１２４號１樓,25.117168799999998,121.50980420000002
全家便利商店,27935524,新農分公司,中山區恆安里農安街26之3號1樓,25.0648092,121.5262094
全家便利商店,27938830,向陽分公司,南港區東新里重陽路16號1樓,25.055155199999998,121.5959584
全家便利商店,27939562,敦新分公司,大安區敦安里仁愛路4段112巷5號1樓,25.0369716,121.54974229999999
全家便利商店,27943257,中賓分公司,中山區中山里中北路2段59之3號1樓,25.055778,121.523821
全家便利商店,27946347,和西分公司,萬華區愛鄉里和平西路3段290之5號、290之6號1樓,25.0352602,121.4973745
全家便利商店,27948529,瑞湖分公司,內湖區港墘里瑞光路513巷39號1樓,25.0800807,121.57024209999999
全家便利商店,28413235,明興分公司,文山區明興里木柵路2段109巷25弄2號、2之1號1樓,24.990145000000002,121.562851
全家便利商店,28414635,天文分公司,士林區福佳里美崙街118號1樓,25.097056,121.5195206
全家便利商店,28414678,復昌分公司,信義區中興里光復南路505號、507號、文昌街329號1樓,25.032119,121.5575139
全家便利商店,28417801,常興分公司,松山區民福里五常街364號1樓,25.0642879,121.5448999
全家便利商店,28418800,聚葉分公司,中山區中山北路2段137巷34號1樓,25.061608399999997,121.5251465
全家便利商店,28419913,北權分公司,松山區民有里民權東路3段106巷11號1樓,25.0602421,121.54496110000001
全家便利商店,28420361,綠堤分公司,萬華區綠堤里環河南路2段173號1樓,25.0328719,121.492369
全家便利商店,28421621,民族分公司,中山區行仁里民族東路410巷23弄24號1樓,25.066738,121.53956699999999
全家便利商店,28421636,大通分公司,中山區朱園里伊通街39號1樓,25.0507074,121.5349375
全家便利商店,28421642,正義分公司,中山區正義里長安東路1段55號1樓,25.0487812,121.52655449999999
全家便利商店,28421707,永隆分公司,信義區興雅里基隆路1段147巷7號1樓,25.042521,121.566194
全家便利商店,28422023,通和分公司,大安區通安里通安街77號1樓,25.0303817,121.55332279999999
全家便利商店,28422059,龍普分公司,大安區建倫里忠孝東路4段170巷6弄2號1樓,25.040773899999998,121.55070330000001
全家便利商店,28422065,建南分公司,大安區民輝里建國南路1段156號、158號1樓,25.0396901,121.5358957
全家便利商店,28422092,研究院分公司,南港區研究院路2段70巷1號1樓,25.0458652,121.61500459999999
全家便利商店,28422121,福安分公司,大同區建明里長安西路54號1樓,25.0507068,121.5173713
全家便利商店,28422157,馬偕分公司,中山區集英里民生西路29號1樓,25.0578589,121.52119409999999
全家便利商店,28422179,明水分公司,中山區永安里明水路581巷11號1樓,25.0801384,121.55119579999999
全家便利商店,28422184,松仁分公司,信義區三犁里信義路5段150巷221號1樓,25.028411,121.568751
全家便利商店,28422327,大同分公司,北投區大同里大業路452巷31號1樓,25.13213,121.49733400000001
全家便利商店,28422403,師美分公司,文山區萬年里汀州路4段77號1樓,25.0045942,121.5356742
全家便利商店,28422419,日新分公司,大同區光能里承德路2段39號、41號1樓,25.0549924,121.51841329999999
全家便利商店,28422430,瑞和分公司,大安區龍生里瑞安街135巷28號1樓,25.0264997,121.5416741
全家便利商店,28422446,國順分公司,大同區國順里延平北路3段118號1樓,25.0673454,121.5107976
全家便利商店,28422473,福泰分公司,中山區中山里民生東路1段36號1樓,25.0578748,121.52426409999998
全家便利商店,28422488,漢中分公司,萬華區新起里漢中街139號1樓,25.041701,121.507356
全家便利商店,28422608,華視分公司,大安區華聲里光復南路116巷26號1樓,25.0429404,121.55639009999999
全家便利商店,28422614,再興分公司,文山區興家里興隆路3段207巷11弄2號1樓,24.9949639,121.56155600000001
全家便利商店,28422635,長通分公司,中山區中央里伊通街108號1樓,25.0541429,121.5347048
全家便利商店,28422662,振華分公司,北投區振華里振華街2號1樓,25.115648699999998,121.5200142
全家便利商店,28422754,古亭分公司,大安區古莊里羅斯福路2段103號1樓,25.0246795,121.52454309999999
全家便利商店,28422781,國興分公司,南港區中研里舊莊街1段3巷3弄2號1樓,25.0442155,121.61766570000002
全家便利商店,28422918,欣欣分公司,中山區中原里長春路100號1樓,25.0547762,121.5279422
全家便利商店,28422924,昌隆分公司,大安區昌隆里忠孝東路3段217巷2弄1號1樓,25.042400100000002,121.53984240000001
全家便利商店,28423156,館中分公司,中正區文盛里羅斯福路3段316巷8弄1號1樓,25.015791500000002,121.5326324
全家便利商店,28423162,永安分公司,中山區成功里北安路630巷7號1樓,25.08286,121.549484
全家便利商店,28423178,錦原分公司,中山區新生里中原街101號1樓,25.0609288,121.5290416
全家便利商店,28423183,康福分公司,內湖區樂康里康樂街87號1樓,25.0696639,121.6188527
全家便利商店,28423249,芝玉分公司,士林區東山里士東路266巷5弄16號1樓,25.112385999999997,121.537499
全家便利商店,28423254,五常分公司,中山區行仁里五常街53巷23號1樓,25.0654831,121.5397263
全家便利商店,28423260,大龍分公司,大同區斯文里大龍街133號1樓,25.0674081,121.51599660000001
全家便利商店,28423276,內華分公司,內湖區湖興里民權東路6段162號1樓,25.0684639,121.59174809999999
全家便利商店,28423326,義興分公司,大安區仁慈里信義路4段1之10、1之11號1樓,25.033557899999998,121.54400749999999
全家便利商店,28423331,木興分公司,文山區明義里木柵路2段52號1樓,24.988652899999998,121.55881699999999
全家便利商店,28423655,文湖分公司,內湖區西安里文湖街59號1樓,25.086807699999998,121.5626706
全家便利商店,28425339,懷生分公司,大安區誠安里復興南路1段70號,25.044142899999997,121.5436009
全家便利商店,28425345,忠愛分公司,大安區仁愛里仁愛路4段27巷43號,25.0410747,121.54528290000002
全家便利商店,28425582,港福分公司,南港區仁福里福德街373巷63號,25.039477899999998,121.592215
全家便利商店,28426317,五分分公司,內湖區五分里五分街16號,25.067341,121.6138475
全家便利商店,28427152,金林分公司,士林區正義里林森北路109號,25.0504072,121.5251449
全家便利商店,28427168,天成分公司,士林區天母東路36號之5、之6,25.1179057,121.5326821
全家便利商店,28430086,木新分公司,文山區樟新里木新路3段333號、335號,24.980417499999998,121.55625729999998
全家便利商店,28430092,蘭州分公司,大同區至聖里大龍街217號1樓,25.070581699999998,121.5159995
全家便利商店,28430945,朱崙分公司,中山區力行里朱崙街67號,25.050064000000003,121.54235030000001
全家便利商店,28436096,力晶分公司,松山區中正里南京東路3段258號1樓,25.051609699999997,121.5448268
全家便利商店,28436722,大孝分公司,中正區愛國東路112號1樓．2樓,25.0326488,121.5213509
全家便利商店,28438209,復林分公司,中正區正義里林森北路149號-1．149-2號1樓,25.051499,121.52538
全家便利商店,28970317,松友分公司,信義區松友里信義路6段78號,25.035255,121.57701599999999
全家便利商店,28971998,豐華分公司,松山區民有里民生東路3段113巷6弄1號,25.058659,121.546031
全家便利商店,28973237,工業三分公司,南港區三重里三重路66之2號1樓,25.057206,121.6143001
全家便利商店,28973829,華德分公司,文山區興福里景華街75號,24.9953323,121.54545449999999
全家便利商店,28977135,復中分公司,北投區開明里中和街328號,25.141182999999998,121.499701
全家便利商店,28977521,大港分公司,士林區前港里前港街39號,25.0848696,121.5215362
全家便利商店,28977536,興昌分公司,文山區興昌里辛亥路4段101巷1號,25.006621,121.55901999999999
全家便利商店,28979491,寶元分公司,萬華區寶興街40號1樓,25.0272382,121.49328919999999
全家便利商店,28979963,復盛分公司,松山區八德路4段40、42號,25.0481978,121.5593007
全家便利商店,28980069,京貿分公司,中山區南京東路3段65號1樓,25.0521956,121.53840729999999
全家便利商店,28980130,新遠企店分公司,大安區敦化南路2段261號,25.025617999999998,121.549163
全家便利商店,28981258,重慶分公司,中正區重慶南路1段58號1樓,25.0368563,121.51177849999999
全家便利商店,28983919,郡王分公司,中正區延平南路68號,25.0450793,121.5102432
全家便利商店,28985141,長城分公司,松山區敦化北路120巷80號,25.054374,121.54625300000001
全家便利商店,28985775,長復分公司,松山區長安東路2段219號,25.048331899999997,121.5448361
全家便利商店,28988029,崇德分公司,信義區崇德街29號,25.024372,121.55376480000001
全家便利商店,28988597,士林分公司,士林區中山北路5段697號,25.097560100000003,121.527206
全家便利商店,28988652,金磚分公司,中山區雙城街19巷2號及17-7號1樓,25.06549,121.524635
全家便利商店,28988695,市民分公司,中山區中山北路1段58號,25.048525,121.52064080000001
全家便利商店,28989977,東陽分公司,北投區西安街1段283號,25.112009399999998,121.516698
全家便利商店,28990806,順輝分公司,文山區光輝路7號1樓,24.986433399999996,121.55510079999999
全家便利商店,28991684,玉林分公司,中山區民生東路1段27巷15號及17號,25.058692999999998,121.52514599999999
全家便利商店,28994015,新敦民分公司,大安區敦化南路1段161巷7號,25.043644699999998,121.54971470000001
全家便利商店,28995176,興亞分公司,中山區南京東路2段26號1樓,25.051864899999998,121.5290636
全家便利商店,28995226,雙林分公司,中山區雙城街2之2號、2之3號1樓,25.0644639,121.52421799999999
全家便利商店,28997456,社中分公司,士林區社中街386號、388號1樓,25.0922801,121.50345049999999
全家便利商店,28997499,南機場分公司,中正區中華路2段311巷1號(1樓)、3號(1樓),25.0341259,121.50623390000001
全家便利商店,28997961,三富分公司,松山區三民路148號1樓,25.0610803,121.5633311
全家便利商店,28998434,德林分公司,中山區德惠街173號,25.066646,121.5319108
全家便利商店,28998716,塔悠分公司,松山區延壽街2號1樓、6號1樓&塔悠路202號1樓,25.0572014,121.5690567
全家便利商店,28999270,京江分公司,中山區一江街22號、22之1號1樓,25.0527301,121.531402
全家便利商店,28999905,唭哩分公司,北投區西安街二段283號．283-1號1樓,25.1204618,121.50637069999999
全家便利商店,29000107,鴻啟分公司,中正區忠孝西路1段100號1樓,25.0462706,121.51886429999999
全家便利商店,29000113,德陽分公司,內湖區文德路22巷25號,25.0768023,121.5799409
全家便利商店,43002247,台北市第五六四分公司,士林區三玉里忠誠路2段52號1樓,25.1108807,121.53052040000001
全家便利商店,43003344,台北市第五六三分公司,士林區蘭雅里中山北路6段238號1樓,25.1090188,121.52547690000002
全家便利商店,43062477,台北市第五六五分公司,松山區美仁里南京東路4段56-1號1樓,25.0515233,121.5537561
全家便利商店,43174108,台北市第五六七分公司,萬華區萬壽里漢口街2段22號、漢口街2段20巷2號,25.044913,121.508068
全家便利商店,43225704,台北市第五七四分公司,士林區陽明里格致路53號1樓,25.137709,121.546402
全家便利商店,43230306,台北市第五七一分公司,內湖區湖元里瑞光路66巷40號,25.0696006,121.58091329999999
全家便利商店,43273472,台北市第五七六分公司,內湖區清自里成功路4段143號,25.068995899999997,121.59141740000001
全家便利商店,51012198,台北市第五七五分公司,大安區永康里信義路2段104號1樓,25.0338012,121.527533
全家便利商店,51012922,台北市第五七七分公司,文山區景行里景後街95號,24.991914,121.542926
全家便利商店,51081188,台北市第五七八分公司,松山區吉祥里南京東路5段180號、182號,25.051270499999998,121.56351059999999
全家便利商店,51164814,台北市第五八O分公司,中山區永安里北安路458巷41弄46號、48號1樓,25.078947,121.5459
全家便利商店,51166448,台北市第五八一分公司,北投區桃源里中央北路3段4號、6號1樓,25.1377718,121.4829156
全家便利商店,51182209,台北市第五八二分公司,內湖區紫星里康寧路1段116號1樓及地下室,25.0783462,121.59620090000001
全家便利商店,51200109,台北市第五八四分公司,中正區黎明里漢口街1段18號,25.0450598,121.51440490000002
全家便利商店,51212105,台北市第五八五分公司,萬華區福音里康定路97號、99號1樓,25.039548800000002,121.5017868
全家便利商店,51213701,台北市第五八三分公司,內湖區港墘里瑞光路303號,25.0759169,121.576016
全家便利商店,51214504,台北市第五八六分公司,萬華區萬壽里昆明街92-1號1樓,25.0450004,121.50523559999999
全家便利商店,51236676,台北市第五八七分公司,萬華區華中里萬大路486巷59弄1號1樓及57號1樓,25.019886,121.49550320000002
全家便利商店,51237909,台北市第五八八分公司,萬華區興德里富民路91巷8號、10號1樓,25.018992100000002,121.4992351
全家便利商店,51323587,台北市第五八九分公司,萬華區忠德里東園街28巷34號1樓,25.0268479,121.49506140000001
全家便利商店,51324734,台北市第五九O分公司,信義區六合里松仁路240巷2號及238號1樓,25.024319600000002,121.5688375
全家便利商店,51329674,台北市第五九一分公司,大同區建泰里太原路81號,25.051893399999997,121.5157389
全家便利商店,51358706,台北市第五九二分公司,北投區關渡里知行路298號1樓及知行路316巷6弄12號1樓,25.1202655,121.46709309999999
全家便利商店,51398806,台北市第五九三分公司,中山區中山里中山北路二段75-1號1樓,25.0574405,121.52303570000001
全家便利商店,51412602,台北市第五九四分公司,大安區全安里安和路2段169號及171巷3號,25.0281759,121.55009059999999
全家便利商店,51442330,台北市第五九五分公司,士林區三玉里忠誠路2段5號1樓,25.1087698,121.53060049999999
全家便利商店,51445337,台北市第五九七分公司,信義區安康里松德路157號、159號,25.0365603,121.5749548
全家便利商店,51445998,台北市第五九六分公司,內湖區紫星里康寧路1段37號1樓,25.0805785,121.5917216
全家便利商店,51447813,台北市第五九八分公司,大同區建功里南京西路308號、310號1樓,25.051918,121.519935
全家便利商店,51448968,台北市第五九九分公司,中山區集英里權西路35號1樓,25.0590577,121.520895
全家便利商店,51462200,台北市第六OO分公司,松山區三民里民生東路5段159號,25.0591144,121.56249609999999
全家便利商店,51463405,台北市第六O一分公司,北投區石牌里自強街116號1樓,25.110782500000003,121.51554820000001
全家便利商店,51463600,台北市第六O二分公司,文山區景仁里羅斯福路6段146-1號,24.9954818,121.5409423
全家便利商店,51464875,台北市第六O三分公司,內湖區港富里內湖路1段733號1樓,25.0791388,121.57818710000001
全家便利商店,51530875,台北市第六O四分公司,萬華區菜園里康定路60號1樓,25.042130800000002,121.5022737
全家便利商店,51567470,台北市第六O六分公司,大安區民炤里新生南路1段165巷35號,25.0342643,121.5360805
全家便利商店,51567823,台北市第六O五分公司,中正區光復里衡陽路77號1樓,25.042160199999998,121.5112034
全家便利商店,51595102,台北市第六O九分公司,中正區黎明里忠孝西路1段50號1樓,25.046222,121.51583000000001
全家便利商店,51595503,台北市第六O七分公司,大安區敦安里安和路1段104號,25.034157999999998,121.552268
全家便利商店,51617648,台北市第六一O分公司,文山區興得里興隆路3段36巷9弄10號,24.9997587,121.5556047
全家便利商店,51620313,台北市第六一一分公司,北投區振華里石牌路2段88之1號1樓及地下層,25.1168583,121.5160983
全家便利商店,51642800,台北市第六一二分公司,中山區朱園里長安東路2段99號1樓及2樓,25.0483719,121.5377656
全家便利商店,51665205,台北市第六一五分公司,北投區永和里行義路152號地下1層,25.129633600000002,121.52804240000002
全家便利商店,51667203,台北市第六一三分公司,松山區民有里民生東路3段127巷6號1樓及113巷7弄19號1樓,25.0575896,121.54195449999999
全家便利商店,51671706,台北市第六一四分公司,文山區萬祥里羅斯福路5段269巷11號,25.0013577,121.5401645
全家便利商店,51706986,台北市第六一六分公司,中山區松江里民生東路2段155號及155-1號1樓,25.0578589,121.5279419
全家便利商店,51707417,台北市第六一七分公司,中正區黎明里衡陽路7號1樓,25.0424284,121.5137115
全家便利商店,51711783,台北市第六一八分公司,文山區樟林里忠順街1段131號、133號,24.9844383,121.56051950000001
全家便利商店,51712880,台北市第六一九分公司,文山區政大里指南路2段145號1樓,24.987513600000003,121.57712620000001
全家便利商店,51713826,台北市第六二O分公司,松山區自強里健康路285號1樓,25.0543129,121.5639936
全家便利商店,51753404,台北市第六二二分公司,萬華區富民里廣州街203號、205號1、2樓,25.0367889,121.50028600000002
全家便利商店,51754207,台北市第六二一分公司,中山區中山里林森北路376號1樓及民生東路72號1樓,25.0566487,121.5254942
全家便利商店,53005095,湖濱分公司,內湖區內湖路2段103巷104號,25.083942800000003,121.58082179999998
全家便利商店,53005118,和醫分公司,中正區延平南路159號1樓,25.0352997,121.5077091
全家便利商店,53005172,新松分公司,中山區松江路330巷33號1樓,25.0612771,121.53165959999998
全家便利商店,53005433,康柏分公司,松山區健康路220號1樓,25.0538574,121.5608487
全家便利商店,53005671,天山分公司,士林區天母東路69巷11之9號1樓,25.119754999999998,121.5334301
全家便利商店,53006806,金昌分公司,中正區南昌路1段135號1樓,25.0296601,121.5185077
全家便利商店,53007946,萬興分公司,文山區興隆路1段55巷27弄1-4號、1-6號、1-7號,24.9998009,121.5445163
全家便利商店,53010219,榮星分公司,中山區龍江路352號1樓,25.065860699999998,121.540853
全家便利商店,53010843,遼寧分公司,中山區長安東路2段216號、218號1樓,25.0481678,121.5424494
全家便利商店,53013222,信美分公司,大安區信義路3段134巷2號1樓,25.033058,121.5393425
全家便利商店,53013412,酒泉分公司,大同區庫倫街48之4號、48之5號1樓,25.0718414,121.51840770000001
全家便利商店,53013546,金門分公司,中正區汀州路2段216號1樓,25.0223276,121.523826
全家便利商店,53014215,芝蘭分公司,士林區德行東路330號,25.110221799999998,121.5375027
全家便利商店,53015925,士商分公司,士林區中正路503號505號,25.0917436,121.51787639999999
全家便利商店,53018866,安賢分公司,大安區四維路170巷4號,25.028099899999997,121.54779620000001
全家便利商店,53019197,新東湖分公司,內湖區東湖路43巷4號,25.069167800000002,121.61420700000001
全家便利商店,53019680,華港分公司,士林區大南路231號、233號,25.0883797,121.52093719999999
全家便利商店,53020455,胡適分公司,南港區舊莊街1段3巷16號、18號1樓,25.0423617,121.61829909999999
全家便利商店,53021047,錦林分公司,中山區林森北路399巷10號1樓,25.059193899999997,121.52587700000001
全家便利商店,53022242,新福興分公司,文山區福興路65號1樓,25.0036392,121.54993429999999
全家便利商店,53022664,百齡分公司,士林區福港街158-1號,25.087155,121.51776299999999
全家便利商店,53023468,新青年分公司,萬華區青年路6號,25.0261796,121.5061989
全家便利商店,53024327,東方分公司,大安區安和路2段10巷10號1樓及地下室,25.0324829,121.5516899
全家便利商店,53649300,新陽明分公司,士林區中正路329號,25.0945343,121.52316029999999
全家便利商店,53650235,永樂分公司,大同區延平北路2段260號1樓,25.0591534,121.51129409999999
全家便利商店,53650360,榮光分公司,北投區石牌路1段166巷91-1號、93號,25.1124117,121.51511529999999
全家便利商店,53651017,新知行分公司,北投區知行路237號、知行路239號,25.120404500000003,121.467045
全家便利商店,53651023,松站分公司,信義區松隆路329巷8號1樓、台北市信義區松隆路329巷6號1樓,25.0485583,121.5792994
全家便利商店,53651059,北鑫分公司,南港區中坡南路15號,25.0434861,121.58288940000001
全家便利商店,53651776,金漾分公司,中山區林森北路308號、台北市中山區林森北路308-1號,25.056186899999997,121.5253541
全家便利商店,53652923,大昌分公司,中正區南昌路1段67、69號,25.03104,121.517508
全家便利商店,53654675,南海分公司,中正區南海路20號,25.0324241,121.51686670000001
全家便利商店,53655674,台福分公司,大安區羅斯福路4段1號,25.0152002,121.5375088
全家便利商店,53656625,景富分公司,文山區景福街25號、25-1號、25-2號,24.999072299999998,121.53822609999999
全家便利商店,53657722,華科大分公司,南港區研究院路3段245號,25.0335957,121.6098889
全家便利商店,53657912,美林分公司,中山區新生北路2段62巷38-3號,25.056147,121.52590500000001
全家便利商店,53661021,吉泰分公司,大安區仁愛路4段300巷11之1號、2號,25.036904999999997,121.5545587
全家便利商店,53662416,新貿分公司,信義區信義路4段407號1樓,25.0333083,121.5588881
全家便利商店,53662719,金園分公司,萬華區西園路2段140巷42號、44號,25.0313135,121.4951544
全家便利商店,53664765,永信分公司,信義區忠孝東路5段472號,25.0406441,121.57700109999999
全家便利商店,53666270,鑫德分公司,松山區八德路2段400號,25.0480199,121.54658570000001
全家便利商店,53666807,敦中分公司,松山區敦化北路4巷1號,25.0500593,121.54736489999999
全家便利商店,53666855,新中坡分公司,信義區中坡南路229號、229之1號,25.0405585,121.5850923
全家便利商店,53666861,濟南二分公司,大安區濟南路3段7號,25.040271100000002,121.53363859999999
全家便利商店,53669781,金瑞分公司,內湖區金龍路224號、226號,25.0883018,121.58672890000001
全家便利商店,53669847,直學分公司,中山區大直街11號,25.080776899999996,121.546522
全家便利商店,53670458,鑫順分公司,文山區忠順街2段16號、18號,24.984584299999998,121.56265390000002
全家便利商店,53672913,新和分公司,北投區中和街489號、491號,25.1451168,121.49520420000002
全家便利商店,53673271,新橋分公司,大同區延平北路3段25之3號,25.064384,121.511375
全家便利商店,53673526,忠孝分公司,大安區敦化南路1段190巷7樓,25.042711899999997,121.54779840000002
全家便利商店,53675046,新成鑫分公司,南港區玉成街176巷1號,25.0443493,121.58431340000001
全家便利商店,53675242,欣富台分公司,信義區虎林街120巷163號、165號,25.042269,121.57421200000002
全家便利商店,53675637,新內湖分公司,內湖區成功路2段420號、422號,25.071227,121.58969099999999
全家便利商店,53676740,昇東分公司,松山區民生東路5段197號1樓,25.0593693,121.56619599999999
全家便利商店,53676782,新健康分公司,松山區南京東路4段133巷9弄2號1樓,25.053242,121.555246
全家便利商店,53676798,新昆陽分公司,南港區昆陽街145號、147號、149號1樓,25.050176899999997,121.5942763
全家便利商店,53678590,台北市第五0一分公司,中山區復興北路514巷35號、37號,25.066063,121.54269509999999
全家便利商店,54370649,台北市第五0二分公司,中山區伊通街58號、60號,25.051522199999997,121.53463329999998
全家便利商店,54372288,台北市第五0四分公司,中山區林森北路428號,25.0599931,121.5253817
全家便利商店,54372338,台北市第五0五分公司,萬華區桂林路23、25號,25.0379576,121.5050848
全家便利商店,54372457,台北市第五0三分公司,信義區松山路281號,25.043139899999996,121.578007
全家便利商店,54373625,台北市第五0六分公司,中山區民權東路2段152巷14號,25.061174899999997,121.53498049999999
全家便利商店,54374737,台北市第五0九分公司,中正區汀州路1段244、246號,25.0272368,121.5103452
全家便利商店,54375433,台北市第五0七分公司,中山區林森北路630、632號,25.067559699999997,121.52560919999999
全家便利商店,54375476,台北市第五0八分公司,文山區景華街7號、3巷2號,24.994567899999996,121.5454179
全家便利商店,54375617,台北市第五一0分公司,中正區中華路2段307巷46、48、50、52號,25.029412699999998,121.5064301
全家便利商店,54377024,台北市第五一一分公司,萬華區峨眉街82號,25.044116,121.504065
全家便利商店,54377474,台北市第五一二分公司,松山區三民路6號1樓,25.052179199999998,121.5639437
全家便利商店,54380132,台北市第五一五分公司,松山區塔悠路19號1樓,25.0504785,121.5719533
全家便利商店,54380338,台北市第五一四分公司,松山區民權東路3段160巷11號1樓,25.0606677,121.5478006
全家便利商店,54380941,台北市第五一六分公司,信義區忠孝東路5段71巷8號1樓,25.0419139,121.56721
全家便利商店,54382146,台北市第五一七分公司,內湖區行善路289、289-1號1樓,25.061675100000002,121.58416809999999
全家便利商店,54382737,台北市第五一八分公司,文山區木新路3段93、95號,24.982117000000002,121.56295940000001
全家便利商店,54383068,台北市第五一九分公司,士林區中山北路6段726號北側,25.115105399999997,121.5279213
全家便利商店,54383481,台北市第五二一分公司,萬華區興義街41、43號1樓,25.026524,121.49175459999998
全家便利商店,54383686,台北市第五二O分公司,中山區農安街86、84號1樓,25.0647448,121.5292794
全家便利商店,54383790,台北市第五二三分公司,內湖區星雲街161巷1號,25.0809124,121.5962673
全家便利商店,54383840,台北市第五二二分公司,士林區德行東路109巷75、77號1樓,25.1100775,121.52846969999999
全家便利商店,54384931,台北市第五二四分公司,信義區虎林街61-4、61-5號,25.046285,121.57711599999999
全家便利商店,54385170,台北市第五二五分公司,中山區德惠街16-7號,25.0665771,121.5247074
全家便利商店,54386369,台北市第五二六分公司,南港區南港路3段2號、臺北市南港區成功路1段2號,25.053043399999996,121.5864318
全家便利商店,54386852,台北市第五二七分公司,中正區八德路1段43巷2號,25.0443907,121.5315762
全家便利商店,54387992,台北市第五二八分公司,信義區松德路283、285號,25.03244,121.574747
全家便利商店,54389963,台北市第五二九分公司,大安區和平東路3段58號1樓,25.024442699999998,121.54818770000001
全家便利商店,54390687,台北市第五三O分公司,內湖區環山路1段110號,25.086536199999998,121.5679908
全家便利商店,54391314,台北市第五三一分公司,大安區信義路4段265巷8號1、B1樓、台北市大安區信義路265巷8-1號,25.0339579,121.5565517
全家便利商店,54392236,台北市第五三三分公司,北投區公館路230號,25.126236,121.50799199999999
全家便利商店,54392427,台北市第五三二分公司,中山區農安街160號,25.0645895,121.53399070000002
全家便利商店,54392480,台北市第五三四分公司,大安區延吉街130號,25.0401258,121.55471809999999
全家便利商店,54393636,台北市第五三五分公司,中山區合江街87、89號1樓,25.059242,121.539272
全家便利商店,54394071,台北市第五三六分公司,萬華區西園路1段246號1樓,25.034458899999997,121.4985949
全家便利商店,54397035,台北市第五三七分公司,中山區新生北路1段116號、118號,25.050589399999996,121.527773
全家便利商店,54397871,台北市第五三八分公司,松山區光復南路32巷46-4號,25.04627,121.55433300000001
全家便利商店,54398962,台北市第五三九分公司,中山區民生東路1段39號,25.0582094,121.52592720000001
全家便利商店,70747516,東安分公司,內湖區安康路480號1樓,25.067850600000003,121.61591090000002
全家便利商店,70750286,錦西分公司,中山區錦西街8號1樓,25.0602478,121.52175049999998
全家便利商店,70758421,萬全分公司,大同區雙連里民生西路63號1樓,25.0577402,121.5201311
全家便利商店,70758436,貴陽分公司,萬華區富民里貴陽街二段182號、184號1樓,25.0400845,121.5005845
全家便利商店,70762488,德行分公司,士林區蘭雅里德行東路109巷3號1樓,25.1078967,121.5282269
全家便利商店,70763254,湖山分公司,內湖區港都里麗山街348巷10弄2號1樓,25.0821914,121.57346969999999
全家便利商店,70763260,齊東分公司,中正區幸福里濟南路2段3號之7，1樓,25.04146,121.52661270000002
全家便利商店,70765915,豐興分公司,松山區民生東路三段130巷5弄22號1樓,25.056915,121.54715
全家便利商店,70766415,摩天分公司,中正區黎明里許昌街26號1樓,25.0454432,121.5163986
全家便利商店,70769383,大盛分公司,松山區吉祥里南京東路五段66巷2弄1之1號1樓,25.050830899999998,121.56056799999999
全家便利商店,70770207,海華分公司,信義區廣居里虎林街132巷81號1樓,25.040249600000003,121.57411770000002
全家便利商店,70770924,水源分公司,中正區水源里汀州路3段261號1樓,25.012841899999998,121.53523030000001
全家便利商店,70771590,興盛分公司,內湖區週美里新明路182號1樓,25.057434100000002,121.5853506
全家便利商店,70773231,中視分公司,南港區東新里興南街39號1樓,25.056206200000002,121.60156609999999
全家便利商店,70773247,松平分公司,中山區中吉里四平街47號1樓,25.0538187,121.5323058
全家便利商店,70779798,興北分公司,松山區民福里民權東路三段103巷15之1號1樓,25.063522600000002,121.5450746
全家便利商店,70779827,寶慶分公司,中正區建國里延平南路111號1樓,25.038080800000003,121.50997290000001
全家便利商店,70782908,和復分公司,大安區群賢里和平東路2段261號、263號1樓,25.024823,121.54584140000001
全家便利商店,70783929,三興分公司,信義區景聯里吳興街7號1樓,25.0317752,121.55948479999999
全家便利商店,70788229,延安分公司,大安區延吉街158號1樓,25.0395322,121.55485060000001
全家便利商店,70796065,興華分公司,南港區東明里興華路86號1樓,25.055931899999997,121.6056456
全家便利商店,70799838,景和分公司,文山區景美里羅斯福路六段274號1樓,24.991463,121.53990800000001
全家便利商店,70799859,明德分公司,北投區石牌里明德路93號1樓,25.1090818,121.5188848
全家便利商店,70799865,樂群分公司,中山區成功里樂群二路186號1樓,25.0798868,121.5584382
全家便利商店,70806916,光明分公司,北投區大同里光明路23號、25號1樓,25.1326655,121.49919059999999
全家便利商店,70810279,台新分公司,大安區大學里新生南路3段84之8號1樓,25.0188262,121.53344009999998
全家便利商店,70813249,環山分公司,內湖區西湖里環山路1段5號1樓,25.082813899999998,121.5656618
全家便利商店,70813347,葫蘆分公司,士林區葫蘆里延平北路5段283之1號1樓,25.0855563,121.5094953
全家便利商店,70814633,東華分公司,北投區永明里東華街2段88號1樓,25.117755399999997,121.51362730000001
全家便利商店,70815675,興崙分公司,文山區興隆路4段50之1號、50之2號1樓,24.986523000000002,121.560776
全家便利商店,70816175,明曜分公司,大安區建倫里仁愛路4段151巷34號、36號1樓,25.0402796,121.5517632
全家便利商店,70818259,松興分公司,信義區永吉里松山路107號1樓,25.047798,121.57800900000001
全家便利商店,70824061,松盛分公司,信義區永吉里松山路153號1樓,25.0465159,121.577973
全家便利商店,80024068,慶權分公司,大同區民權里重慶北路2段263號1樓,25.062744199999997,121.5138172
全家便利商店,80024095,慶城分公司,松山區中正里慶城街8號1樓,25.052626,121.54485700000001
全家便利商店,80027425,陽大分公司,北投區東華里立農街2段155號1樓,25.119244600000002,121.5138621
全家便利商店,80027662,國泰分公司,大安區敦煌里仁愛路4段266巷15弄10號1樓,25.036554199999998,121.5535388
全家便利商店,80029129,和鄰分公司,中正區螢圃里和平西路1段82號1樓,25.0263509,121.5186511
全家便利商店,80029296,清江分公司,北投區中央里清江路1號1樓,25.131746399999997,121.50144540000001
全家便利商店,80031743,日祥分公司,萬華區日祥里青年路154號、168巷2弄14號1樓,25.0208562,121.502734
全家便利商店,80031758,微風分公司,松山區中崙里市民大道四段51號1樓,25.045340200000002,121.546099
全家便利商店,80032285,萬和分公司,文山區萬隆里羅斯福路5段218巷38弄2號1樓,25.0021667,121.53691429999999
全家便利商店,80033215,聯合分公司,信義區新仁里忠孝東路四段553巷6弄17號1樓,25.042370000000002,121.56348999999999
全家便利商店,80033221,新湖分公司,內湖區湖元里新湖二路250巷8號1樓,25.0648819,121.58256770000001
全家便利商店,80033735,富陽分公司,中正區黎明里襄陽路7號1樓,25.043469,121.5159368
全家便利商店,80035614,重陽分公司,南港區東新里重陽路183號、185號1樓,25.056778899999998,121.59875929999998
全家便利商店,80327865,福林分公司,士林區福林里中正路233號、233之1號1樓,25.095192,121.52601200000001
全家便利商店,80327871,興和分公司,大安區群賢里復興南路2段153號1樓,25.0282862,121.54374909999999
全家便利商店,80331170,松醫分公司,松山區東光里健康路158號1樓,25.0534555,121.55753419999999
全家便利商店,80332396,立賢分公司,北投區立賢里承德路7段290號1樓,25.116337100000003,121.50485220000002
全家便利商店,80334388,瑞陽分公司,內湖區瑞陽里文德路90巷49號1樓,25.077196,121.5834715
全家便利商店,80340255,瑞光分公司,內湖區西康里瑞光路510號1樓,25.0794824,121.56769240000001
全家便利商店,80342818,萬年分公司,萬華區西門里西寧南路155號1樓,25.043519600000003,121.50633049999999
全家便利商店,80345765,天誠分公司,士林區天福里天母東路五十巷二十之二號一樓,25.1170158,121.53358119999999
全家便利商店,80346808,大道分公司,信義區大道里大道路79號1樓,25.040767000000002,121.582571
全家便利商店,80348897,昆明分公司,萬華區新起里昆明街186號1樓,25.039892000000002,121.50379769999999
全家便利商店,80353595,成都分公司,萬華區西門里成都路86號1樓,25.0430189,121.50453799999998
全家便利商店,80354433,江寧分公司,中山區江寧里民權東路3段64號1樓,25.062279500000002,121.54265349999999
全家便利商店,80355952,崇合分公司,北投區清江里三合街2段487號1樓,25.1262723,121.5012104
全家便利商店,84306238,興安分公司,中山區興安街57號1樓,25.0562341,121.5423877
全家便利商店,84306244,協和分公司,信義區中坡南路38號1樓,25.042819100000003,121.58336670000001
全家便利商店,84306455,美崙分公司,士林區華榮街97號1樓,25.0971113,121.5231683
全家便利商店,84307285,興忠分公司,大安區復興南路1段200號1樓,25.0395962,121.54354620000001
全家便利商店,84307460,中央分公司,松山區民生東路四段95號、97巷1號1樓,25.058214000000003,121.551988
全家便利商店,84307476,雙城分公司,中山區雙城街12之1號1樓,25.0678245,121.5252342
全家便利商店,84309116,日津分公司,中山區正義里天津街47號1樓,25.0501523,121.5231131
全家便利商店,84309333,慶城分公司,松山區慶城街２１之１號１樓,25.0534154,121.54507050000001
全家便利商店,84310970,公園分公司,萬華區青年路48號1樓,25.0255058,121.5040626
全家便利商店,84900075,明真分公司,大同區延平北路4段19號1樓,25.069361999999998,121.51096329999999
全家便利商店,84901476,錦江分公司,中山區錦州街215號1樓,25.0604895,121.5321232
全家便利商店,86381746,豐禾分公司,松山區民生東路三段130巷5弄2號1樓,25.056917000000002,121.54633500000001
全家便利商店,86384032,林森北路分公司,中山區林森北路119巷49號1樓,25.0503888,121.5267831
全家便利商店,86385356,興南分公司,大安區復興南路2段8號1樓,25.032908399999997,121.5434186
全家便利商店,86385362,麗山分公司,內湖區內湖路1段737巷49號1樓,25.080389800000003,121.5790717
全家便利商店,86385378,德惠分公司,中山區吉林路448號1樓,25.066710999999998,121.5302321
全家便利商店,86386101,東園分公司,萬華區東園街69號、71號、71之1號1樓,25.023201399999998,121.4976402
全家便利商店,89282544,北投分公司,北投區光明路218之1號1樓,25.1362228,121.5042146
全家便利商店,89389784,永吉二分公司,信義區永吉路223號1樓,25.0457139,121.57413799999999
全家便利商店,89397068,辛亥分公司,大安區辛亥路2段171巷3號1樓,25.0219547,121.54120790000002
全家便利商店,89397546,名門分公司,文山區和平東路4段95、97號1樓,25.005017300000002,121.5683746
全家便利商店,89406587,興隆二分公司,文山區興隆路二段３０３號１樓,25.0014094,121.55335090000001
全家便利商店,96971279,富康分公司,南港區富康街86號1樓,25.0519516,121.6169591
全家便利商店,96973699,延孝分公司,大安區延吉街135號之3，1樓,25.0423264,121.55436709999998
全家便利商店,96974769,宏大分公司,松山區敦化北路155巷3號1樓,25.054198899999996,121.549824
全家便利商店,96974867,大理分公司,松山區光復北路11巷50號1樓,25.0498405,121.56001670000002
全家便利商店,96976106,仙岩分公司,文山區仙岩路2號1樓,24.9982389,121.54788500000001
全家便利商店,96978603,長春分公司,中山區長春路48號1樓,25.0548182,121.52577099999999
全家便利商店,96979716,萬國分公司,萬華區峨嵋街21號1樓,25.04353,121.5074369
全家便利商店,97161706,美仁分公司,松山區美仁里八德路三段１１９號１樓,25.0482864,121.5541045
全家便利商店,97161826,龍泉分公司,大安區師大路三十九巷８號１樓,25.02457,121.528853
全家便利商店,97164730,龍江二分公司,中山區龍江路八十五號１樓,25.051202,121.5405554
全家便利商店,97168911,尊賢分公司,北投區尊賢街260號1樓,25.117323100000004,121.50712299999999
全家便利商店,97169670,景中分公司,文山區景中街5號，7號1樓,24.9930331,121.54177800000001
全家便利商店,97174006,成功分公司,大安區和平東路2段311巷32號1樓,25.0256425,121.54507
全家便利商店,97174569,北醫分公司,信義區吳興街263號1樓,25.0270919,121.5638048
全家便利商店,97175080,福港分公司,士林區百齡里前港街126號1樓,25.085197100000002,121.5178372
全家便利商店,97176638,長林分公司,中山區林森北路107巷54號1樓,25.0498218,121.52679340000002
全家便利商店,97176659,興園分公司,文山區興業里興隆路2段220巷33號1樓,25.0004156,121.55226509999999
全家便利商店,97178636,羅中分公司,大安區羅斯福路2段17號1樓,25.028110899999998,121.52194399999999
萊爾富國際,16133884,北巿世新分公司,文山區木柵路一段８號１樓,24.986619,121.54615590000002
萊爾富國際,16135308,昆陽分公司,南港區昆陽街９９號１樓,25.051488199999998,121.5937896
萊爾富國際,16176102,北巿港成分公司,南港區玉成街２７號一樓,25.05051,121.581897
萊爾富國際,16436986,北巿內湖第二分公司,內湖區成功路二段３１８之１號１樓,25.0674986,121.59046740000001
萊爾富國際,16450179,北市開利分公司,士林區社子街一四四號一樓,25.0884763,121.50499579999999
萊爾富國際,16749761,北市馬偕分公司,中山區民生西路三巷二號一樓,25.0581333,121.521676
萊爾富國際,16837743,北市麥帥分公司,內湖區行善路三十三號一樓,25.0566054,121.5760479
萊爾富國際,16841009,北市慶泰分公司,中山區松江路一八六之一號一樓,25.0567301,121.53268899999999
萊爾富國際,16845194,北市獅子林分公司,萬華區西寧南路三十六號之七十一、七十二、七十三、七十四,25.031259,121.53009899999999
萊爾富國際,23437096,延平分公司,延平區延平北路二段２５５之１號１樓,25.0625271,121.5115051
萊爾富國際,23441606,南港第二分公司,南港區忠孝東路七段６３９號１樓,25.053389000000003,121.616143
萊爾富國際,23462545,重慶分公司,大同區重慶北路三段２４號１樓,25.0715454,121.51480090000001
萊爾富國際,24789386,第四二六五分公司,南港區三重里經貿二路235巷36號1樓,25.061362399999997,121.61516950000001
萊爾富國際,24794374,第四二一七分公司,大安區羅斯福路3段297號1樓,25.017657999999997,121.5316831
萊爾富國際,24796485,第四三O七分公司,中正區梅花里八德路1段46號1樓,25.043739600000002,121.53082240000002
萊爾富國際,24798435,第四三一三分公司,北投區林泉里中山路28-5號及28之6號地下2層,25.1379427,121.51001780000001
萊爾富國際,24801656,第四二二六分公司,萬華區日善里民和街10號、12號1樓,25.026407199999998,121.4999348
萊爾富國際,24810584,第四三五一分公司,士林區天母里中山北路7段191巷21號1樓,25.1255229,121.53111799999999
萊爾富國際,27237605,北市同京分公司,大同區西寧北路三十五號一樓,25.0514065,121.5084285
萊爾富國際,27240067,第２７８２分公司,信義區興榮里基隆路一段三五０之四十一、四十三號一樓,25.0412332,121.564626
萊爾富國際,27242635,第２８９５分公司,中正區幸福里紹興南街四-十二號一樓,25.0374092,121.5230713
萊爾富國際,27244296,第２８６０分公司,中山區德惠街一０九號一樓,25.0668195,121.52502390000001
萊爾富國際,27246512,第２６９０分公司,松山區莊敬里撫遠街三六九巷三十六號一樓,25.0642816,121.5659155
萊爾富國際,27249428,第２９８２分公司,信義區永春里中坡北路１７、１９號１樓,25.044776199999998,121.58096640000001
萊爾富國際,27249433,第２５９７分公司,南港區東明里南港路２段２、４號１樓,25.054381699999997,121.6060771
萊爾富國際,27254293,第３０３４分公司,北投區關渡里知行路３１４號１樓,25.1224438,121.46726890000001
萊爾富國際,27311837,北市安建分公司,大安區建國南路一段三三七號一樓,25.0345389,121.538247
萊爾富國際,27312385,北市松育分公司,松山區八德路三段一一九號一樓,25.0482864,121.5541045
萊爾富國際,27318748,北市港北分公司,南港區中坡北路五０巷一號一樓,25.046577,121.58090200000001
萊爾富國際,27927030,第３０８８分公司,大同區建泰里南京西路３０號１樓,25.050591,121.520036
萊爾富國際,27927192,第３１０５分公司,內湖區安康路１４２號１樓,25.0628349,121.600146
萊爾富國際,27934807,第３２０７分公司,中正區館前路４５號１樓,25.0451013,121.5151364
萊爾富國際,27938037,第３２７１分公司,大安區臨江街４０巷２號１樓,25.0295779,121.5561092
萊爾富國際,27941791,第3301分公司,信義區松山路537號、541巷1號1樓,25.029585,121.5838024
萊爾富國際,27946986,第三三五一分公司,大安區忠孝東路3段287號1樓,25.041866,121.5429922
萊爾富國際,27947824,第三０六二分公司,士林區天山里中山北路7段186號1樓,25.1247132,121.5330577
萊爾富國際,27951827,第三三九五分公司,松山區新聚里南京東路5段250巷3-1號1樓,25.050678899999998,121.56600320000001
萊爾富國際,28415058,第三０八０分公司,大同區重慶北路1段63號1樓,25.051475500000002,121.5124878
萊爾富國際,28415917,第三四二一分公司,中山區民權東路3段7號1樓,25.0625575,121.54124209999999
萊爾富國際,28419821,第三四四九分公司,中山區天祥路70號1樓,25.062396300000003,121.52083909999999
萊爾富國際,28421381,第三四七一分公司,士林區義信里大東路7號1樓,25.0866243,121.5253557
萊爾富國際,28429222,第三五三六分公司,松山區復勢里光復北路102號1樓,25.0506768,121.55769009999999
萊爾富國際,28431445,第三五五七分公司,南港區經貿二路1號,25.0560908,121.61758999999999
萊爾富國際,28433176,第三一一八分公司,北投區立德路60號、立功街135號1樓,25.123421,121.4716472
萊爾富國際,28436504,第三六一一分公司,中正區光復里衡陽路103號1樓,25.042160199999998,121.5112034
萊爾富國際,28437877,第三五七○分公司,大同區建泰里南京西路64巷9弄2號1樓,25.052382,121.5188426
萊爾富國際,28438518,第三六三三分公司,大同區隆和里延平北路3段40號1樓,25.0646138,121.51110700000001
萊爾富國際,28438616,第三六０七分公司,北投區裕民里裕民六路120號1樓,25.114535,121.51764820000001
萊爾富國際,28971907,第三六五六分公司,松山區東光里南京東路5段61號、63號1樓,25.0517676,121.55939099999999
萊爾富國際,28972103,第三六三八分公司,大安區華聲里光復南路98之3號、98之5號1樓,25.0440906,121.5575028
萊爾富國際,28973193,第三六二九分公司,南港區舊莊里舊莊街1段212巷2號1樓,25.038283,121.6223631
萊爾富國際,28976467,第三六八六分公司,大同區至聖里酒泉街15號1樓,25.0707698,121.51964740000001
萊爾富國際,28976868,第三七○七分公司,北投區八仙里中央南路2段5號、7號1樓,25.1259449,121.5005487
萊爾富國際,28980146,第三五九七分公司,萬華區和平里雙園街69號1樓,25.0302454,121.4939555
萊爾富國際,28980841,第三七三五分公司,內湖區湖興里民權東路6段117號1樓,25.0691104,121.59220069999999
萊爾富國際,28983615,第三七四八分公司,南港區中研里研究院路2段110號1樓,25.042659699999998,121.6165656
萊爾富國際,28990257,第三七六一分公司,萬華區青山里梧州街55號1樓,25.036017,121.49766399999999
萊爾富國際,28996702,第三七九五分公司,信義區景新里莊敬路290號1樓,25.028519,121.56302099999999
萊爾富國際,51440868,第四三八三分公司,南港區重陽路472號1樓,25.059627,121.611349
萊爾富國際,51601202,北市日出分公司,文山區木柵路2段4號,24.988601,121.55791699999999
萊爾富國際,51617675,北市西湖分公司,內湖區內湖路1段217巷37號,25.083855,121.565243
萊爾富國際,51752101,第四四五一分公司,松山區敦化北路222巷50號、52號,25.060104,121.5469947
萊爾富國際,53004321,第三八三六分公司,內湖區港墘里陽光街298號1樓,25.072667199999998,121.5747775
萊爾富國際,53006432,第三八七○分公司,內湖區西康里內湖路1段120巷16號1樓,25.0826268,121.5626348
萊爾富國際,53009389,第三八八九分公司,內湖區湖元里新湖二路160號、162號1樓,25.0631094,121.5796953
萊爾富國際,53010604,第三八九八分公司,內湖區西湖里基湖路35巷11號1樓,25.079826,121.5651466
萊爾富國際,53010702,第三八九九分公司,中山區朱園里松江路27號1樓,25.0473433,121.53318329999999
萊爾富國際,53012390,第三九○八分公司,萬華區和平里西園路2段134號、136號、138號1樓,25.0315294,121.4949249
萊爾富國際,53014622,第三九三四分公司,中正區建國里寶慶路35號1樓,25.041550199999996,121.5103426
萊爾富國際,53019513,第三九五八分公司,內湖區康樂里安泰街26號28號1樓,25.0740793,121.6176432
萊爾富國際,53021454,第三六九五分公司,北投區永明里義理街96號、立農街2段292號1樓,25.118598600000002,121.51634640000002
萊爾富國際,53024522,第三九七九分公司,大安區龍陣里興南路2段148號1樓,25.0272712,121.5435514
萊爾富國際,53026628,第三九九五分公司,南港區合成里玉成街52巷2弄3號、5號1樓,25.047749,121.58145900000001
萊爾富國際,53650755,第三九六九分公司,北投區清江里清江路53號、55號1樓,25.127528299999998,121.5020154
萊爾富國際,53654056,第四０五三分公司,內湖區港墘里江南街111號1樓,25.076484100000002,121.57637700000001
萊爾富國際,53665624,第四0九六分公司,中正區梅花里忠孝東路1段35號1樓,25.0444909,121.5255533
萊爾富國際,53667897,第四0九七分公司,內湖區內湖里金龍路64號、66號1樓,25.0848285,121.59287759999998
萊爾富國際,53669804,第四一0八分公司,士林區天壽里中山北路6段431之4號1樓,25.114295199999997,121.52712460000001
萊爾富國際,53670020,第四0八二分公司,萬華區孝德里德昌街241號2453號245號1樓,25.0227662,121.49310870000001
萊爾富國際,53673856,第四一二四分公司,北投區永和里行義路142-1號地下1樓、142-3號地下1樓,25.129919100000002,121.5282383
萊爾富國際,53676811,第四0九二分公司,南港區西新里南港路3段8號1樓、10號1樓,25.054020899999998,121.592243
萊爾富國際,53925522,第四0五五分公司,中山區松江路50號1樓,25.0481797,121.53266380000001
萊爾富國際,53933500,第三四九七分公司,萬華區長沙街2段50號1樓,25.040592999999998,121.50596999999999
萊爾富國際,54370818,第四一六一分公司,內湖區大湖里大湖山莊街179號1樓,25.0881987,121.6011837
萊爾富國際,54374820,第四一五八分公司,內湖區石潭里新明路241號、241-1號1樓,25.057888600000002,121.58734469999999
萊爾富國際,54374906,第四一七七分公司,大安區黎孝里安居街15號1樓,25.0209341,121.55505490000002
萊爾富國際,54376329,第四一五九分公司,萬華區青山里廣州街247號1樓,25.0368717,121.4974311
萊爾富國際,54379450,第四一九九分公司,中正區林興里辛亥路1段17巷2號及19號1樓,25.0206895,121.53076010000001
萊爾富國際,54386760,第四二一一分公司,內湖區西康里文湖街21巷26、28號1樓,25.0910758,121.5599497
萊爾富國際,54388367,第四二二七分公司,中正區梅花里八德路1段82巷10號1樓,25.043704,121.5320165
萊爾富國際,54388535,第四二二九分公司,中正區黎明里南陽街1號1樓,25.0457437,121.5161821
萊爾富國際,54396556,第四二四九分公司,萬華區青山里西園路1段168號、170號1樓,25.0369003,121.4992354
萊爾富國際,54398148,第四二三二分公司,大同區承德路3段284、286號1樓,25.0738888,121.5193528
萊爾富國際,70748472,北市興隆分公司,文山區興隆路二段二０三巷一六號一樓,25.0021272,121.54870349999999
萊爾富國際,70751861,北市松永分公司,信義區永吉路二八０號一樓,25.0457832,121.5685152
萊爾富國際,70751932,北市萬興分公司,文山區興隆路三段五十八號一樓,24.999950600000002,121.55605179999999
萊爾富國際,70758626,北市杭州分公司,大安區杭州南路二段五號一樓,25.034505399999997,121.5241305
萊爾富國際,70761262,北市中山第三分公司,中山區中山北路二段六十五巷十三號一樓,25.0571417,121.5240264
萊爾富國際,70762240,北市康寧分公司,內湖區康寧路三段一五五號一樓,25.070460100000002,121.6115889
萊爾富國際,70762733,北市金湖分公司,內湖區金湖路四０三號一樓,25.0797878,121.5987768
萊爾富國際,70765062,北市國醫分公司,內湖區民權東路六段123巷30號、32號1樓,25.0702265,121.59281370000001
萊爾富國際,70773675,北市新喜分公司,中山區德惠街一六七巷二號一樓,25.066626199999998,121.53174229999999
萊爾富國際,70786910,北市雙連分公司,中山區民生西路六二號一樓,25.0575608,121.52093149999999
萊爾富國際,70786926,北市南海分公司,中正區南海路一二一四號一樓,25.031342600000002,121.5120567
萊爾富國際,70789959,北市明湖分公司,內湖區民權東路六段二九六巷六十八號一樓,25.0702168,121.60891979999998
萊爾富國際,70790837,北市試院分公司,文山區試院路一０四號一樓,24.9900229,121.54765090000001
萊爾富國際,70806346,北市饒河分公司,松山區饒河街三十五號一樓,25.050155899999996,121.57262720000001
萊爾富國際,70807295,北市指南分公司,文山區萬興里指南路二段三十二號一樓,24.9877685,121.57473440000001
萊爾富國際,70807318,北市衣蝶分公司,大同區南京西路六十三號一樓,25.053160600000002,121.5189895
萊爾富國際,70809961,北市羅斯福分公司,大安區古莊里羅斯福路二段七十五之一號一樓,25.025802300000002,121.5234687
萊爾富國際,70814113,北市陽光分公司,內湖區湖元里陽光街三四七號一樓,25.0730972,121.57769740000002
萊爾富國際,70821515,北市湖光分公司,內湖區港墘里瑞光路一八八巷六十號一樓,25.073624600000002,121.5761687
萊爾富國際,70822628,北市安世分公司,大安區誠安里忠孝東路三段二八九號一樓,25.0418612,121.54302129999999
萊爾富國際,70825110,北市湖森分公司,內湖區湖元里瑞光路六十六巷三十三號一樓,25.0697778,121.5813294
萊爾富國際,80020936,北市北天分公司,北投區一德里中央北路四段八號一樓,25.1355412,121.47877390000001
萊爾富國際,80332369,北市安國分公司,大安區光復南路二九０巷二十五號一樓,25.0395124,121.5568533
萊爾富國際,80341418,北市文福分公司,文山區景慶里景福街二三０巷二號一樓,24.9963098,121.5360159
萊爾富國際,80341445,北市同吉分公司,大同區揚雅里昌吉街六十三號一樓,25.066014399999997,121.5147094
萊爾富國際,80346764,北市文武分公司,文山區萬祥里羅斯福路五段二０三號一樓,25.0013099,121.539515
萊爾富國際,80350957,北市松華分公司,松山區吉祥里南京東路五段三十四號一樓,25.0512633,121.5592325
萊爾富國際,80351647,北市正泉分公司,中正區泉州街31號、33號、寧波西街104號1樓,25.0295378,121.51421289999999
萊爾富國際,80351668,北市安復分公司,大安區光武里復興南路一段一三五巷二十一號一樓,25.042657000000002,121.54522150000001
萊爾富國際,80352532,北市山寧分公司,中山區力行里長安東路二段一七一之七號一樓,25.048399300000003,121.542254
萊爾富國際,80353618,北市山華分公司,中山區復華里長春路二０八號一樓,25.054849800000003,121.523293
萊爾富國際,80355502,北市北和分公司,北投區中和里中和街四０二號一樓,25.1442586,121.4964324
萊爾富國際,80491154,北市權湖分公司,內湖區民權東路六段五八號一樓,25.068624399999997,121.584652
萊爾富國際,80492935,北市松康分公司,松山區健康路三二五巷一二弄二號一樓,25.0554501,121.5673544
萊爾富國際,80652094,北市北崗分公司,北投區中央北路三段四四、四六號一樓,25.137141699999997,121.4828384
萊爾富國際,80653755,北市信德分公司,信義區虎林街一六四巷六０弄二號一樓,25.037987899999997,121.57448470000001
萊爾富國際,80655016,北市信東分公司,信義區忠孝東路五段六三號一樓,25.041237399999996,121.566674
萊爾富國際,80667836,北市信吉分公司,信義區永吉路一二五號一樓,25.0458868,121.570224
萊爾富國際,80669736,北市安華分公司,大安區延吉街一三一巷四三號一樓,25.0429465,121.5558172
萊爾富國際,80680036,北市同達分公司,大同區延平北路二段一一四、一一六、一一八號及民生西路三三五號一樓,25.0569879,121.5155683
萊爾富國際,80680704,北市士慶分公司,士林區社正路七五號一樓,25.089123100000002,121.51075829999999
萊爾富國際,80682837,北市安皓分公司,大安區忠孝東路四段181巷8號,25.042067499999998,121.55070009999999
萊爾富國際,80691272,北市同密分公司,大同區哈密街五九巷二一號一樓,25.074750899999998,121.5158243
萊爾富國際,84126073,社正分公司,士林區社正路２７號１樓,25.088735800000002,121.5091529
萊爾富國際,86173901,第一分公司,中山區中山北路二段１３７巷２號１樓,25.0616516,121.5236871
萊爾富國際,86174079,南港第三分公司,南港區忠孝東路六段２５２號１樓,25.048843899999998,121.58831299999999
萊爾富國際,86174134,延平第二分公司,士林區延平北路五段１３８號１樓,25.0789815,121.5100351
萊爾富國際,86174726,福德分公司,信義區福德街２６６號１樓,25.038884,121.58589209999998
萊爾富國際,86324268,承德分公司,士林區劍潭路62號1樓,25.083386899999997,121.52134640000001
萊爾富國際,86324979,民生分公司,中山區民生西路２號１樓,25.0577564,121.52243870000001
萊爾富國際,86516245,林口分公司,信義區林口街３６號１樓,25.0377966,121.5795226
萊爾富國際,86516408,木新第二分公司,文山區木新路三段２３２巷６弄１８號１樓,24.9819405,121.5597153
萊爾富國際,89448432,福國分公司,士林區福國路１００號１樓之３,25.1024589,121.52191
萊爾富國際,89478316,梧州分公司,梧州街２９號１樓,25.0374727,121.49771840000001
萊爾富國際,89633106,敦化分公司,松山區八德路三段１２巷５１弄２號１樓,25.046129500000003,121.5507689
萊爾富國際,89935616,迪化分公司,大同區迪化街一段４８、５０號１樓,25.054109,121.509054
萊爾富國際,89971942,中原第二分公司,中山區中原街７７號１樓,25.0590182,121.52898259999999
萊爾富國際,96934520,社子分公司,士林區社子街６３巷２號１樓,25.087589,121.50689550000001
萊爾富國際,96967107,和平分公司,中正區延平南路２１０號１樓,25.0347891,121.50745479999999
萊爾富國際,97082528,懷德分公司,北投區懷德街五號一樓,25.1113681,121.51915159999999
萊爾富國際,97309074,北巿木新第三分公司,文山區木新路二段一六三號一樓,24.983834899999998,121.56877
萊爾富國際,97435115,北巿台泥分公司,中山區錦州街三二號一樓,25.0602645,121.5248916
萊爾富國際,97436162,北巿南京第二分公司,中山區南京東路三段２１６巷１７號１樓,25.0512926,121.5435098
萊爾富國際,97455982,北巿康樂第二分公司,內湖區康樂街９２號１樓,25.0706289,121.61896589999999
萊爾富國際,97461289,北巿民東分公司,內湖區民權東路六段７５號１樓,25.069255899999998,121.5877344
