Number,Name,Address,Status,lat,long,cond
1130298,順達汽車材料行,臺北市大同區南京西路64巷24弄5號,核准設立,25.0512902,121.5181977,T
1131515,昆成工具行,臺北市大同區哈密街59巷38弄31號3樓,核准設立,25.075094,121.5149113,T
1217816,欣工電能工程行,臺北市內湖區內湖路3段60巷6號,核准設立,25.0865509,121.59206499999999,T
1383048,利榮五金行,臺北市北投區自強街5巷71號1樓,核准設立,25.1112651,121.5118635,T
1604443,億勝工程行,臺北市信義區永吉路326巷23號1樓,核准設立,25.044273,121.57556100000001,T
1638083,立德機械五金行,臺北市內湖區新明路125號(1樓),核准設立,25.0594412,121.5898063,T
1662885,榮泰輪胎五金行,臺北市南港區研究院路1段153號1樓,核准設立,25.050676199999998,121.6157798,T
1711767,明泉水電工程行,臺北市文山區指南路3段29號1樓,核准設立,24.9847455,121.58038130000001,T
1961217,全慶五金電料行,臺北市大同區環河北路2段223巷14號,核准設立,25.069962399999998,121.5100956,T
3573500,劉建成五金店,臺北市中正區市民大道3段8號4樓417、418室,核准設立,25.0450357,121.53193119999999,T
4236844,金振發五金電器行,臺北市中正區紹興南街4之11號,核准設立,25.0434253,121.5246874,T
4518512,建成工具行,臺北市大同區重慶北路1段100號1樓,核准設立,25.0528531,121.51564609999998,T
4775722,勝隆水電行,臺北市內湖區金龍路53號1樓,核准設立,25.0849681,121.593465,T
5149993,台源五金行,臺北市中正區環河南路1段河濱商場135號1樓,核准設立,25.0474492,121.5046554,T
5502565,裕祥裝潢材料行,臺北市文山區羅斯福路6段149號1樓,核准設立,24.9974993,121.54097479999999,T
5721978,川禾電氣五金行,臺北市中正區市民大道3段8號光華數位新天地商場4樓032、033、034、035號店鋪,核准設立,25.0450021,121.5321956,T
7639172,萬佳五金行,臺北市大同區敦煌路66號1樓,核准設立,25.075530800000003,121.5184753,T
8603736,宏昇工程行,臺北市內湖區安泰街125巷28號1樓,核准設立,25.077269,121.6173215,T
9606182,造鴻工程行,臺北市內湖區內湖路1段205號,核准設立,25.083503399999998,121.5635644,T
10304930,君誠水電行,臺北市大安區大安路2段130號,核准設立,25.029988,121.54589109999999,T
10311593,華晉橡膠五金行,臺北市萬華區環河南路1段133號,核准設立,25.042540300000002,121.50056380000001,T
10312191,旭鴻工程行,臺北市文山區興隆路1段171號,核准設立,25.001386399999998,121.5428095,T
10331964,宇林五金行,臺北市內湖區民權東路6段86號,核准設立,25.0687183,121.58580970000001,T
10338967,上好廣告工程行,臺北市大同區哈密街63巷16號,核准設立,25.073862,121.51523459999999,T
10345377,詠順工程行,臺北市士林區延平北路6段30號,核准設立,25.0875044,121.50915320000001,T
10348233,三儀電子材料行,臺北市中正區市民大道3段8號光華數位新天地商場4樓48號店鋪,核准設立,25.0450021,121.5321956,T
10387988,巨揚水電行,臺北市信義區吳興街470號,核准設立,25.023675,121.5691084,T
10664723,金鈴服裝材料行,臺北市大同區延平北路2段35號5樓,核准設立,25.0621612,121.5100305,T
11187002,正昌五金行,臺北市大同區華陰街201號1樓,核准設立,25.0504949,121.51464299999999,T
11571408,泰發水電行,臺北市中山區南京東路2段174號11樓,核准設立,25.0517526,121.53494760000001,T
12403020,龍江五金建材行,臺北市中山區龍江路200之3號,核准設立,25.0574522,121.5404507,T
13445435,家源水電冷氣行,臺北市大安區大安路1段51巷17號1樓,核准設立,25.0432388,121.5469476,T
13448475,久榮電機五金行,臺北市中山區新生北路2段147號1樓,核准設立,25.0618202,121.527957,T
13452511,瑞泰工程行,臺北市信義區永吉路225巷5弄3號,核准設立,25.046485999999998,121.574404,T
13464642,佳福五金行,臺北市萬華區環河南路1段24號1樓,核准設立,25.048277300000002,121.50569009999998,T
13471566,元威工程行,臺北市內湖區安美街165號7樓,核准設立,25.0600573,121.6003345,T
13476886,弘龍工程行,臺北市內湖區內湖路3段60巷6號,核准設立,25.0865509,121.59206499999999,T
13824674,正林五金行,臺北市萬華區環河南路1段338號1樓,核准設立,25.040517,121.49841599999999,T
13838207,東昱五金工具行,臺北市松山區八德路4段604之24號1樓,核准設立,25.049700899999998,121.57278090000001,T
13849014,久鑫五金行,臺北市中山區四平街76號1樓,核准設立,25.0535575,121.5340348,T
13859862,全聖五金行,臺北市南港區南港路1段197號,核准設立,25.055127600000002,121.6118782,T
14315277,理盛工程行,臺北市文山區興隆路4段29巷4弄10號3樓,核准設立,24.9903749,121.56028049999999,T
14325090,友善工程行,臺北市中正區汀州路3段19號1樓,核准設立,25.020084,121.52634599999999,T
14325107,國泰五金行,臺北市信義區永吉路278巷8號1樓,核准設立,25.044824,121.57411200000001,T
14331656,五佰元裝潢五金行,臺北市松山區五常街271號1樓,核准設立,25.064411,121.54489299999999,T
14340851,春達建築五金行,臺北市信義區忠孝東路5段790巷68弄11號,核准設立,25.0404805,121.58305259999999,T
14743209,友舜工程行,臺北市士林區社正路45巷29弄5號2樓,核准設立,25.0901972,121.509382,T
14882406,宏太工程行,臺北市北投區大度路3段301巷128弄2之1號4樓,核准設立,25.1201659,121.46552700000001,T
15246002,南方工具行,臺北市萬華區貴陽街2段83號1樓,核准設立,25.0398798,121.50389709999999,T
15416408,萬華五金鐵材行,臺北市萬華區莒光路116號1樓,核准設立,25.0313918,121.50361550000001,T
15640412,威盛鐵門窗工程行,臺北市士林區通河西街2段145號3樓,核准設立,25.0931313,121.5054534,T
15645916,翰興五金商行,臺北市北投區中央南路1段19號,核准設立,25.132716199999997,121.50151670000001,T
15652227,全盛五金行,臺北市萬華區西園路2段261巷46弄4號3樓,核准設立,25.024035,121.49342800000001,T
15653443,大盛五金電動工具行,臺北市松山區八德路4段294號1樓,核准設立,25.0489872,121.5670712,T
15946650,金原五金行,臺北市萬華區西藏路261之2號1樓,核准設立,25.0284698,121.493769,T
15949050,奇美五金行,臺北市萬華區貴陽街2段1之5號1樓,核准設立,25.039424,121.5067507,T
17084974,鑫鎂設計室內裝修工程行,臺北市信義區基隆路1段143號6樓之7,核准設立,25.042894600000004,121.56575819999999,T
17090639,興曄工程行,臺北市信義區吳興街583巷159號1樓,核准設立,25.019946,121.571063,T
17256949,輝耀空調水電工程行,臺北市萬華區永福街69號5樓,核准設立,25.0387036,121.5032487,T
17521216,欣鼎祥五金行,臺北市萬華區環河南路1段80號1樓,核准設立,25.0471598,121.50422890000002,T
17523306,復林工程行,臺北市中山區長安東路1段42號5樓,核准設立,25.048382999999998,121.52707579999999,T
17524332,東昇華福五金行,臺北市萬華區康定路143號,核准設立,25.0386931,121.50196820000001,T
17526198,昌運工程行,臺北市大安區安居街84巷14號,核准設立,25.019765200000002,121.55246090000001,T
17550133,三葉五金行,臺北市大同區重慶北路3段120巷59號1樓,核准設立,25.0672982,121.5118909,T
17738762,俊明五金行,臺北市大同區重慶北路3段257巷2號1樓,核准設立,25.0716637,121.51418059999999,T
17743940,王維水電冷氣工程行,臺北市大同區重慶北路3段152巷12號1樓,核准設立,25.0680246,121.51299879999999,T
17757872,美實固五金水電材料行,臺北市北投區中央北路2段58號1樓,核准設立,25.137261,121.49498200000001,T
17758318,金聲五金行,臺北市大同區重慶北路1段37號1樓,核准設立,25.05187,121.5145515,T
17764212,聯展五金商行,臺北市大安區復興南路2段151巷6之1號1樓,核准設立,25.028295999999997,121.5442832,T
17767983,切貨五金行,臺北市士林區大南路92號1樓,核准設立,25.0895449,121.524358,T
17770988,友信建材五金行,臺北市大安區泰順街44巷1號1樓,核准設立,25.023688,121.5312,T
17774324,建中五金行,臺北市信義區吳興街220巷77號1樓,核准設立,25.026061,121.560749,T
17806043,新涵五金行,臺北市內湖區成功路2段316號,核准設立,25.0673424,121.5904584,T
17818343,貿順工程行,臺北市萬華區萬大路550號2樓,核准設立,25.018407999999997,121.496398,T
18103817,峰源水電行,臺北市士林區德行東路190巷2弄2號1樓,核准設立,25.1083731,121.53106310000001,T
18375373,億隆家庭五金行,臺北市信義區松山路541巷8號,核准設立,25.0376989,121.57851399999998,T
18387357,漢昌鋼鋁工程行,臺北市北投區西安街2段195號1樓,核准設立,25.1198679,121.51023229999998,T
18408521,長春五金行,臺北市大同區太原路97巷1號1樓,核准設立,25.05219,121.516074,T
19526434,加新五金行,臺北市文山區木柵路1段66之8號,核准設立,24.986781,121.54773600000001,T
20578254,武昌水電行,臺北市松山區南京東路5段123巷4弄5號,核准設立,25.0526402,121.56120279999999,T
20754759,大進汽車材料行,臺北市信義區松隆路23號1樓,核准設立,25.044089000000003,121.56751200000001,T
20900177,百泰水電五金材料行,臺北市信義區吳興街549號,核准設立,25.0228433,121.56961609999999,T
20953069,大民水電冷氣行,臺北市信義區文昌街310號1樓,核准設立,25.0320843,121.5576895,T
20964896,來來五金行,臺北市松山區基隆路1段1號,核准設立,25.0500914,121.57001340000001,T
20996840,上順五金行,臺北市信義區永吉路189之2號1樓,核准設立,25.045779,121.5728831,T
21740754,久保家具材料行,臺北市士林區永平街80巷39號1樓,核准設立,25.091529100000002,121.50640200000001,T
21762341,大都會工程行,臺北市萬華區中華路2段150巷15號1樓,核准設立,25.0302975,121.5035338,T
21778152,閤慶水電行,臺北市內湖區江南街65巷49號1樓,核准設立,25.0764536,121.5789183,T
21899424,建榮工程行,臺北市中山區龍江路318巷29號2樓,核准設立,25.064885999999998,121.538896,T
25513695,泓勝工程行,臺北市內湖區成功路4段41巷7弄1號,核准設立,25.0808139,121.59218,T
25524588,大正油漆工程行,臺北市士林區承德路4段6巷91號,核准設立,25.080432899999998,121.518626,T
25532026,久益五金行,臺北市萬華區富民路145巷38號,核准設立,25.01879,121.50098600000001,T
25538540,富裕五金行,臺北市萬華區環河南路1段42號21號攤位,核准設立,25.034101899999996,121.493284,T
25540829,優異安控工程行,臺北市中正區羅斯福路3段100之101號,核准設立,25.021174,121.52721399999999,T
25541192,奉龍聖起裝潢工程行,臺北市中山區(南)中原街91號,核准設立,25.0596635,121.52899920000002,T
25548483,銘彥五金企業社,臺北市萬華區西藏路180號,核准設立,25.030008399999996,121.5030854,T
25554463,紘華工程行,臺北市北投區中央北路4段142巷2之1號2樓,核准設立,25.1335687,121.47573030000001,T
25555717,景華五金百貨行,臺北市文山區景華街222號,核准設立,24.9992582,121.54754750000001,T
25556808,聖諭工程行,臺北市南港區南港路3段130巷5弄12號,核准設立,25.0537259,121.58705159999998,T
25557124,龍鈦五金行,臺北市松山區八德路4段481號,核准設立,25.049912,121.5720611,T
25557356,上豪五金生活百貨館,臺北市士林區華榮街79號,核准設立,25.0967533,121.5232703,T
25565010,星昇機電保養工程行,臺北市士林區社正路45巷10號1樓,核准設立,25.089628100000002,121.50971000000001,T
25567592,名家水電行,臺北市萬華區青年路68巷16號1樓,核准設立,25.0233986,121.5021592,T
25573665,晨達橡膠五金行,臺北市萬華區開封街2段12號3樓之1,核准設立,25.046055,121.50873100000001,T
25574257,佳隆水電工程行,臺北市文山區辛亥路4段166巷17號,核准設立,25.0047183,121.55574890000001,T
25580167,僑富工程行,臺北市中山區中原街9號,核准設立,25.0554366,121.5289087,T
25583328,大台北五金行,臺北市松山區八德路4段435號1樓,核准設立,25.0498688,121.5702264,T
25661652,翊筌鋁窗材料行,臺北市北投區中和街441巷1弄1號,核准設立,25.143894600000003,121.4975353,T
26207370,柏億工程行,臺北市中山區長安東路2段246號7樓之5,核准設立,25.048105,121.54317549999999,T
26215028,廣詮工程行,臺北市文山區興隆路2段194號3樓,核准設立,25.001373899999997,121.55184299999999,T
26215625,盛庭工程行,臺北市中山區松江路318號13樓,核准設立,25.060655800000003,121.532867,T
26218974,富鈞水電行,臺北市大同區重慶北路3段69號,核准設立,25.0663013,121.5139462,T
26224315,三助水電行,臺北市中山區新生北路2段77巷6號,核准設立,25.0567591,121.528466,T
26228804,大金冷氣材料行,臺北市文山區辛亥路7段51號,核准設立,24.9846837,121.5544403,T
26231982,力豪工程行,臺北市北投區新市街24巷51之1號3樓,核准設立,25.1312796,121.50328219999999,T
26236852,旭豐工程行,臺北市大安區忠孝東路4段295號3樓,核准設立,25.041724,121.555095,T
26242475,何苡工程行,臺北市文山區景興路63號3樓,核准設立,24.9964527,121.54485849999999,T
26246280,極翔發照明工程行,臺北市北投區行義路23巷3號2樓,核准設立,25.125247,121.52641899999999,T
26246654,久康科技工程行,臺北市大安區忠孝東路4段169號11樓之1,核准設立,25.041705399999998,121.55036650000001,T
26247056,世佳工程行,臺北市大同區承德路2段193號10樓之5,核准設立,25.059338399999998,121.51842479999999,T
26251375,越峰工程行,臺北市中山區渭水路54號,核准設立,25.0455836,121.53506940000001,T
26252521,金鼎工程行,臺北市大同區昌吉街121號,核准設立,25.065996,121.510678,T
26257194,常勝水電材料行,臺北市大同區大龍街58號,核准設立,25.0651005,121.5159574,T
26338730,寶翔工程行,臺北市中山區南京東路3段189號10樓,核准設立,25.0520942,121.54218429999999,T
26340222,鼎曜工程行,臺北市松山區南京東路5段296號10樓,核准設立,25.051112,121.567412,T
26343781,東新水電行,臺北市南港區東新街10之10號4樓之1,核准設立,25.049877300000002,121.58345800000001,T
26344310,宏德興業工程行,臺北市中山區南京東路1段86號8樓之4,核准設立,25.0518622,121.52561170000001,T
26347858,宇盛冷氣材料行,臺北市北投區崇仁路1段18號,核准設立,25.127713,121.50121599999999,T
26349960,技美汽車電機材料商行,臺北市萬華區西藏路350號1樓,核准設立,25.0295013,121.49934609999998,T
26353725,三發五金行,臺北市內湖區康樂街72巷17弄44號1樓,核准設立,25.0703725,121.6171212,T
26367690,瑞遠工程行,臺北市文山區辛亥路7段15號,核准設立,24.9868809,121.55302900000001,T
26373047,星榮電料五金行,臺北市大同區承德路3段8巷18號4樓,核准設立,25.0636574,121.5165737,T
27172639,鏵鑫五金行,臺北市內湖區成功路2段181號1樓,核准設立,25.0655629,121.589941,T
27174186,順有五金行,臺北市北投區尊賢路258號,核准設立,25.1172464,121.50715859999998,T
27183544,鴻錡鋼鋁工程行,臺北市中正區汀州路2段78號1樓,核准設立,25.0250599,121.51873130000001,T
27184001,天福水電?飾廚具行,臺北市內湖區康樂街72巷17弄96號1樓,核准設立,25.070814499999997,121.6165585,T
27184608,安西小五金加工行,臺北市大同區環河北路1段389號,核准設立,25.061397,121.508657,T
27188549,永德五金行,臺北市萬華區康定路218號1樓,核准設立,25.0382033,121.501621,T
29220329,和興工程行,臺北市信義區松隆路167號10樓,核准設立,25.048288,121.574219,T
29246910,伯豐汽車材料行,臺北市大同區承德路2段53巷33號1樓,核准設立,25.055378899999997,121.5194709,T
30985287,幸安五金建材行,臺北市大安區忠孝東路3段217巷4弄1之1號1樓,核准設立,25.0432757,121.539588,T
31175692,鴻達五金行,臺北市北投區尊賢街249巷30號1樓,核准設立,25.117207,121.505293,T
31346133,昇煜五金行,臺北市士林區通河西街2段111號1樓,核准設立,25.093660999999997,121.500561,T
31454293,順盈工程行,臺北市內湖區麗山街46巷8之1號,核准設立,25.080691100000003,121.5800477,T
31580171,鑫采工程行,臺北市萬華區昆明街201巷8號1樓,核准設立,25.0389406,121.50449099999999,T
31842772,雲台山工程行,臺北市文山區木新路2段79巷6弄11號3樓,核准設立,24.984496,121.570755,T
31849199,譓矷工程行,臺北市信義區忠孝東路5段372巷27弄8號3樓,核准設立,25.0393919,121.574215,T
31855115,政統資訊工程行,臺北市士林區中正路653號5樓,核准設立,25.0859669,121.5078402,T
31855207,詠鈞工程行,臺北市文山區興隆路4段49之10號2樓,核准設立,24.989950399999998,121.55979669999999,T
31861783,藝順工程行,臺北市大安區和平東路3段228巷24號4樓之1,核准設立,25.0218343,121.5540737,T
31863641,宅修繕工程行,臺北市大同區萬全街11號1樓,核准設立,25.0586655,121.51976869999999,T
31865227,偉懋家電材料行,臺北市松山區民生東路5段272號1樓,核准設立,25.059051999999998,121.56774080000001,T
31871348,威竑工程行,臺北市內湖區安康路434巷36號5樓,核准設立,25.066453,121.61604550000001,T
31871641,一嘉空調工程行,臺北市南港區市民大道8段532號,核准設立,25.0539051,121.61336399999999,T
31872141,智勝壁紙材料行,臺北市大安區溫州街12巷24弄1號1樓,核准設立,25.025631,121.53179899999999,T
31874345,洪文灝工程行,臺北市士林區葫東街40號1樓,核准設立,25.0836577,121.5114572,T
31952881,名耀室內裝修工程行,臺北市萬華區環河南路2段100巷5號5樓,核准設立,25.037188,121.4949814,T
31956681,詠成五金行,臺北市松山區延壽街364號,核准設立,25.0563507,121.5586295,T
31963677,正裕保溫工程行,臺北市中山區建國北路三段175號3樓,核准設立,25.0679634,121.534012,T
31966392,弘展水電行,臺北市北投區中央北路4段330號,核准設立,25.130667600000002,121.4722379,T
36541120,國豐五金行,臺北市萬華區環河南路1段162號（河濱商場攤位第81號）,核准設立,25.034101899999996,121.493284,T
38457984,鼎紳工程行,臺北市大同區仁愛路3段9號地下1層,核准設立,25.039434399999998,121.5419962,T
38473838,長和工程行,臺北市中山區長安東路1段27號9樓之1,核准設立,25.0493881,121.5242679,T
38474338,靖勝五金行,臺北市大同區太原路50之2號3樓,核准設立,25.0509327,121.5152668,T
38475168,騰翔工程行,臺北市士林區天母西路3號8樓之16,核准設立,25.1185873,121.5292979,T
38497445,弘全工程行,臺北市內湖區新明路426巷7號,核准設立,25.0553741,121.5793553,T
38498774,士全五金行,臺北市中山區長安東路1段23之6號,核准設立,25.049482100000002,121.523794,T
38499957,頂尖環保工程行,臺北市萬華區環河南路3段257號1樓,核准設立,25.019861,121.493108,T
38500336,吉連興工程行,臺北市萬華區東園街28巷30號,核准設立,25.026872,121.495241,T
38500737,利多環保工程行,臺北市松山區南京東路4段130號2樓之1,核准設立,25.051396399999998,121.55572099999999,T
38501905,石神工程行,臺北市萬華區昆明街46號7樓之47,核准設立,25.0464563,121.50556770000001,T
38504972,名喬工程行,臺北市大同區酒泉街246巷6號3樓,核准設立,25.071795899999998,121.50953510000001,T
38506508,?奕工程行,臺北市萬華區廣州街204號2樓,核准設立,25.0366825,121.4974312,T
38508739,宇鑫工程行,臺北市大同區承德路2段155巷7號,核准設立,25.0582109,121.518776,T
38509673,銘御室內外設計工程行,臺北市北投區中央北路2段237巷33號2樓,核准設立,25.137544000000002,121.492378,T
38513613,源榕五金行,臺北市大同區延平北路2段60巷9號1樓,核准設立,25.0554704,121.5112635,T
38513677,雨勳工程行,臺北市萬華區萬大路493巷28弄5號,核准設立,25.019503,121.49881,T
38515149,見張工程行,臺北市南港區合順街8巷3弄18號,核准設立,25.0421918,121.61890790000001,T
38553255,允盛工程行,臺北市士林區社中街228巷3弄1號3樓,核准設立,25.0916128,121.5081104,T
38553662,紘暘工程行,臺北市萬華區和平西路3段109巷11號3樓,核准設立,25.0359014,121.50051599999999,T
38554114,永承水電工程行,臺北市南港區玉成街235巷4號,核准設立,25.043116100000002,121.5855753,T
38556350,台灣愛梭五金行,臺北市萬華區環河南路1段248號,核准設立,25.0460659,121.50297749999999,T
38558548,大昌中古五金行,臺北市萬華區環河南路1段10號,核准設立,25.0485247,121.50591409999998,T
38560827,承達室內裝修工程行,臺北市大安區忠孝東路4段206之1號4樓,核准設立,25.041193,121.552351,T
38561229,青山汽車材料行,臺北市內湖區麗山街328巷8之1號,核准設立,25.0831862,121.57362109999998,T
38566049,亞摩工程行,臺北市內湖區成功路2段301號1樓,核准設立,25.072623800000002,121.5893976,T
38568980,孫氏工程行,臺北市大同區長安西路249號4樓,核准設立,25.0521572,121.51117920000002,T
38571303,大勇工程行,臺北市文山區和平東路4段89號,核准設立,25.0049991,121.56849199999999,T
38571520,宏翊工程行,臺北市內湖區康樂街20巷10號3樓,核准設立,25.0685099,121.61746699999999,T
38571599,立安工程行,臺北市大同區華陰街277巷7號,核准設立,25.050105399999996,121.51587479999999,T
38572632,振鼎工程行,臺北市中山區林森北路259巷9號5樓之14,核准設立,25.054424800000003,121.5260521,T
38574147,水手清潔用品材料行,臺北市內湖區內湖路1段323巷5弄5號5樓,核准設立,25.082936800000002,121.56832069999999,T
38574358,宇伸工程行,臺北市中山區中山北路2段170號8樓,核准設立,25.0635527,121.5222178,T
38575589,以勒工程行,臺北市大安區忠孝東路3段249號3樓,核准設立,25.0418043,121.54148459999999,T
38577361,啟宏五金行,臺北市信義區和平東路3段531巷83號,核准設立,25.015757,121.56223200000001,T
38578328,聖嘉工程行,臺北市中山區松江路283號5樓,核准設立,25.060222,121.5334757,T
38579425,亦翔工程行,臺北市北投區中央北路4段456巷2號,核准設立,25.129177600000002,121.4698551,T
38580350,尚歷工程行,臺北市中正區中華路2段81巷66號,核准設立,25.0263345,121.5109831,T
41070606,創升工程行,臺北市內湖區東湖路160巷10弄20號4樓,核准設立,25.067609,121.61706799999999,T
41083519,佳欣工程行,臺北市中正區忠孝西路1段50號15樓之1,核准設立,25.046222,121.51583000000001,T
42268465,帷新工程行,臺北市中山區民族東路410巷23弄22號5樓,核准設立,25.066771,121.539449,T
42269627,泰泓工程行,臺北市南港區市民大道7段26號2樓,核准設立,25.0487854,121.58138840000001,T
42276423,富瑜工程行,臺北市文山區興隆路2段222號,核准設立,25.001362699999998,121.552811,T
42277561,阿樑工程行,臺北市內湖區內湖路1段629巷40弄16號,核准設立,25.0817285,121.5743327,T
42277909,鼎笙工程行,臺北市北投區中和街493巷16弄16號,核准設立,25.144371600000003,121.4937256,T
42278301,鋐冠工程行,臺北市北投區中和街502巷11弄10號3樓,核准設立,25.147251,121.493897,T
42279759,源泰五金行,臺北市中山區龍江路11巷46號1樓,核准設立,25.047373399999998,121.5412717,T
42280616,宏宥工程行,臺北市信義區和平東路3段447號,核准設立,25.0189191,121.5586865,T
42284084,承安工程行,臺北市文山區興德路53巷15弄3號,核准設立,25.001983600000003,121.55549029999999,T
42292492,宏信工程行,臺北市大安區基隆路2段208號,核准設立,25.0236889,121.551437,T
42292943,利山鋁業工程行,臺北市中山區吉林路394號1樓,核准設立,25.0652078,121.5301953,T
42293680,風尚工程行,臺北市大同區南京西路18巷6號5樓之2,核准設立,25.0518668,121.52019109999999,T
42295322,祥宥工程行,臺北市萬華區廣州街62號1樓,核准設立,25.036481,121.5032639,T
42297996,得鑫電器工程行,臺北市大安區臥龍街272巷5號,核准設立,25.016892600000002,121.55825220000001,T
42335252,上好裝潢工程行,臺北市信義區松隆路345號1樓,核准設立,25.048702,121.57986399999999,T
42336610,名辰五金行,臺北市萬華區環河南路1段222號1樓,核准設立,25.046321,121.5032939,T
42338384,國盟工程行,臺北市萬華區莒光路250之1號1樓,核准設立,25.0313262,121.49966909999999,T
42339314,老虎空間室內裝修工程行,臺北市南港區富康街41號1樓,核准設立,25.053248999999997,121.617333,T
42340136,天降神兵工程行,臺北市信義區虎林街232巷9號1樓,核准設立,25.036615,121.57718700000001,T
42343632,富霖水電瓦斯器具行,臺北市信義區中坡南路130之6號,核准設立,25.04052,121.58463700000001,T
48502214,顏億五金商行,臺北市萬華區大理街171之2號1樓,核准設立,25.033999899999998,121.49487979999999,T
48559525,東海水電行,臺北市信義區吳興街281巷13號1樓,核准設立,25.0266141,121.5647382,T
48582407,永勝工程行,臺北市內湖區內湖路3段60巷50弄6號,核准設立,25.089111499999998,121.5929386,T
48683030,佳昇工具行,臺北市士林區延平北路6段33號1樓,核准設立,25.0872955,121.5088987,T
48686521,琦士美工程行,臺北市萬華區西寧南路36號2樓之105,核准設立,25.0452425,121.5064943,T
48698245,恆億水電材料行,臺北市文山區恆光街14巷16號1樓,核准設立,24.9826808,121.56629840000002,T
48717720,春和五金行,臺北市大同區民族西路35號1樓,核准設立,25.068672399999997,121.5194419,T
48721392,永昇五金行,臺北市大安區四維路154巷11號1樓,核准設立,25.0310714,121.5473769,T
48725783,亞帝工程行,臺北市中山區民族東路262號,核准設立,25.0679895,121.53494009999999,T
48750662,巨丞裝潢設計工程行,臺北市信義區忠孝東路5段71巷10號,核准設立,25.041948100000003,121.56721940000001,T
48756645,松杰汽車材料行,臺北市大同區太原路11巷18號1樓,核准設立,25.0494872,121.5157473,T
48770180,永宏工程行,臺北市信義區嘉興街179之2號,核准設立,25.026999800000002,121.5570207,T
48777064,承泰不銹鋼工程行,臺北市士林區永平街16號1樓,核准設立,25.089963100000002,121.5052799,T
48786401,佳得百貨五金行,臺北市萬華區萬大路486巷31號,核准設立,25.020067899999997,121.496494,T
48786535,金三芝五金百貨行,臺北市文山區景美街99號,核准設立,24.990316699999997,121.5416033,T
48788288,彩富五金行,臺北市北投區中和街488號,核准設立,25.1453141,121.4949936,T
48812506,利樺工具五金行,臺北市萬華區西藏路161號,核准設立,25.0293448,121.5012727,T
48856166,和泰五金行,臺北市南港區南港路2段258號,核准設立,25.0544027,121.59672959999999,T
48856216,來發五金行,臺北市內湖區成功路4段315號,核准設立,25.084491399999997,121.5985436,T
48868326,尚杰工程行,臺北市北投區民族街39號,核准設立,25.133113,121.505477,T
48868775,長弘五金行,臺北市萬華區和平西路3段49之1號,核准設立,25.0353573,121.5027148,T
48883430,拾圓五金文具百貨商行,臺北市萬華區東園街28巷7號,核准設立,25.026862,121.495424,T
48894252,鈺民廣告工程行,臺北市士林區延平北路5段63號,核准設立,25.0805268,121.5106176,T
48901063,鴻祥汽車材料行,臺北市中山區八德路2段195號,核准設立,25.0465936,121.53898240000001,T
48922644,煥新工程行,臺北市士林區延平北路7段9號1樓,核准設立,25.094496,121.4961851,T
48936400,亨佳工程行,臺北市北投區公館路340巷6號,核准設立,25.1237405,121.5049547,T
48947173,信發水電材料行,臺北市文山區興隆路1段289號,核准設立,24.9988538,121.54459569999999,T
48960323,上慶五金百貨商行,臺北市北投區石牌路1段166巷131號,核准設立,25.111526,121.51578889999999,T
48962080,勝昌五金行,臺北市萬華區環河南路1段154號,核准設立,25.0468522,121.5038772,T
48963861,麗顏工程企業社,臺北市信義區莊敬路390號4樓,核准設立,25.027359,121.565463,T
48964593,勝利五金行,臺北市萬華區環河南路1段224、226號,核准設立,25.046280399999997,121.5032423,T
48964881,慶燁工程行,臺北市萬華區寶興街210巷22號,核准設立,25.022835,121.495106,T
48977289,統來機電五金行,臺北市萬華區環河南路1段2號公有河濱一商場1號攤位,核准設立,25.034101899999996,121.493284,T
48979890,家禾汽車材料行,臺北市北投區文林北路68號,核准設立,25.105114999999998,121.51836200000001,T
48995126,日晟軸承五金商行,臺北市大同區歸綏街50號,核准設立,25.059167000000002,121.5173291,T
48999214,玄皇工程行,臺北市文山區興隆路3段192巷8弄42號,核准設立,24.998006600000004,121.55741880000001,T
49896567,勁勇建材五金行,臺北市南港區重陽路10號,核准設立,25.0592888,121.61027309999999,T
50647460,廷固工程行,臺北市文山區辛亥路7段11、12號,核准設立,24.9870599,121.552799,T
73885040,松陽汽車材料行,臺北市大同區赤峰街53巷6號1樓,核准設立,25.056145,121.5198881,T
73891134,龍太五金行,臺北市南港區八德路4段901號1樓,核准設立,25.0510333,121.58099240000001,T
73892231,宏伸水電工程行,臺北市內湖區內湖路1段411巷9弄4號1樓,核准設立,25.0821593,121.5713842,T
73910630,家豪五金機械行,臺北市士林區社正路64巷1弄9號1樓,核准設立,25.0887212,121.5113307,T
73917802,澤遠工程行,臺北市大同區哈密街59巷21弄19之1號1樓,核准設立,25.074662300000004,121.5158122,T
77483258,鴻祥水電空調工程行,臺北市文山區木柵路2段109巷79號,核准設立,24.991409100000002,121.5641088,T
77515408,宏欣廣告工程行,臺北市大同區環河北路1段69號1樓,核准設立,25.052676,121.507461,T
78330718,新明達五金商行,臺北市松山區八德路4段503號1樓,核准設立,25.050030399999997,121.571757,T
78369500,東信五金行,臺北市中正區延平南路266號1樓,核准設立,25.0325891,121.50731470000001,T
80985059,禾稑工程行,臺北市內湖區新明路498巷14弄10號,核准設立,25.053863600000003,121.57758829999999,T
80987248,龍礄螺絲五金行,臺北市萬華區環河南路1段6號1樓,核准設立,25.0485826,121.5059761,T
80991550,中二水電行,臺北市大安區忠孝東路3段251巷9弄14號,核准設立,25.0432429,121.54233020000001,T
80993678,信得立工程行,臺北市南港區舊莊街1段145巷6弄35號1樓,核准設立,25.039544,121.6220525,T
80995541,協聲水電行,臺北市士林區中山北路7段190巷6號1樓,核准設立,25.1248835,121.5331996,T
81606921,啟明水電工程行,臺北市中正區南海路101號5樓之1,核准設立,25.0280974,121.50785259999998,T
81618237,國新水電行,臺北市文山區木新路2段161巷2號,核准設立,24.983807000000002,121.568781,T
81646753,旺旺五金行,臺北市內湖區內湖路1段737巷51弄2號1樓,核准設立,25.0805835,121.5792273,T
81672294,坤松汽車材料百貨行,臺北市文山區興隆路2段218之1號1樓,核准設立,25.0014109,121.55255530000001,T
81714442,佳晉水電材料行,臺北市南港區南港路1段79號1樓,核准設立,25.055106,121.6155006,T
81731548,佳欣工具行,臺北市士林區葫蘆街35號1樓,核准設立,25.080055899999998,121.50960740000001,T
81763999,協億水電行,臺北市萬華區和平西路3段174之4號,核准設立,25.0351735,121.4977767,T
81779710,吉成衛生清潔工程行,臺北市萬華區國興路1巷2之2號,核准設立,25.024226199999998,121.50881799999999,T
81781716,進鑫電機五金行,臺北市萬華區環河南路1段36號1樓,核准設立,25.0481076,121.5054348,T
83907043,錦勝水電材料行,臺北市大同區延平北路2段144巷7號1樓,核准設立,25.057716,121.511164,T
83910737,上大五金水電材料行,臺北市士林區文林路755號1樓,核准設立,25.103224100000002,121.51938999999999,T
83917675,英洲工程行,臺北市松山區光復南路6巷47號1樓,核准設立,25.047586199999998,121.55654709999999,T
83931070,山鋒五金行,臺北市內湖區新明路183號1樓,核准設立,25.058608,121.588652,T
83947559,日進水電行,臺北市中山區新生北路1段78號9樓之2,核准設立,25.0474115,121.53005870000001,T
92908640,立德工程行,臺北市內湖區康樂街48巷16號,核准設立,25.0690973,121.6175158,T
94913177,聯成空油壓五金行,臺北市大同區華陰街119號1樓,核准設立,25.0500734,121.5165135,T
94917005,清聯鎖印五金行,臺北市南港區中南街72號1樓,核准設立,25.053411399999998,121.61509640000001,T
98905846,祥順工程行,臺北市信義區虎林街120巷143號1樓,核准設立,25.042315,121.57475900000001,T
98917152,翔霖工程行,臺北市北投區吉利街123巷18號2樓,核准設立,25.119147899999998,121.506404,T
99325326,明凰室內裝潢工程行,臺北市文山區興隆路1段119號,核准設立,25.002423,121.54189699999999,T
99333022,大楓城飾品材料行,臺北市大同區延平北路2段60巷11號,核准設立,25.055465899999998,121.51123570000001,T
99345723,瑞鑫五金百貨行,臺北市北投區中和街263號1樓,核准設立,25.140003399999998,121.500588,T
99348714,順太五金行,臺北市萬華區康定路226號,核准設立,25.0380145,121.5016233,T
99644026,億源冷氣工程行,臺北市中山區華陰街24巷1弄3號1樓,核准設立,25.048958499999998,121.5199557,T
99945613,心成水電工程行,臺北市士林區承德路4段315號2樓,核准設立,25.090270999999998,121.518026,T
99948153,良裕工程行,臺北市萬華區中華路2段416巷1號3樓之1,核准設立,25.0278591,121.5052996,T
99956272,大千水電行,臺北市信義區虎林街100巷104號1樓,核准設立,25.0429009,121.574946,T
99966139,祐德玻璃工程行,臺北市中山區民權東路3段75巷2弄9號1樓,核准設立,25.0629892,121.5432631,T
99969451,鉅綸裝潢工程行,臺北市松山區五常街271號1樓,核准設立,25.064411,121.54489299999999,T
99987021,永裕昌鋁門窗工程行,臺北市文山區木新路3段310巷12弄15號1樓,核准設立,24.9820836,121.55744709999999,T
99990378,新響工程行,臺北市大安區復興南路1段107巷5弄19之1號1樓,核准設立,25.0443351,121.54514809999999,T
